{
    "type":  "Feature",
    "id":  "1083214",
    "properties":  {
                       "bin":  "1083214",
                       "bbl":  "1013730040",
                       "address":  "531 MAIN STREET",
                       "building_use":  "Multi-Family Elevator Buildings",
                       "pluto_landuse_code":  "3",
                       "building_class":  "D4",
                       "pluto_year_built":  "1975",
                       "pluto_floors":  "20.0000000",
                       "residential_units":  "365",
                       "total_units":  "368",
                       "building_area_sqft":  "683637",
                       "lot_area_sqft":  "97913",
                       "construction_year":  "1975",
                       "height_roof":  "11.04327",
                       "feature_code":  "2100",
                       "geometry_source":  "Photogrammetric",
                       "last_status_type":  "Constructed",
                       "retrieved_on":  "2026-09-29",
                       "source_footprint":  "NYC DoITT BUILDING (Socrata 5zhs-2jue)",
                       "source_taxlot":  "NYC DCP PLUTO 26v2 (Socrata 64uk-42ks)",
                       "source_boundary":  "OpenStreetMap relation 2389564 (Roosevelt Island)",
                       "source_attributes":  {
                                                 "building":  {
                                                                  "name":  null,
                                                                  "base_bbl":  "1013730040",
                                                                  "shape_area":  "1676.20703125",
                                                                  "construction_year":  "1975",
                                                                  "ground_elevation":  "17",
                                                                  "mappluto_bbl":  "1013730040",
                                                                  "objectid":  "664576",
                                                                  "feature_code":  "2100",
                                                                  "shape_length":  "190.97726343755934",
                                                                  "height_roof":  "11.04327",
                                                                  "last_status_type":  "Constructed",
                                                                  "bin":  "1083214",
                                                                  "last_edited_date":  "2013-08-22T00:00:00.000Z",
                                                                  "geom_source":  "Photogrammetric",
                                                                  "doitt_id":  "1257225"
                                                              },
                                                 "pluto":  {
                                                               "borough":  "MN",
                                                               "block":  "1373",
                                                               "lot":  "40",
                                                               "cd":  "108",
                                                               "ct2010":  "238.01",
                                                               "cb2010":  "1009",
                                                               "schooldist":  "2",
                                                               "council":  "5",
                                                               "zipcode":  "10044",
                                                               "firecomp":  "E260",
                                                               "policeprct":  "114",
                                                               "healtharea":  "8300",
                                                               "sanitboro":  "1",
                                                               "address":  "531 MAIN STREET",
                                                               "zonedist1":  "R7-2",
                                                               "splitzone":  false,
                                                               "bldgclass":  "D4",
                                                               "landuse":  "3",
                                                               "easements":  "0",
                                                               "ownertype":  "C",
                                                               "ownername":  "RIVERCROSS TENANTS\u0027 CORP.",
                                                               "lotarea":  "97913",
                                                               "bldgarea":  "683637",
                                                               "comarea":  "11972",
                                                               "resarea":  "671665",
                                                               "officearea":  "3472",
                                                               "retailarea":  "8500",
                                                               "garagearea":  "0",
                                                               "strgearea":  "0",
                                                               "factryarea":  "0",
                                                               "otherarea":  "0",
                                                               "areasource":  "2",
                                                               "numbldgs":  "3",
                                                               "numfloors":  "20.0000000",
                                                               "unitsres":  "365",
                                                               "unitstotal":  "368",
                                                               "lotfront":  "377.0000000",
                                                               "lotdepth":  "320.0000000",
                                                               "bldgfront":  "374.0000000",
                                                               "bldgdepth":  "308.0000000",
                                                               "ext":  "N",
                                                               "proxcode":  "0",
                                                               "irrlotcode":  true,
                                                               "lottype":  "5",
                                                               "bsmtcode":  "0",
                                                               "assessland":  "4405500.00000",
                                                               "assesstot":  "83931750.00000",
                                                               "exempttot":  "83931750.00000",
                                                               "yearbuilt":  "1975",
                                                               "yearalter1":  "0",
                                                               "yearalter2":  "0",
                                                               "landmark":  "INDIVIDUAL LANDMARK",
                                                               "builtfar":  "6.98000000000",
                                                               "residfar":  "3.44000000000",
                                                               "commfar":  "0.00000000000",
                                                               "facilfar":  "6.50000000000",
                                                               "affresfar":  "5.01000000000",
                                                               "mnffar":  "0.00000000000",
                                                               "borocode":  "1",
                                                               "bbl":  "1013730040.00000000",
                                                               "tract2010":  "23801",
                                                               "xcoord":  "998006",
                                                               "ycoord":  "216729",
                                                               "latitude":  "40.7615368",
                                                               "longitude":  "-73.9503438",
                                                               "zonemap":  "9a",
                                                               "sanborn":  "16E 070",
                                                               "taxmap":  "10507",
                                                               "appbbl":  "1013730001.00000000",
                                                               "appdate":  "2004-01-09T00:00:00.000",
                                                               "plutomapid":  "1",
                                                               "version":  "26v2",
                                                               "sanitdistrict":  "8",
                                                               "healthcenterdistrict":  "13",
                                                               "bct2020":  "1023803",
                                                               "bctcb2020":  "10238032000",
                                                               "transitzone":  "Inner Transit Zone"
                                                           }
                                             }
                   },
    "geometry":  {
                     "type":  "MultiPolygon",
                     "coordinates":  [
                                         [
                                             [
                                                 [
                                                     -73.950973720513,
                                                     40.761250338232
                                                 ],
                                                 [
                                                     -73.951199986687,
                                                     40.761352300299
                                                 ],
                                                 [
                                                     -73.950966010948,
                                                     40.761610353165
                                                 ],
                                                 [
                                                     -73.950912958346,
                                                     40.761583271305
                                                 ],
                                                 [
                                                     -73.950931925519,
                                                     40.761561789739
                                                 ],
                                                 [
                                                     -73.950856400854,
                                                     40.761523236656
                                                 ],
                                                 [
                                                     -73.950874238437,
                                                     40.761503034234
                                                 ],
                                                 [
                                                     -73.95081391467,
                                                     40.761472240949
                                                 ],
                                                 [
                                                     -73.950809188877,
                                                     40.761477593333
                                                 ],
                                                 [
                                                     -73.950739919904,
                                                     40.761442233332
                                                 ],
                                                 [
                                                     -73.950724819159,
                                                     40.761459335565
                                                 ],
                                                 [
                                                     -73.950678846265,
                                                     40.761435866749
                                                 ],
                                                 [
                                                     -73.950684536902,
                                                     40.761429422471
                                                 ],
                                                 [
                                                     -73.950689873748,
                                                     40.761432146081
                                                 ],
                                                 [
                                                     -73.950731716075,
                                                     40.761384756906
                                                 ],
                                                 [
                                                     -73.950709159982,
                                                     40.761373242409
                                                 ],
                                                 [
                                                     -73.950760885281,
                                                     40.761314659675
                                                 ],
                                                 [
                                                     -73.95075652631,
                                                     40.761312434465
                                                 ],
                                                 [
                                                     -73.950779643185,
                                                     40.761286252261
                                                 ],
                                                 [
                                                     -73.950768123433,
                                                     40.761278250856
                                                 ],
                                                 [
                                                     -73.950793949881,
                                                     40.761248999085
                                                 ],
                                                 [
                                                     -73.950801256659,
                                                     40.761252728494
                                                 ],
                                                 [
                                                     -73.950828262451,
                                                     40.76122214177
                                                 ],
                                                 [
                                                     -73.950945546252,
                                                     40.761282009601
                                                 ],
                                                 [
                                                     -73.950973720513,
                                                     40.761250338232
                                                 ]
                                             ]
                                         ]
                                     ]
                 }
}
