{
    "type":  "Feature",
    "id":  "1086204",
    "properties":  {
                       "bin":  "1086204",
                       "bbl":  "1013730002",
                       "address":  "475 MAIN STREET",
                       "building_use":  "Multi-Family Elevator Buildings",
                       "pluto_landuse_code":  "3",
                       "building_class":  "D3",
                       "pluto_year_built":  "2003",
                       "pluto_floors":  "16.0000000",
                       "residential_units":  "258",
                       "total_units":  "258",
                       "building_area_sqft":  "211000",
                       "lot_area_sqft":  "35918",
                       "construction_year":  "2003",
                       "height_roof":  "152",
                       "feature_code":  "2100",
                       "geometry_source":  "Other (Manual)",
                       "last_status_type":  "Constructed",
                       "retrieved_on":  "2026-09-29",
                       "source_footprint":  "NYC DoITT BUILDING (Socrata 5zhs-2jue)",
                       "source_taxlot":  "NYC DCP PLUTO 26v2 (Socrata 64uk-42ks)",
                       "source_boundary":  "OpenStreetMap relation 2389564 (Roosevelt Island)",
                       "source_attributes":  {
                                                 "building":  {
                                                                  "name":  null,
                                                                  "base_bbl":  "1013730002",
                                                                  "shape_area":  "2413.76171875",
                                                                  "construction_year":  "2003",
                                                                  "ground_elevation":  "19",
                                                                  "mappluto_bbl":  "1013730002",
                                                                  "objectid":  "1079594",
                                                                  "feature_code":  "2100",
                                                                  "shape_length":  "266.92026282708838",
                                                                  "height_roof":  "152",
                                                                  "last_status_type":  "Constructed",
                                                                  "bin":  "1086204",
                                                                  "last_edited_date":  "2021-05-07T15:21:23.000Z",
                                                                  "geom_source":  "Other (Manual)",
                                                                  "doitt_id":  "913149"
                                                              },
                                                 "pluto":  {
                                                               "borough":  "MN",
                                                               "block":  "1373",
                                                               "lot":  "2",
                                                               "cd":  "108",
                                                               "ct2010":  "238.01",
                                                               "cb2010":  "1006",
                                                               "schooldist":  "2",
                                                               "council":  "5",
                                                               "zipcode":  "10044",
                                                               "firecomp":  "E260",
                                                               "policeprct":  "114",
                                                               "healtharea":  "8300",
                                                               "sanitboro":  "1",
                                                               "address":  "475 MAIN STREET",
                                                               "zonedist1":  "R7-2",
                                                               "splitzone":  false,
                                                               "bldgclass":  "D3",
                                                               "landuse":  "3",
                                                               "easements":  "0",
                                                               "ownertype":  "C",
                                                               "ownername":  "S.K.I. REALTY, INC.",
                                                               "lotarea":  "35918",
                                                               "bldgarea":  "211000",
                                                               "comarea":  "0",
                                                               "resarea":  "211000",
                                                               "officearea":  "0",
                                                               "retailarea":  "0",
                                                               "garagearea":  "0",
                                                               "strgearea":  "0",
                                                               "factryarea":  "0",
                                                               "otherarea":  "0",
                                                               "areasource":  "2",
                                                               "numbldgs":  "1",
                                                               "numfloors":  "16.0000000",
                                                               "unitsres":  "258",
                                                               "unitstotal":  "258",
                                                               "lotfront":  "128.0000000",
                                                               "lotdepth":  "249.0000000",
                                                               "bldgfront":  "85.0000000",
                                                               "bldgdepth":  "185.0000000",
                                                               "ext":  "N",
                                                               "proxcode":  "0",
                                                               "irrlotcode":  true,
                                                               "lottype":  "5",
                                                               "bsmtcode":  "0",
                                                               "assessland":  "2214000.00000",
                                                               "assesstot":  "23247900.00000",
                                                               "exempttot":  "23247900.00000",
                                                               "yearbuilt":  "2003",
                                                               "yearalter1":  "0",
                                                               "yearalter2":  "0",
                                                               "landmark":  "INDIVIDUAL LANDMARK",
                                                               "builtfar":  "5.87000000000",
                                                               "residfar":  "3.44000000000",
                                                               "commfar":  "0.00000000000",
                                                               "facilfar":  "6.50000000000",
                                                               "affresfar":  "5.01000000000",
                                                               "mnffar":  "0.00000000000",
                                                               "borocode":  "1",
                                                               "bbl":  "1013730002.00000000",
                                                               "tract2010":  "23801",
                                                               "xcoord":  "997721",
                                                               "ycoord":  "216204",
                                                               "latitude":  "40.7600962",
                                                               "longitude":  "-73.9513736",
                                                               "zonemap":  "9a",
                                                               "zmcode":  true,
                                                               "sanborn":  "106E070",
                                                               "taxmap":  "10507",
                                                               "appbbl":  "1013730001.00000000",
                                                               "appdate":  "2004-01-09T00:00:00.000",
                                                               "plutomapid":  "1",
                                                               "version":  "26v2",
                                                               "sanitdistrict":  "8",
                                                               "healthcenterdistrict":  "13",
                                                               "bct2020":  "1023804",
                                                               "bctcb2020":  "10238043000",
                                                               "transitzone":  "Inner Transit Zone"
                                                           }
                                             }
                   },
    "geometry":  {
                     "type":  "MultiPolygon",
                     "coordinates":  [
                                         [
                                             [
                                                 [
                                                     -73.951788945422,
                                                     40.760180088667
                                                 ],
                                                 [
                                                     -73.951672889992,
                                                     40.760025173901
                                                 ],
                                                 [
                                                     -73.951670862094,
                                                     40.760022467032
                                                 ],
                                                 [
                                                     -73.95164179952,
                                                     40.759983672789
                                                 ],
                                                 [
                                                     -73.951608112105,
                                                     40.759938705435
                                                 ],
                                                 [
                                                     -73.951536497069,
                                                     40.75984311014
                                                 ],
                                                 [
                                                     -73.951690887811,
                                                     40.759670464426
                                                 ],
                                                 [
                                                     -73.951758787671,
                                                     40.75959453708
                                                 ],
                                                 [
                                                     -73.95175916102,
                                                     40.759594119402
                                                 ],
                                                 [
                                                     -73.951763851246,
                                                     40.759596708517
                                                 ],
                                                 [
                                                     -73.951857918652,
                                                     40.75964862866
                                                 ],
                                                 [
                                                     -73.951861779039,
                                                     40.759650759066
                                                 ],
                                                 [
                                                     -73.951838779543,
                                                     40.759674852371
                                                 ],
                                                 [
                                                     -73.951862600069,
                                                     40.759687999795
                                                 ],
                                                 [
                                                     -73.951809905972,
                                                     40.759743199434
                                                 ],
                                                 [
                                                     -73.951864223873,
                                                     40.75977299734
                                                 ],
                                                 [
                                                     -73.951788508451,
                                                     40.759852796349
                                                 ],
                                                 [
                                                     -73.951828816792,
                                                     40.759906600373
                                                 ],
                                                 [
                                                     -73.95198870083,
                                                     40.760120020155
                                                 ],
                                                 [
                                                     -73.951994440484,
                                                     40.760117534451
                                                 ],
                                                 [
                                                     -73.952043270761,
                                                     40.760096383016
                                                 ],
                                                 [
                                                     -73.952049276421,
                                                     40.760104398209
                                                 ],
                                                 [
                                                     -73.952053800778,
                                                     40.760110438878
                                                 ],
                                                 [
                                                     -73.952057786804,
                                                     40.76011575982
                                                 ],
                                                 [
                                                     -73.952100581321,
                                                     40.760172881341
                                                 ],
                                                 [
                                                     -73.952033278665,
                                                     40.760202033302
                                                 ],
                                                 [
                                                     -73.951975250631,
                                                     40.760227168335
                                                 ],
                                                 [
                                                     -73.951861219013,
                                                     40.760276560266
                                                 ],
                                                 [
                                                     -73.951788945422,
                                                     40.760180088667
                                                 ]
                                             ]
                                         ]
                                     ]
                 }
}
