{
    "type":  "Feature",
    "id":  "1089270",
    "properties":  {
                       "bin":  "1089270",
                       "bbl":  "1013730001",
                       "address":  "MAIN STREET",
                       "building_use":  "Multi-Family Elevator Buildings",
                       "pluto_landuse_code":  "3",
                       "building_class":  "D4",
                       "pluto_year_built":  "1975",
                       "pluto_floors":  "18.0000000",
                       "residential_units":  "8018",
                       "total_units":  "8088",
                       "building_area_sqft":  "4786701",
                       "lot_area_sqft":  "4227757",
                       "construction_year":  "1975",
                       "height_roof":  "28.47",
                       "feature_code":  "2100",
                       "geometry_source":  "Photogrammetric",
                       "last_status_type":  "Constructed",
                       "retrieved_on":  "2026-09-29",
                       "source_footprint":  "NYC DoITT BUILDING (Socrata 5zhs-2jue)",
                       "source_taxlot":  "NYC DCP PLUTO 26v2 (Socrata 64uk-42ks)",
                       "source_boundary":  "OpenStreetMap relation 2389564 (Roosevelt Island)",
                       "name":  "Roosevelt Isld Subway Station",
                       "source_attributes":  {
                                                 "building":  {
                                                                  "name":  "Roosevelt Isld Subway Station",
                                                                  "base_bbl":  "1013730001",
                                                                  "shape_area":  "641.203125",
                                                                  "construction_year":  "1975",
                                                                  "ground_elevation":  "16",
                                                                  "mappluto_bbl":  "1013730001",
                                                                  "objectid":  "3925",
                                                                  "feature_code":  "2100",
                                                                  "shape_length":  "126.74164072396817",
                                                                  "height_roof":  "28.47",
                                                                  "last_status_type":  "Constructed",
                                                                  "bin":  "1089270",
                                                                  "last_edited_date":  "2008-03-25T00:00:00.000Z",
                                                                  "geom_source":  "Photogrammetric",
                                                                  "doitt_id":  "996736"
                                                              },
                                                 "pluto":  {
                                                               "borough":  "MN",
                                                               "block":  "1373",
                                                               "lot":  "1",
                                                               "cd":  "108",
                                                               "ct2010":  "238.01",
                                                               "cb2010":  "1015",
                                                               "schooldist":  "2",
                                                               "council":  "5",
                                                               "zipcode":  "10044",
                                                               "firecomp":  "E260",
                                                               "policeprct":  "114",
                                                               "healtharea":  "8300",
                                                               "sanitboro":  "1",
                                                               "address":  "MAIN STREET",
                                                               "zonedist1":  "R7-2",
                                                               "splitzone":  false,
                                                               "bldgclass":  "D4",
                                                               "landuse":  "3",
                                                               "easements":  "1",
                                                               "ownertype":  "C",
                                                               "ownername":  "RIVERWALK 8 AFFORDABLE, L.P.",
                                                               "lotarea":  "4227757",
                                                               "bldgarea":  "4786701",
                                                               "comarea":  "1046956",
                                                               "resarea":  "3739745",
                                                               "officearea":  "7496",
                                                               "retailarea":  "537154",
                                                               "garagearea":  "406500",
                                                               "strgearea":  "0",
                                                               "factryarea":  "0",
                                                               "otherarea":  "95806",
                                                               "areasource":  "2",
                                                               "numbldgs":  "38",
                                                               "numfloors":  "18.0000000",
                                                               "unitsres":  "8018",
                                                               "unitstotal":  "8088",
                                                               "lotfront":  "200.0000000",
                                                               "lotdepth":  "102.5000000",
                                                               "bldgfront":  "0.0000000",
                                                               "bldgdepth":  "0.0000000",
                                                               "ext":  "N",
                                                               "proxcode":  "0",
                                                               "irrlotcode":  true,
                                                               "lottype":  "7",
                                                               "bsmtcode":  "0",
                                                               "assessland":  "134391150.00000",
                                                               "assesstot":  "592936650.00000",
                                                               "exempttot":  "592936650.00000",
                                                               "yearbuilt":  "1975",
                                                               "yearalter1":  "0",
                                                               "yearalter2":  "0",
                                                               "landmark":  "INDIVIDUAL LANDMARK",
                                                               "builtfar":  "1.13000000000",
                                                               "residfar":  "3.44000000000",
                                                               "commfar":  "0.00000000000",
                                                               "facilfar":  "6.50000000000",
                                                               "affresfar":  "5.01000000000",
                                                               "mnffar":  "0.00000000000",
                                                               "borocode":  "1",
                                                               "bbl":  "1013730001.00000000",
                                                               "tract2010":  "23801",
                                                               "xcoord":  "996792",
                                                               "ycoord":  "215349",
                                                               "latitude":  "40.7577508",
                                                               "longitude":  "-73.9547287",
                                                               "zonemap":  "9a",
                                                               "zmcode":  true,
                                                               "sanborn":  "106E070",
                                                               "taxmap":  "10507",
                                                               "appbbl":  "1013730001.00000000",
                                                               "appdate":  "2023-12-06T00:00:00.000",
                                                               "plutomapid":  "1",
                                                               "version":  "26v2",
                                                               "sanitdistrict":  "8",
                                                               "healthcenterdistrict":  "13",
                                                               "firm07_flag":  "1",
                                                               "pfirm15_flag":  "1",
                                                               "bct2020":  "1023804",
                                                               "bctcb2020":  "10238041000",
                                                               "transitzone":  "Inner Transit Zone"
                                                           }
                                             }
                   },
    "geometry":  {
                     "type":  "MultiPolygon",
                     "coordinates":  [
                                         [
                                             [
                                                 [
                                                     -73.953173599428,
                                                     40.75925251512
                                                 ],
                                                 [
                                                     -73.953219247987,
                                                     40.759192240348
                                                 ],
                                                 [
                                                     -73.953210508404,
                                                     40.759188413254
                                                 ],
                                                 [
                                                     -73.953206036797,
                                                     40.759186455541
                                                 ],
                                                 [
                                                     -73.953242942019,
                                                     40.759137726185
                                                 ],
                                                 [
                                                     -73.953276985718,
                                                     40.759092775076
                                                 ],
                                                 [
                                                     -73.953289887897,
                                                     40.759098424674
                                                 ],
                                                 [
                                                     -73.953299906596,
                                                     40.759085195813
                                                 ],
                                                 [
                                                     -73.953368074422,
                                                     40.758995185523
                                                 ],
                                                 [
                                                     -73.953393396912,
                                                     40.759006273784
                                                 ],
                                                 [
                                                     -73.953398557543,
                                                     40.759008533438
                                                 ],
                                                 [
                                                     -73.953403957775,
                                                     40.759008560836
                                                 ],
                                                 [
                                                     -73.953415486557,
                                                     40.759008619529
                                                 ],
                                                 [
                                                     -73.953517077223,
                                                     40.759009133328
                                                 ],
                                                 [
                                                     -73.953344749343,
                                                     40.759236677135
                                                 ],
                                                 [
                                                     -73.953233801709,
                                                     40.75923406301
                                                 ],
                                                 [
                                                     -73.953227998885,
                                                     40.759233926479
                                                 ],
                                                 [
                                                     -73.953204501316,
                                                     40.759264951944
                                                 ],
                                                 [
                                                     -73.953199744428,
                                                     40.759271232836
                                                 ],
                                                 [
                                                     -73.953197698639,
                                                     40.759270336902
                                                 ],
                                                 [
                                                     -73.953190577445,
                                                     40.759267219162
                                                 ],
                                                 [
                                                     -73.953169464858,
                                                     40.759257974102
                                                 ],
                                                 [
                                                     -73.953171564148,
                                                     40.7592552023
                                                 ],
                                                 [
                                                     -73.953173599428,
                                                     40.75925251512
                                                 ]
                                             ]
                                         ]
                                     ]
                 }
}
