{
    "type":  "Feature",
    "id":  "1083198",
    "properties":  {
                       "bin":  "1083198",
                       "bbl":  "1013730002",
                       "address":  "475 MAIN STREET",
                       "building_use":  "Multi-Family Elevator Buildings",
                       "pluto_landuse_code":  "3",
                       "building_class":  "D3",
                       "pluto_year_built":  "2003",
                       "pluto_floors":  "16.0000000",
                       "residential_units":  "258",
                       "total_units":  "258",
                       "building_area_sqft":  "211000",
                       "lot_area_sqft":  "35918",
                       "construction_year":  "1975",
                       "height_roof":  "34",
                       "feature_code":  "2100",
                       "geometry_source":  "Other (Manual)",
                       "last_status_type":  "Constructed",
                       "retrieved_on":  "2026-09-29",
                       "source_footprint":  "NYC DoITT BUILDING (Socrata 5zhs-2jue)",
                       "source_taxlot":  "NYC DCP PLUTO 26v2 (Socrata 64uk-42ks)",
                       "source_boundary":  "OpenStreetMap relation 2389564 (Roosevelt Island)",
                       "source_attributes":  {
                                                 "building":  {
                                                                  "name":  null,
                                                                  "base_bbl":  "1013730002",
                                                                  "shape_area":  "315.32421875",
                                                                  "construction_year":  "1975",
                                                                  "ground_elevation":  "24",
                                                                  "mappluto_bbl":  "1013730002",
                                                                  "objectid":  "1070287",
                                                                  "feature_code":  "2100",
                                                                  "shape_length":  "79.330745390673542",
                                                                  "height_roof":  "34",
                                                                  "last_status_type":  "Constructed",
                                                                  "bin":  "1083198",
                                                                  "last_edited_date":  "2018-12-07T18:34:44.000Z",
                                                                  "geom_source":  "Other (Manual)",
                                                                  "doitt_id":  "206864"
                                                              },
                                                 "pluto":  {
                                                               "borough":  "MN",
                                                               "block":  "1373",
                                                               "lot":  "2",
                                                               "cd":  "108",
                                                               "ct2010":  "238.01",
                                                               "cb2010":  "1006",
                                                               "schooldist":  "2",
                                                               "council":  "5",
                                                               "zipcode":  "10044",
                                                               "firecomp":  "E260",
                                                               "policeprct":  "114",
                                                               "healtharea":  "8300",
                                                               "sanitboro":  "1",
                                                               "address":  "475 MAIN STREET",
                                                               "zonedist1":  "R7-2",
                                                               "splitzone":  false,
                                                               "bldgclass":  "D3",
                                                               "landuse":  "3",
                                                               "easements":  "0",
                                                               "ownertype":  "C",
                                                               "ownername":  "S.K.I. REALTY, INC.",
                                                               "lotarea":  "35918",
                                                               "bldgarea":  "211000",
                                                               "comarea":  "0",
                                                               "resarea":  "211000",
                                                               "officearea":  "0",
                                                               "retailarea":  "0",
                                                               "garagearea":  "0",
                                                               "strgearea":  "0",
                                                               "factryarea":  "0",
                                                               "otherarea":  "0",
                                                               "areasource":  "2",
                                                               "numbldgs":  "1",
                                                               "numfloors":  "16.0000000",
                                                               "unitsres":  "258",
                                                               "unitstotal":  "258",
                                                               "lotfront":  "128.0000000",
                                                               "lotdepth":  "249.0000000",
                                                               "bldgfront":  "85.0000000",
                                                               "bldgdepth":  "185.0000000",
                                                               "ext":  "N",
                                                               "proxcode":  "0",
                                                               "irrlotcode":  true,
                                                               "lottype":  "5",
                                                               "bsmtcode":  "0",
                                                               "assessland":  "2214000.00000",
                                                               "assesstot":  "23247900.00000",
                                                               "exempttot":  "23247900.00000",
                                                               "yearbuilt":  "2003",
                                                               "yearalter1":  "0",
                                                               "yearalter2":  "0",
                                                               "landmark":  "INDIVIDUAL LANDMARK",
                                                               "builtfar":  "5.87000000000",
                                                               "residfar":  "3.44000000000",
                                                               "commfar":  "0.00000000000",
                                                               "facilfar":  "6.50000000000",
                                                               "affresfar":  "5.01000000000",
                                                               "mnffar":  "0.00000000000",
                                                               "borocode":  "1",
                                                               "bbl":  "1013730002.00000000",
                                                               "tract2010":  "23801",
                                                               "xcoord":  "997721",
                                                               "ycoord":  "216204",
                                                               "latitude":  "40.7600962",
                                                               "longitude":  "-73.9513736",
                                                               "zonemap":  "9a",
                                                               "zmcode":  true,
                                                               "sanborn":  "106E070",
                                                               "taxmap":  "10507",
                                                               "appbbl":  "1013730001.00000000",
                                                               "appdate":  "2004-01-09T00:00:00.000",
                                                               "plutomapid":  "1",
                                                               "version":  "26v2",
                                                               "sanitdistrict":  "8",
                                                               "healthcenterdistrict":  "13",
                                                               "bct2020":  "1023804",
                                                               "bctcb2020":  "10238043000",
                                                               "transitzone":  "Inner Transit Zone"
                                                           }
                                             }
                   },
    "geometry":  {
                     "type":  "MultiPolygon",
                     "coordinates":  [
                                         [
                                             [
                                                 [
                                                     -73.951018175289,
                                                     40.760374888105
                                                 ],
                                                 [
                                                     -73.951107835991,
                                                     40.760274177697
                                                 ],
                                                 [
                                                     -73.951155503353,
                                                     40.760298713263
                                                 ],
                                                 [
                                                     -73.951193008657,
                                                     40.760256586427
                                                 ],
                                                 [
                                                     -73.951235269431,
                                                     40.760278339811
                                                 ],
                                                 [
                                                     -73.951251930824,
                                                     40.760286916067
                                                 ],
                                                 [
                                                     -73.951124763741,
                                                     40.760429753411
                                                 ],
                                                 [
                                                     -73.951056980444,
                                                     40.760394863388
                                                 ],
                                                 [
                                                     -73.951018175289,
                                                     40.760374888105
                                                 ]
                                             ]
                                         ]
                                     ]
                 }
}
