{
    "type":  "Feature",
    "id":  "1089348",
    "properties":  {
                       "bin":  "1089348",
                       "bbl":  "1013730001",
                       "address":  "MAIN STREET",
                       "building_use":  "Multi-Family Elevator Buildings",
                       "pluto_landuse_code":  "3",
                       "building_class":  "D4",
                       "pluto_year_built":  "1975",
                       "pluto_floors":  "18.0000000",
                       "residential_units":  "8018",
                       "total_units":  "8088",
                       "building_area_sqft":  "4786701",
                       "lot_area_sqft":  "4227757",
                       "construction_year":  "1975",
                       "height_roof":  "165.61",
                       "feature_code":  "2100",
                       "geometry_source":  "Photogrammetric",
                       "last_status_type":  "Constructed",
                       "retrieved_on":  "2026-09-29",
                       "source_footprint":  "NYC DoITT BUILDING (Socrata 5zhs-2jue)",
                       "source_taxlot":  "NYC DCP PLUTO 26v2 (Socrata 64uk-42ks)",
                       "source_boundary":  "OpenStreetMap relation 2389564 (Roosevelt Island)",
                       "source_attributes":  {
                                                 "building":  {
                                                                  "name":  null,
                                                                  "base_bbl":  "1013730001",
                                                                  "shape_area":  "2955.19921875",
                                                                  "construction_year":  "1975",
                                                                  "ground_elevation":  "18",
                                                                  "mappluto_bbl":  "1013730001",
                                                                  "objectid":  "412447",
                                                                  "feature_code":  "2100",
                                                                  "shape_length":  "314.58265963894928",
                                                                  "height_roof":  "165.61",
                                                                  "last_status_type":  "Constructed",
                                                                  "bin":  "1089348",
                                                                  "last_edited_date":  "2017-08-22T18:53:07.000Z",
                                                                  "geom_source":  "Photogrammetric",
                                                                  "doitt_id":  "275612"
                                                              },
                                                 "pluto":  {
                                                               "borough":  "MN",
                                                               "block":  "1373",
                                                               "lot":  "1",
                                                               "cd":  "108",
                                                               "ct2010":  "238.01",
                                                               "cb2010":  "1015",
                                                               "schooldist":  "2",
                                                               "council":  "5",
                                                               "zipcode":  "10044",
                                                               "firecomp":  "E260",
                                                               "policeprct":  "114",
                                                               "healtharea":  "8300",
                                                               "sanitboro":  "1",
                                                               "address":  "MAIN STREET",
                                                               "zonedist1":  "R7-2",
                                                               "splitzone":  false,
                                                               "bldgclass":  "D4",
                                                               "landuse":  "3",
                                                               "easements":  "1",
                                                               "ownertype":  "C",
                                                               "ownername":  "RIVERWALK 8 AFFORDABLE, L.P.",
                                                               "lotarea":  "4227757",
                                                               "bldgarea":  "4786701",
                                                               "comarea":  "1046956",
                                                               "resarea":  "3739745",
                                                               "officearea":  "7496",
                                                               "retailarea":  "537154",
                                                               "garagearea":  "406500",
                                                               "strgearea":  "0",
                                                               "factryarea":  "0",
                                                               "otherarea":  "95806",
                                                               "areasource":  "2",
                                                               "numbldgs":  "38",
                                                               "numfloors":  "18.0000000",
                                                               "unitsres":  "8018",
                                                               "unitstotal":  "8088",
                                                               "lotfront":  "200.0000000",
                                                               "lotdepth":  "102.5000000",
                                                               "bldgfront":  "0.0000000",
                                                               "bldgdepth":  "0.0000000",
                                                               "ext":  "N",
                                                               "proxcode":  "0",
                                                               "irrlotcode":  true,
                                                               "lottype":  "7",
                                                               "bsmtcode":  "0",
                                                               "assessland":  "134391150.00000",
                                                               "assesstot":  "592936650.00000",
                                                               "exempttot":  "592936650.00000",
                                                               "yearbuilt":  "1975",
                                                               "yearalter1":  "0",
                                                               "yearalter2":  "0",
                                                               "landmark":  "INDIVIDUAL LANDMARK",
                                                               "builtfar":  "1.13000000000",
                                                               "residfar":  "3.44000000000",
                                                               "commfar":  "0.00000000000",
                                                               "facilfar":  "6.50000000000",
                                                               "affresfar":  "5.01000000000",
                                                               "mnffar":  "0.00000000000",
                                                               "borocode":  "1",
                                                               "bbl":  "1013730001.00000000",
                                                               "tract2010":  "23801",
                                                               "xcoord":  "996792",
                                                               "ycoord":  "215349",
                                                               "latitude":  "40.7577508",
                                                               "longitude":  "-73.9547287",
                                                               "zonemap":  "9a",
                                                               "zmcode":  true,
                                                               "sanborn":  "106E070",
                                                               "taxmap":  "10507",
                                                               "appbbl":  "1013730001.00000000",
                                                               "appdate":  "2023-12-06T00:00:00.000",
                                                               "plutomapid":  "1",
                                                               "version":  "26v2",
                                                               "sanitdistrict":  "8",
                                                               "healthcenterdistrict":  "13",
                                                               "firm07_flag":  "1",
                                                               "pfirm15_flag":  "1",
                                                               "bct2020":  "1023804",
                                                               "bctcb2020":  "10238041000",
                                                               "transitzone":  "Inner Transit Zone"
                                                           }
                                             }
                   },
    "geometry":  {
                     "type":  "MultiPolygon",
                     "coordinates":  [
                                         [
                                             [
                                                 [
                                                     -73.948720961185,
                                                     40.763337694586
                                                 ],
                                                 [
                                                     -73.94881018104,
                                                     40.763407318048
                                                 ],
                                                 [
                                                     -73.948819298195,
                                                     40.763414924158
                                                 ],
                                                 [
                                                     -73.948873338357,
                                                     40.763460008498
                                                 ],
                                                 [
                                                     -73.948883971136,
                                                     40.763452640785
                                                 ],
                                                 [
                                                     -73.948891514134,
                                                     40.763458934155
                                                 ],
                                                 [
                                                     -73.948918054896,
                                                     40.763481075825
                                                 ],
                                                 [
                                                     -73.948910373889,
                                                     40.763486398903
                                                 ],
                                                 [
                                                     -73.948958486757,
                                                     40.763526537705
                                                 ],
                                                 [
                                                     -73.948963623534,
                                                     40.76353082278
                                                 ],
                                                 [
                                                     -73.9489732479,
                                                     40.763524154304
                                                 ],
                                                 [
                                                     -73.949006090149,
                                                     40.763551554088
                                                 ],
                                                 [
                                                     -73.948996289221,
                                                     40.763558344957
                                                 ],
                                                 [
                                                     -73.949051515579,
                                                     40.763604418491
                                                 ],
                                                 [
                                                     -73.949062702929,
                                                     40.763596666492
                                                 ],
                                                 [
                                                     -73.949097506463,
                                                     40.763625702432
                                                 ],
                                                 [
                                                     -73.949088967532,
                                                     40.763631619477
                                                 ],
                                                 [
                                                     -73.949123808972,
                                                     40.763660686043
                                                 ],
                                                 [
                                                     -73.949140928479,
                                                     40.763674967498
                                                 ],
                                                 [
                                                     -73.949150350218,
                                                     40.763668438497
                                                 ],
                                                 [
                                                     -73.949183913421,
                                                     40.763696438283
                                                 ],
                                                 [
                                                     -73.949175745387,
                                                     40.763702097053
                                                 ],
                                                 [
                                                     -73.949192088476,
                                                     40.763715730695
                                                 ],
                                                 [
                                                     -73.949230236975,
                                                     40.763747556933
                                                 ],
                                                 [
                                                     -73.949239003423,
                                                     40.76374148239
                                                 ],
                                                 [
                                                     -73.949272011592,
                                                     40.763769019947
                                                 ],
                                                 [
                                                     -73.949265693302,
                                                     40.76377339902
                                                 ],
                                                 [
                                                     -73.949320414628,
                                                     40.763819049865
                                                 ],
                                                 [
                                                     -73.949327798211,
                                                     40.763813933744
                                                 ],
                                                 [
                                                     -73.949360640749,
                                                     40.763841333426
                                                 ],
                                                 [
                                                     -73.949353029649,
                                                     40.763846607937
                                                 ],
                                                 [
                                                     -73.949356773378,
                                                     40.763849731632
                                                 ],
                                                 [
                                                     -73.949372821824,
                                                     40.763863119281
                                                 ],
                                                 [
                                                     -73.949388999289,
                                                     40.763876615946
                                                 ],
                                                 [
                                                     -73.949407422054,
                                                     40.763891984842
                                                 ],
                                                 [
                                                     -73.949407964144,
                                                     40.763892437133
                                                 ],
                                                 [
                                                     -73.949416729411,
                                                     40.763886362577
                                                 ],
                                                 [
                                                     -73.94945148709,
                                                     40.763915359667
                                                 ],
                                                 [
                                                     -73.949382526185,
                                                     40.763963147079
                                                 ],
                                                 [
                                                     -73.949395594349,
                                                     40.763974049824
                                                 ],
                                                 [
                                                     -73.949358580375,
                                                     40.763999698838
                                                 ],
                                                 [
                                                     -73.949344633978,
                                                     40.763988064493
                                                 ],
                                                 [
                                                     -73.949340645339,
                                                     40.763990829089
                                                 ],
                                                 [
                                                     -73.949253247004,
                                                     40.763917917304
                                                 ],
                                                 [
                                                     -73.949174138969,
                                                     40.763972735762
                                                 ],
                                                 [
                                                     -73.948913880331,
                                                     40.763755611685
                                                 ],
                                                 [
                                                     -73.948799924205,
                                                     40.763660542567
                                                 ],
                                                 [
                                                     -73.94878282253,
                                                     40.763646275477
                                                 ],
                                                 [
                                                     -73.948691880417,
                                                     40.76357040533
                                                 ],
                                                 [
                                                     -73.948597095417,
                                                     40.7634913294
                                                 ],
                                                 [
                                                     -73.948585698698,
                                                     40.76348182039
                                                 ],
                                                 [
                                                     -73.948615989117,
                                                     40.763460830535
                                                 ],
                                                 [
                                                     -73.948629161331,
                                                     40.763451703492
                                                 ],
                                                 [
                                                     -73.948633224571,
                                                     40.763455093002
                                                 ],
                                                 [
                                                     -73.948659563065,
                                                     40.763436841609
                                                 ],
                                                 [
                                                     -73.948638856285,
                                                     40.763419566106
                                                 ],
                                                 [
                                                     -73.94861425198,
                                                     40.76339903984
                                                 ],
                                                 [
                                                     -73.94865033807,
                                                     40.76337403451
                                                 ],
                                                 [
                                                     -73.948658587636,
                                                     40.763380917141
                                                 ],
                                                 [
                                                     -73.948720961185,
                                                     40.763337694586
                                                 ]
                                             ]
                                         ]
                                     ]
                 }
}
