{
    "type":  "Feature",
    "id":  "1087293",
    "properties":  {
                       "bin":  "1087293",
                       "bbl":  "1013730001",
                       "address":  "MAIN STREET",
                       "building_use":  "Multi-Family Elevator Buildings",
                       "pluto_landuse_code":  "3",
                       "building_class":  "D4",
                       "pluto_year_built":  "1975",
                       "pluto_floors":  "18.0000000",
                       "residential_units":  "8018",
                       "total_units":  "8088",
                       "building_area_sqft":  "4786701",
                       "lot_area_sqft":  "4227757",
                       "construction_year":  "1975",
                       "height_roof":  "172.53",
                       "feature_code":  "2100",
                       "geometry_source":  "Photogrammetric",
                       "last_status_type":  "Constructed",
                       "retrieved_on":  "2026-09-29",
                       "source_footprint":  "NYC DoITT BUILDING (Socrata 5zhs-2jue)",
                       "source_taxlot":  "NYC DCP PLUTO 26v2 (Socrata 64uk-42ks)",
                       "source_boundary":  "OpenStreetMap relation 2389564 (Roosevelt Island)",
                       "source_attributes":  {
                                                 "building":  {
                                                                  "name":  null,
                                                                  "base_bbl":  "1013730001",
                                                                  "shape_area":  "6842.80078125",
                                                                  "construction_year":  "1975",
                                                                  "ground_elevation":  "21",
                                                                  "mappluto_bbl":  "1013730001",
                                                                  "objectid":  "541401",
                                                                  "feature_code":  "2100",
                                                                  "shape_length":  "835.48298211049439",
                                                                  "height_roof":  "172.53",
                                                                  "last_status_type":  "Constructed",
                                                                  "bin":  "1087293",
                                                                  "last_edited_date":  "2018-12-07T18:34:42.000Z",
                                                                  "geom_source":  "Photogrammetric",
                                                                  "doitt_id":  "1257224"
                                                              },
                                                 "pluto":  {
                                                               "borough":  "MN",
                                                               "block":  "1373",
                                                               "lot":  "1",
                                                               "cd":  "108",
                                                               "ct2010":  "238.01",
                                                               "cb2010":  "1015",
                                                               "schooldist":  "2",
                                                               "council":  "5",
                                                               "zipcode":  "10044",
                                                               "firecomp":  "E260",
                                                               "policeprct":  "114",
                                                               "healtharea":  "8300",
                                                               "sanitboro":  "1",
                                                               "address":  "MAIN STREET",
                                                               "zonedist1":  "R7-2",
                                                               "splitzone":  false,
                                                               "bldgclass":  "D4",
                                                               "landuse":  "3",
                                                               "easements":  "1",
                                                               "ownertype":  "C",
                                                               "ownername":  "RIVERWALK 8 AFFORDABLE, L.P.",
                                                               "lotarea":  "4227757",
                                                               "bldgarea":  "4786701",
                                                               "comarea":  "1046956",
                                                               "resarea":  "3739745",
                                                               "officearea":  "7496",
                                                               "retailarea":  "537154",
                                                               "garagearea":  "406500",
                                                               "strgearea":  "0",
                                                               "factryarea":  "0",
                                                               "otherarea":  "95806",
                                                               "areasource":  "2",
                                                               "numbldgs":  "38",
                                                               "numfloors":  "18.0000000",
                                                               "unitsres":  "8018",
                                                               "unitstotal":  "8088",
                                                               "lotfront":  "200.0000000",
                                                               "lotdepth":  "102.5000000",
                                                               "bldgfront":  "0.0000000",
                                                               "bldgdepth":  "0.0000000",
                                                               "ext":  "N",
                                                               "proxcode":  "0",
                                                               "irrlotcode":  true,
                                                               "lottype":  "7",
                                                               "bsmtcode":  "0",
                                                               "assessland":  "134391150.00000",
                                                               "assesstot":  "592936650.00000",
                                                               "exempttot":  "592936650.00000",
                                                               "yearbuilt":  "1975",
                                                               "yearalter1":  "0",
                                                               "yearalter2":  "0",
                                                               "landmark":  "INDIVIDUAL LANDMARK",
                                                               "builtfar":  "1.13000000000",
                                                               "residfar":  "3.44000000000",
                                                               "commfar":  "0.00000000000",
                                                               "facilfar":  "6.50000000000",
                                                               "affresfar":  "5.01000000000",
                                                               "mnffar":  "0.00000000000",
                                                               "borocode":  "1",
                                                               "bbl":  "1013730001.00000000",
                                                               "tract2010":  "23801",
                                                               "xcoord":  "996792",
                                                               "ycoord":  "215349",
                                                               "latitude":  "40.7577508",
                                                               "longitude":  "-73.9547287",
                                                               "zonemap":  "9a",
                                                               "zmcode":  true,
                                                               "sanborn":  "106E070",
                                                               "taxmap":  "10507",
                                                               "appbbl":  "1013730001.00000000",
                                                               "appdate":  "2023-12-06T00:00:00.000",
                                                               "plutomapid":  "1",
                                                               "version":  "26v2",
                                                               "sanitdistrict":  "8",
                                                               "healthcenterdistrict":  "13",
                                                               "firm07_flag":  "1",
                                                               "pfirm15_flag":  "1",
                                                               "bct2020":  "1023804",
                                                               "bctcb2020":  "10238041000",
                                                               "transitzone":  "Inner Transit Zone"
                                                           }
                                             }
                   },
    "geometry":  {
                     "type":  "MultiPolygon",
                     "coordinates":  [
                                         [
                                             [
                                                 [
                                                     -73.951254556931,
                                                     40.761663372159
                                                 ],
                                                 [
                                                     -73.951294912096,
                                                     40.76162327354
                                                 ],
                                                 [
                                                     -73.951415739477,
                                                     40.761697517143
                                                 ],
                                                 [
                                                     -73.951358764786,
                                                     40.761762045786
                                                 ],
                                                 [
                                                     -73.951348076781,
                                                     40.761756589617
                                                 ],
                                                 [
                                                     -73.951319415153,
                                                     40.761789050612
                                                 ],
                                                 [
                                                     -73.95136739992,
                                                     40.761813544795
                                                 ],
                                                 [
                                                     -73.951380385836,
                                                     40.761820173488
                                                 ],
                                                 [
                                                     -73.951352802817,
                                                     40.761851412061
                                                 ],
                                                 [
                                                     -73.951317422882,
                                                     40.761891483084
                                                 ],
                                                 [
                                                     -73.951227646151,
                                                     40.761845655349
                                                 ],
                                                 [
                                                     -73.951216653687,
                                                     40.761858105576
                                                 ],
                                                 [
                                                     -73.951197045276,
                                                     40.761880311823
                                                 ],
                                                 [
                                                     -73.951208229332,
                                                     40.761886021257
                                                 ],
                                                 [
                                                     -73.951236790296,
                                                     40.761900600814
                                                 ],
                                                 [
                                                     -73.951190036114,
                                                     40.761953555008
                                                 ],
                                                 [
                                                     -73.951184651289,
                                                     40.761959652745
                                                 ],
                                                 [
                                                     -73.951188719084,
                                                     40.761961729231
                                                 ],
                                                 [
                                                     -73.951197918978,
                                                     40.761966425659
                                                 ],
                                                 [
                                                     -73.951185834826,
                                                     40.761980110913
                                                 ],
                                                 [
                                                     -73.951162604082,
                                                     40.76200642102
                                                 ],
                                                 [
                                                     -73.951050894856,
                                                     40.761949397779
                                                 ],
                                                 [
                                                     -73.951012730334,
                                                     40.761929915347
                                                 ],
                                                 [
                                                     -73.951047356619,
                                                     40.761890698676
                                                 ],
                                                 [
                                                     -73.95106276709,
                                                     40.761898564828
                                                 ],
                                                 [
                                                     -73.951067045606,
                                                     40.761900748568
                                                 ],
                                                 [
                                                     -73.951120055868,
                                                     40.761840709206
                                                 ],
                                                 [
                                                     -73.951087118181,
                                                     40.761823895411
                                                 ],
                                                 [
                                                     -73.951078741105,
                                                     40.761819619859
                                                 ],
                                                 [
                                                     -73.95107097738,
                                                     40.761828412693
                                                 ],
                                                 [
                                                     -73.951023185683,
                                                     40.761804016623
                                                 ],
                                                 [
                                                     -73.951007915431,
                                                     40.761821310628
                                                 ],
                                                 [
                                                     -73.950954954986,
                                                     40.761794275654
                                                 ],
                                                 [
                                                     -73.95094441736,
                                                     40.761788896956
                                                 ],
                                                 [
                                                     -73.950941481362,
                                                     40.761792223071
                                                 ],
                                                 [
                                                     -73.950879183794,
                                                     40.761760422217
                                                 ],
                                                 [
                                                     -73.950895559953,
                                                     40.761741876098
                                                 ],
                                                 [
                                                     -73.950839970247,
                                                     40.761713499099
                                                 ],
                                                 [
                                                     -73.950811021141,
                                                     40.761698722067
                                                 ],
                                                 [
                                                     -73.950830306041,
                                                     40.761676880452
                                                 ],
                                                 [
                                                     -73.950753425778,
                                                     40.761637635135
                                                 ],
                                                 [
                                                     -73.950737188285,
                                                     40.761656024605
                                                 ],
                                                 [
                                                     -73.95069955913,
                                                     40.761636815151
                                                 ],
                                                 [
                                                     -73.950677356932,
                                                     40.7616254818
                                                 ],
                                                 [
                                                     -73.95068248338,
                                                     40.761619675739
                                                 ],
                                                 [
                                                     -73.950615940763,
                                                     40.761585707211
                                                 ],
                                                 [
                                                     -73.950631781196,
                                                     40.761567766039
                                                 ],
                                                 [
                                                     -73.950582633141,
                                                     40.761542676716
                                                 ],
                                                 [
                                                     -73.950587579425,
                                                     40.761537074997
                                                 ],
                                                 [
                                                     -73.950547770891,
                                                     40.761516753334
                                                 ],
                                                 [
                                                     -73.950539978684,
                                                     40.761525578538
                                                 ],
                                                 [
                                                     -73.95049678725,
                                                     40.761574496119
                                                 ],
                                                 [
                                                     -73.950509414322,
                                                     40.761580941954
                                                 ],
                                                 [
                                                     -73.950476467465,
                                                     40.761618257322
                                                 ],
                                                 [
                                                     -73.950452167508,
                                                     40.761605852326
                                                 ],
                                                 [
                                                     -73.950330687982,
                                                     40.761543838986
                                                 ],
                                                 [
                                                     -73.950364640027,
                                                     40.761505385855
                                                 ],
                                                 [
                                                     -73.950379364873,
                                                     40.761512902408
                                                 ],
                                                 [
                                                     -73.95043014114,
                                                     40.761455394617
                                                 ],
                                                 [
                                                     -73.950468958711,
                                                     40.76147520981
                                                 ],
                                                 [
                                                     -73.950501327072,
                                                     40.761438549763
                                                 ],
                                                 [
                                                     -73.950414221112,
                                                     40.761394084101
                                                 ],
                                                 [
                                                     -73.950478702938,
                                                     40.761321054782
                                                 ],
                                                 [
                                                     -73.95048198459,
                                                     40.76132273023
                                                 ],
                                                 [
                                                     -73.950523619569,
                                                     40.761275575173
                                                 ],
                                                 [
                                                     -73.950545796764,
                                                     40.761286895936
                                                 ],
                                                 [
                                                     -73.950597153511,
                                                     40.76122873095
                                                 ],
                                                 [
                                                     -73.950618664191,
                                                     40.761239711923
                                                 ],
                                                 [
                                                     -73.950694295737,
                                                     40.761154053177
                                                 ],
                                                 [
                                                     -73.950713429225,
                                                     40.761163820135
                                                 ],
                                                 [
                                                     -73.95079183178,
                                                     40.761075023349
                                                 ],
                                                 [
                                                     -73.950800526017,
                                                     40.761079461148
                                                 ],
                                                 [
                                                     -73.950823064268,
                                                     40.761090967516
                                                 ],
                                                 [
                                                     -73.950919821993,
                                                     40.760981381316
                                                 ],
                                                 [
                                                     -73.950942909542,
                                                     40.760993167051
                                                 ],
                                                 [
                                                     -73.950969298813,
                                                     40.760963278822
                                                 ],
                                                 [
                                                     -73.951002132467,
                                                     40.760926092035
                                                 ],
                                                 [
                                                     -73.951025926773,
                                                     40.760938238256
                                                 ],
                                                 [
                                                     -73.951091827301,
                                                     40.760971879395
                                                 ],
                                                 [
                                                     -73.951125072185,
                                                     40.760934227186
                                                 ],
                                                 [
                                                     -73.951087734553,
                                                     40.760915167464
                                                 ],
                                                 [
                                                     -73.951097298617,
                                                     40.760904334849
                                                 ],
                                                 [
                                                     -73.95113741692,
                                                     40.760858898887
                                                 ],
                                                 [
                                                     -73.951120652352,
                                                     40.760850340582
                                                 ],
                                                 [
                                                     -73.951155281568,
                                                     40.760811119371
                                                 ],
                                                 [
                                                     -73.951178953924,
                                                     40.760823203374
                                                 ],
                                                 [
                                                     -73.951212436925,
                                                     40.760785281089
                                                 ],
                                                 [
                                                     -73.951255464127,
                                                     40.760807244605
                                                 ],
                                                 [
                                                     -73.951318740034,
                                                     40.760839543653
                                                 ],
                                                 [
                                                     -73.951285255881,
                                                     40.760877467769
                                                 ],
                                                 [
                                                     -73.95130458116,
                                                     40.760887332865
                                                 ],
                                                 [
                                                     -73.951270443885,
                                                     40.760925995115
                                                 ],
                                                 [
                                                     -73.95125481105,
                                                     40.760918015432
                                                 ],
                                                 [
                                                     -73.951201972325,
                                                     40.760977861328
                                                 ],
                                                 [
                                                     -73.95124989727,
                                                     40.761002325821
                                                 ],
                                                 [
                                                     -73.951258359006,
                                                     40.760992743527
                                                 ],
                                                 [
                                                     -73.951289427012,
                                                     40.761008602851
                                                 ],
                                                 [
                                                     -73.951296193951,
                                                     40.761012057347
                                                 ],
                                                 [
                                                     -73.95131067573,
                                                     40.760995655369
                                                 ],
                                                 [
                                                     -73.951379583465,
                                                     40.761030830273
                                                 ],
                                                 [
                                                     -73.951382461327,
                                                     40.76102757166
                                                 ],
                                                 [
                                                     -73.951444873285,
                                                     40.761059430827
                                                 ],
                                                 [
                                                     -73.951428562636,
                                                     40.761077904112
                                                 ],
                                                 [
                                                     -73.951474872948,
                                                     40.761101543868
                                                 ],
                                                 [
                                                     -73.951503722498,
                                                     40.761116270265
                                                 ],
                                                 [
                                                     -73.951402818228,
                                                     40.761230554037
                                                 ],
                                                 [
                                                     -73.951357289202,
                                                     40.761207311705
                                                 ],
                                                 [
                                                     -73.95132505735,
                                                     40.761190858476
                                                 ],
                                                 [
                                                     -73.951309086813,
                                                     40.761208946471
                                                 ],
                                                 [
                                                     -73.951138845198,
                                                     40.761122042318
                                                 ],
                                                 [
                                                     -73.951109106313,
                                                     40.761155723891
                                                 ],
                                                 [
                                                     -73.951087109014,
                                                     40.761144494264
                                                 ],
                                                 [
                                                     -73.951036597873,
                                                     40.761201701691
                                                 ],
                                                 [
                                                     -73.951031620925,
                                                     40.761199161053
                                                 ],
                                                 [
                                                     -73.951008967628,
                                                     40.761224818511
                                                 ],
                                                 [
                                                     -73.950995552124,
                                                     40.76121797077
                                                 ],
                                                 [
                                                     -73.95096907031,
                                                     40.761247963423
                                                 ],
                                                 [
                                                     -73.950973720513,
                                                     40.761250338232
                                                 ],
                                                 [
                                                     -73.950945546252,
                                                     40.761282009601
                                                 ],
                                                 [
                                                     -73.950828262451,
                                                     40.76122214177
                                                 ],
                                                 [
                                                     -73.950801256659,
                                                     40.761252728494
                                                 ],
                                                 [
                                                     -73.950793949881,
                                                     40.761248999085
                                                 ],
                                                 [
                                                     -73.950768123433,
                                                     40.761278250856
                                                 ],
                                                 [
                                                     -73.950779643185,
                                                     40.761286252261
                                                 ],
                                                 [
                                                     -73.95075652631,
                                                     40.761312434465
                                                 ],
                                                 [
                                                     -73.950760885281,
                                                     40.761314659675
                                                 ],
                                                 [
                                                     -73.950709159982,
                                                     40.761373242409
                                                 ],
                                                 [
                                                     -73.950731716075,
                                                     40.761384756906
                                                 ],
                                                 [
                                                     -73.950689873748,
                                                     40.761432146081
                                                 ],
                                                 [
                                                     -73.950684536902,
                                                     40.761429422471
                                                 ],
                                                 [
                                                     -73.950678846265,
                                                     40.761435866749
                                                 ],
                                                 [
                                                     -73.950724819159,
                                                     40.761459335565
                                                 ],
                                                 [
                                                     -73.950739919904,
                                                     40.761442233332
                                                 ],
                                                 [
                                                     -73.950809188877,
                                                     40.761477593333
                                                 ],
                                                 [
                                                     -73.95081391467,
                                                     40.761472240949
                                                 ],
                                                 [
                                                     -73.950874238437,
                                                     40.761503034234
                                                 ],
                                                 [
                                                     -73.950856400854,
                                                     40.761523236656
                                                 ],
                                                 [
                                                     -73.950931925519,
                                                     40.761561789739
                                                 ],
                                                 [
                                                     -73.950912958346,
                                                     40.761583271305
                                                 ],
                                                 [
                                                     -73.950966010948,
                                                     40.761610353165
                                                 ],
                                                 [
                                                     -73.950998486791,
                                                     40.761626931767
                                                 ],
                                                 [
                                                     -73.951014404173,
                                                     40.761608905027
                                                 ],
                                                 [
                                                     -73.951021304936,
                                                     40.761612428034
                                                 ],
                                                 [
                                                     -73.951077575359,
                                                     40.76164115193
                                                 ],
                                                 [
                                                     -73.951074298009,
                                                     40.76164486422
                                                 ],
                                                 [
                                                     -73.95113711173,
                                                     40.761676929035
                                                 ],
                                                 [
                                                     -73.951121510837,
                                                     40.761694598426
                                                 ],
                                                 [
                                                     -73.951137077542,
                                                     40.761702544779
                                                 ],
                                                 [
                                                     -73.95116735384,
                                                     40.761718000372
                                                 ],
                                                 [
                                                     -73.951170325381,
                                                     40.761714635545
                                                 ],
                                                 [
                                                     -73.951197187409,
                                                     40.761728347206
                                                 ],
                                                 [
                                                     -73.951254556931,
                                                     40.761663372159
                                                 ]
                                             ]
                                         ]
                                     ]
                 }
}
