{
    "type":  "Feature",
    "id":  "1086085",
    "properties":  {
                       "bin":  "1086085",
                       "bbl":  "1013730001",
                       "address":  "MAIN STREET",
                       "building_use":  "Multi-Family Elevator Buildings",
                       "pluto_landuse_code":  "3",
                       "building_class":  "D4",
                       "pluto_year_built":  "1975",
                       "pluto_floors":  "18.0000000",
                       "residential_units":  "8018",
                       "total_units":  "8088",
                       "building_area_sqft":  "4786701",
                       "lot_area_sqft":  "4227757",
                       "construction_year":  "1975",
                       "height_roof":  "125",
                       "feature_code":  "2100",
                       "geometry_source":  "Other (Manual)",
                       "last_status_type":  "Constructed",
                       "retrieved_on":  "2026-09-29",
                       "source_footprint":  "NYC DoITT BUILDING (Socrata 5zhs-2jue)",
                       "source_taxlot":  "NYC DCP PLUTO 26v2 (Socrata 64uk-42ks)",
                       "source_boundary":  "OpenStreetMap relation 2389564 (Roosevelt Island)",
                       "source_attributes":  {
                                                 "building":  {
                                                                  "name":  null,
                                                                  "base_bbl":  "1013730001",
                                                                  "shape_area":  "6697.32421875",
                                                                  "construction_year":  "1975",
                                                                  "ground_elevation":  "15",
                                                                  "mappluto_bbl":  "1013730001",
                                                                  "objectid":  "1064225",
                                                                  "feature_code":  "2100",
                                                                  "shape_length":  "686.21885904870794",
                                                                  "height_roof":  "125",
                                                                  "last_status_type":  "Constructed",
                                                                  "bin":  "1086085",
                                                                  "last_edited_date":  "2017-08-22T18:50:08.000Z",
                                                                  "geom_source":  "Other (Manual)",
                                                                  "doitt_id":  "490107"
                                                              },
                                                 "pluto":  {
                                                               "borough":  "MN",
                                                               "block":  "1373",
                                                               "lot":  "1",
                                                               "cd":  "108",
                                                               "ct2010":  "238.01",
                                                               "cb2010":  "1015",
                                                               "schooldist":  "2",
                                                               "council":  "5",
                                                               "zipcode":  "10044",
                                                               "firecomp":  "E260",
                                                               "policeprct":  "114",
                                                               "healtharea":  "8300",
                                                               "sanitboro":  "1",
                                                               "address":  "MAIN STREET",
                                                               "zonedist1":  "R7-2",
                                                               "splitzone":  false,
                                                               "bldgclass":  "D4",
                                                               "landuse":  "3",
                                                               "easements":  "1",
                                                               "ownertype":  "C",
                                                               "ownername":  "RIVERWALK 8 AFFORDABLE, L.P.",
                                                               "lotarea":  "4227757",
                                                               "bldgarea":  "4786701",
                                                               "comarea":  "1046956",
                                                               "resarea":  "3739745",
                                                               "officearea":  "7496",
                                                               "retailarea":  "537154",
                                                               "garagearea":  "406500",
                                                               "strgearea":  "0",
                                                               "factryarea":  "0",
                                                               "otherarea":  "95806",
                                                               "areasource":  "2",
                                                               "numbldgs":  "38",
                                                               "numfloors":  "18.0000000",
                                                               "unitsres":  "8018",
                                                               "unitstotal":  "8088",
                                                               "lotfront":  "200.0000000",
                                                               "lotdepth":  "102.5000000",
                                                               "bldgfront":  "0.0000000",
                                                               "bldgdepth":  "0.0000000",
                                                               "ext":  "N",
                                                               "proxcode":  "0",
                                                               "irrlotcode":  true,
                                                               "lottype":  "7",
                                                               "bsmtcode":  "0",
                                                               "assessland":  "134391150.00000",
                                                               "assesstot":  "592936650.00000",
                                                               "exempttot":  "592936650.00000",
                                                               "yearbuilt":  "1975",
                                                               "yearalter1":  "0",
                                                               "yearalter2":  "0",
                                                               "landmark":  "INDIVIDUAL LANDMARK",
                                                               "builtfar":  "1.13000000000",
                                                               "residfar":  "3.44000000000",
                                                               "commfar":  "0.00000000000",
                                                               "facilfar":  "6.50000000000",
                                                               "affresfar":  "5.01000000000",
                                                               "mnffar":  "0.00000000000",
                                                               "borocode":  "1",
                                                               "bbl":  "1013730001.00000000",
                                                               "tract2010":  "23801",
                                                               "xcoord":  "996792",
                                                               "ycoord":  "215349",
                                                               "latitude":  "40.7577508",
                                                               "longitude":  "-73.9547287",
                                                               "zonemap":  "9a",
                                                               "zmcode":  true,
                                                               "sanborn":  "106E070",
                                                               "taxmap":  "10507",
                                                               "appbbl":  "1013730001.00000000",
                                                               "appdate":  "2023-12-06T00:00:00.000",
                                                               "plutomapid":  "1",
                                                               "version":  "26v2",
                                                               "sanitdistrict":  "8",
                                                               "healthcenterdistrict":  "13",
                                                               "firm07_flag":  "1",
                                                               "pfirm15_flag":  "1",
                                                               "bct2020":  "1023804",
                                                               "bctcb2020":  "10238041000",
                                                               "transitzone":  "Inner Transit Zone"
                                                           }
                                             }
                   },
    "geometry":  {
                     "type":  "MultiPolygon",
                     "coordinates":  [
                                         [
                                             [
                                                 [
                                                     -73.943891719457,
                                                     40.769273780114
                                                 ],
                                                 [
                                                     -73.943862858692,
                                                     40.769258920351
                                                 ],
                                                 [
                                                     -73.943859280643,
                                                     40.769262937557
                                                 ],
                                                 [
                                                     -73.943857343726,
                                                     40.769261940656
                                                 ],
                                                 [
                                                     -73.943669997109,
                                                     40.769165474601
                                                 ],
                                                 [
                                                     -73.943569170736,
                                                     40.769179923376
                                                 ],
                                                 [
                                                     -73.943554009166,
                                                     40.769182096069
                                                 ],
                                                 [
                                                     -73.943455004653,
                                                     40.769130703501
                                                 ],
                                                 [
                                                     -73.943449573613,
                                                     40.769108805085
                                                 ],
                                                 [
                                                     -73.943432794195,
                                                     40.769041141997
                                                 ],
                                                 [
                                                     -73.943437655012,
                                                     40.769035729654
                                                 ],
                                                 [
                                                     -73.94340235284,
                                                     40.769017404175
                                                 ],
                                                 [
                                                     -73.943421770022,
                                                     40.768995783609
                                                 ],
                                                 [
                                                     -73.943440203174,
                                                     40.76897525757
                                                 ],
                                                 [
                                                     -73.94346041703,
                                                     40.768952749492
                                                 ],
                                                 [
                                                     -73.943495719184,
                                                     40.768971074952
                                                 ],
                                                 [
                                                     -73.943500389115,
                                                     40.768965875032
                                                 ],
                                                 [
                                                     -73.943552143696,
                                                     40.768958458634
                                                 ],
                                                 [
                                                     -73.943618192665,
                                                     40.768948993359
                                                 ],
                                                 [
                                                     -73.943746548006,
                                                     40.768804906142
                                                 ],
                                                 [
                                                     -73.943751500364,
                                                     40.768807456085
                                                 ],
                                                 [
                                                     -73.943769344277,
                                                     40.768787425882
                                                 ],
                                                 [
                                                     -73.943726194972,
                                                     40.768765208297
                                                 ],
                                                 [
                                                     -73.944064318124,
                                                     40.768385637655
                                                 ],
                                                 [
                                                     -73.944239575259,
                                                     40.768475879251
                                                 ],
                                                 [
                                                     -73.944338065927,
                                                     40.768526591923
                                                 ],
                                                 [
                                                     -73.944347797793,
                                                     40.768531603425
                                                 ],
                                                 [
                                                     -73.944588101954,
                                                     40.768655335911
                                                 ],
                                                 [
                                                     -73.944585179587,
                                                     40.768658615942
                                                 ],
                                                 [
                                                     -73.944465773682,
                                                     40.768792661488
                                                 ],
                                                 [
                                                     -73.944456179105,
                                                     40.768787721201
                                                 ],
                                                 [
                                                     -73.944421139493,
                                                     40.768769678919
                                                 ],
                                                 [
                                                     -73.944386452711,
                                                     40.768751819599
                                                 ],
                                                 [
                                                     -73.944207609721,
                                                     40.768659732262
                                                 ],
                                                 [
                                                     -73.944124718349,
                                                     40.768617051436
                                                 ],
                                                 [
                                                     -73.944097351034,
                                                     40.768647773259
                                                 ],
                                                 [
                                                     -73.943925665721,
                                                     40.76884050572
                                                 ],
                                                 [
                                                     -73.943908925597,
                                                     40.768859297391
                                                 ],
                                                 [
                                                     -73.943864360223,
                                                     40.768836350661
                                                 ],
                                                 [
                                                     -73.943846516325,
                                                     40.768856379978
                                                 ],
                                                 [
                                                     -73.943853151051,
                                                     40.76885979612
                                                 ],
                                                 [
                                                     -73.943719530728,
                                                     40.769009793592
                                                 ],
                                                 [
                                                     -73.94373811648,
                                                     40.769084736293
                                                 ],
                                                 [
                                                     -73.943772452817,
                                                     40.769102416436
                                                 ],
                                                 [
                                                     -73.943930006904,
                                                     40.769183542157
                                                 ],
                                                 [
                                                     -73.9439261301,
                                                     40.769187894207
                                                 ],
                                                 [
                                                     -73.943954990847,
                                                     40.769202754854
                                                 ],
                                                 [
                                                     -73.943984883711,
                                                     40.769169197708
                                                 ],
                                                 [
                                                     -73.944085070605,
                                                     40.769220784003
                                                 ],
                                                 [
                                                     -73.944279434001,
                                                     40.769320861995
                                                 ],
                                                 [
                                                     -73.944392696793,
                                                     40.769379181107
                                                 ],
                                                 [
                                                     -73.944405110415,
                                                     40.769385572569
                                                 ],
                                                 [
                                                     -73.944512393331,
                                                     40.769440811656
                                                 ],
                                                 [
                                                     -73.944646514097,
                                                     40.769509870062
                                                 ],
                                                 [
                                                     -73.944523094843,
                                                     40.769648418943
                                                 ],
                                                 [
                                                     -73.94445481903,
                                                     40.769613263703
                                                 ],
                                                 [
                                                     -73.944326955395,
                                                     40.769547427399
                                                 ],
                                                 [
                                                     -73.944172548061,
                                                     40.769467923756
                                                 ],
                                                 [
                                                     -73.943861463713,
                                                     40.769307745888
                                                 ],
                                                 [
                                                     -73.943881401446,
                                                     40.769285362772
                                                 ],
                                                 [
                                                     -73.943891719457,
                                                     40.769273780114
                                                 ]
                                             ]
                                         ]
                                     ]
                 }
}
