{
    "type":  "Feature",
    "id":  "1083208",
    "properties":  {
                       "bin":  "1083208",
                       "bbl":  "1013730001",
                       "address":  "MAIN STREET",
                       "building_use":  "Multi-Family Elevator Buildings",
                       "pluto_landuse_code":  "3",
                       "building_class":  "D4",
                       "pluto_year_built":  "1975",
                       "pluto_floors":  "18.0000000",
                       "residential_units":  "8018",
                       "total_units":  "8088",
                       "building_area_sqft":  "4786701",
                       "lot_area_sqft":  "4227757",
                       "construction_year":  "1975",
                       "height_roof":  "185",
                       "feature_code":  "2100",
                       "geometry_source":  "Other (Manual)",
                       "last_status_type":  "Constructed",
                       "retrieved_on":  "2026-09-29",
                       "source_footprint":  "NYC DoITT BUILDING (Socrata 5zhs-2jue)",
                       "source_taxlot":  "NYC DCP PLUTO 26v2 (Socrata 64uk-42ks)",
                       "source_boundary":  "OpenStreetMap relation 2389564 (Roosevelt Island)",
                       "source_attributes":  {
                                                 "building":  {
                                                                  "name":  null,
                                                                  "base_bbl":  "1013730001",
                                                                  "shape_area":  "2073.27734375",
                                                                  "construction_year":  "1975",
                                                                  "ground_elevation":  "13",
                                                                  "mappluto_bbl":  "1013730001",
                                                                  "objectid":  "48126",
                                                                  "feature_code":  "2100",
                                                                  "shape_length":  "244.29178005185275",
                                                                  "height_roof":  "185",
                                                                  "last_status_type":  "Constructed",
                                                                  "bin":  "1083208",
                                                                  "last_edited_date":  "2017-08-22T19:38:47.000Z",
                                                                  "geom_source":  "Other (Manual)",
                                                                  "doitt_id":  "567296"
                                                              },
                                                 "pluto":  {
                                                               "borough":  "MN",
                                                               "block":  "1373",
                                                               "lot":  "1",
                                                               "cd":  "108",
                                                               "ct2010":  "238.01",
                                                               "cb2010":  "1015",
                                                               "schooldist":  "2",
                                                               "council":  "5",
                                                               "zipcode":  "10044",
                                                               "firecomp":  "E260",
                                                               "policeprct":  "114",
                                                               "healtharea":  "8300",
                                                               "sanitboro":  "1",
                                                               "address":  "MAIN STREET",
                                                               "zonedist1":  "R7-2",
                                                               "splitzone":  false,
                                                               "bldgclass":  "D4",
                                                               "landuse":  "3",
                                                               "easements":  "1",
                                                               "ownertype":  "C",
                                                               "ownername":  "RIVERWALK 8 AFFORDABLE, L.P.",
                                                               "lotarea":  "4227757",
                                                               "bldgarea":  "4786701",
                                                               "comarea":  "1046956",
                                                               "resarea":  "3739745",
                                                               "officearea":  "7496",
                                                               "retailarea":  "537154",
                                                               "garagearea":  "406500",
                                                               "strgearea":  "0",
                                                               "factryarea":  "0",
                                                               "otherarea":  "95806",
                                                               "areasource":  "2",
                                                               "numbldgs":  "38",
                                                               "numfloors":  "18.0000000",
                                                               "unitsres":  "8018",
                                                               "unitstotal":  "8088",
                                                               "lotfront":  "200.0000000",
                                                               "lotdepth":  "102.5000000",
                                                               "bldgfront":  "0.0000000",
                                                               "bldgdepth":  "0.0000000",
                                                               "ext":  "N",
                                                               "proxcode":  "0",
                                                               "irrlotcode":  true,
                                                               "lottype":  "7",
                                                               "bsmtcode":  "0",
                                                               "assessland":  "134391150.00000",
                                                               "assesstot":  "592936650.00000",
                                                               "exempttot":  "592936650.00000",
                                                               "yearbuilt":  "1975",
                                                               "yearalter1":  "0",
                                                               "yearalter2":  "0",
                                                               "landmark":  "INDIVIDUAL LANDMARK",
                                                               "builtfar":  "1.13000000000",
                                                               "residfar":  "3.44000000000",
                                                               "commfar":  "0.00000000000",
                                                               "facilfar":  "6.50000000000",
                                                               "affresfar":  "5.01000000000",
                                                               "mnffar":  "0.00000000000",
                                                               "borocode":  "1",
                                                               "bbl":  "1013730001.00000000",
                                                               "tract2010":  "23801",
                                                               "xcoord":  "996792",
                                                               "ycoord":  "215349",
                                                               "latitude":  "40.7577508",
                                                               "longitude":  "-73.9547287",
                                                               "zonemap":  "9a",
                                                               "zmcode":  true,
                                                               "sanborn":  "106E070",
                                                               "taxmap":  "10507",
                                                               "appbbl":  "1013730001.00000000",
                                                               "appdate":  "2023-12-06T00:00:00.000",
                                                               "plutomapid":  "1",
                                                               "version":  "26v2",
                                                               "sanitdistrict":  "8",
                                                               "healthcenterdistrict":  "13",
                                                               "firm07_flag":  "1",
                                                               "pfirm15_flag":  "1",
                                                               "bct2020":  "1023804",
                                                               "bctcb2020":  "10238041000",
                                                               "transitzone":  "Inner Transit Zone"
                                                           }
                                             }
                   },
    "geometry":  {
                     "type":  "MultiPolygon",
                     "coordinates":  [
                                         [
                                             [
                                                 [
                                                     -73.947316649202,
                                                     40.765485469128
                                                 ],
                                                 [
                                                     -73.947391959321,
                                                     40.76540137933
                                                 ],
                                                 [
                                                     -73.94738256985,
                                                     40.765396518623
                                                 ],
                                                 [
                                                     -73.947455967702,
                                                     40.765314563004
                                                 ],
                                                 [
                                                     -73.947465355982,
                                                     40.765319423705
                                                 ],
                                                 [
                                                     -73.947484601297,
                                                     40.76529793474
                                                 ],
                                                 [
                                                     -73.9474751408,
                                                     40.765293037087
                                                 ],
                                                 [
                                                     -73.947548175686,
                                                     40.76521148647
                                                 ],
                                                 [
                                                     -73.947557901368,
                                                     40.765216522014
                                                 ],
                                                 [
                                                     -73.947606793893,
                                                     40.765161929572
                                                 ],
                                                 [
                                                     -73.94772724562,
                                                     40.765224289276
                                                 ],
                                                 [
                                                     -73.947720165136,
                                                     40.765232196093
                                                 ],
                                                 [
                                                     -73.947724179724,
                                                     40.765234274477
                                                 ],
                                                 [
                                                     -73.947820040965,
                                                     40.765283904201
                                                 ],
                                                 [
                                                     -73.947827122627,
                                                     40.765275997378
                                                 ],
                                                 [
                                                     -73.947934858509,
                                                     40.765331773821
                                                 ],
                                                 [
                                                     -73.947927996154,
                                                     40.765339437613
                                                 ],
                                                 [
                                                     -73.947993551033,
                                                     40.765373376611
                                                 ],
                                                 [
                                                     -73.9479704426,
                                                     40.765399180034
                                                 ],
                                                 [
                                                     -73.947981840009,
                                                     40.765405080782
                                                 ],
                                                 [
                                                     -73.947992489195,
                                                     40.765410593974
                                                 ],
                                                 [
                                                     -73.947943151087,
                                                     40.765465684356
                                                 ],
                                                 [
                                                     -73.947928813491,
                                                     40.765481694246
                                                 ],
                                                 [
                                                     -73.94792822746,
                                                     40.765481390511
                                                 ],
                                                 [
                                                     -73.947913209673,
                                                     40.765473615973
                                                 ],
                                                 [
                                                     -73.947906766884,
                                                     40.765470280294
                                                 ],
                                                 [
                                                     -73.947885195868,
                                                     40.765494367133
                                                 ],
                                                 [
                                                     -73.94781963974,
                                                     40.765460428073
                                                 ],
                                                 [
                                                     -73.947812932648,
                                                     40.765467918131
                                                 ],
                                                 [
                                                     -73.94770215403,
                                                     40.765410566113
                                                 ],
                                                 [
                                                     -73.947708313464,
                                                     40.765403689056
                                                 ],
                                                 [
                                                     -73.947651935084,
                                                     40.765374501524
                                                 ],
                                                 [
                                                     -73.947626531545,
                                                     40.76540286667
                                                 ],
                                                 [
                                                     -73.947633732008,
                                                     40.765406594429
                                                 ],
                                                 [
                                                     -73.947560334274,
                                                     40.765488550159
                                                 ],
                                                 [
                                                     -73.947552178401,
                                                     40.765484327584
                                                 ],
                                                 [
                                                     -73.947476869573,
                                                     40.765568418387
                                                 ],
                                                 [
                                                     -73.947444542041,
                                                     40.765551682182
                                                 ],
                                                 [
                                                     -73.947432250354,
                                                     40.765565407464
                                                 ],
                                                 [
                                                     -73.947338177864,
                                                     40.765516704856
                                                 ],
                                                 [
                                                     -73.947350470747,
                                                     40.765502978685
                                                 ],
                                                 [
                                                     -73.947316649202,
                                                     40.765485469128
                                                 ]
                                             ]
                                         ]
                                     ]
                 }
}
