{
    "type":  "Feature",
    "id":  "1083200",
    "properties":  {
                       "bin":  "1083200",
                       "bbl":  "1013730040",
                       "address":  "531 MAIN STREET",
                       "building_use":  "Multi-Family Elevator Buildings",
                       "pluto_landuse_code":  "3",
                       "building_class":  "D4",
                       "pluto_year_built":  "1975",
                       "pluto_floors":  "20.0000000",
                       "residential_units":  "365",
                       "total_units":  "368",
                       "building_area_sqft":  "683637",
                       "lot_area_sqft":  "97913",
                       "construction_year":  "1975",
                       "height_roof":  "50.53",
                       "feature_code":  "2100",
                       "geometry_source":  "Photogrammetric",
                       "last_status_type":  "Constructed",
                       "retrieved_on":  "2026-09-29",
                       "source_footprint":  "NYC DoITT BUILDING (Socrata 5zhs-2jue)",
                       "source_taxlot":  "NYC DCP PLUTO 26v2 (Socrata 64uk-42ks)",
                       "source_boundary":  "OpenStreetMap relation 2389564 (Roosevelt Island)",
                       "source_attributes":  {
                                                 "building":  {
                                                                  "name":  null,
                                                                  "base_bbl":  "1013730040",
                                                                  "shape_area":  "848.7109375",
                                                                  "construction_year":  "1975",
                                                                  "ground_elevation":  "23",
                                                                  "mappluto_bbl":  "1013730040",
                                                                  "objectid":  "323654",
                                                                  "feature_code":  "2100",
                                                                  "shape_length":  "144.51398294010735",
                                                                  "height_roof":  "50.53",
                                                                  "last_status_type":  "Constructed",
                                                                  "bin":  "1083200",
                                                                  "last_edited_date":  "2018-12-07T18:34:34.000Z",
                                                                  "geom_source":  "Photogrammetric",
                                                                  "doitt_id":  "201385"
                                                              },
                                                 "pluto":  {
                                                               "borough":  "MN",
                                                               "block":  "1373",
                                                               "lot":  "40",
                                                               "cd":  "108",
                                                               "ct2010":  "238.01",
                                                               "cb2010":  "1009",
                                                               "schooldist":  "2",
                                                               "council":  "5",
                                                               "zipcode":  "10044",
                                                               "firecomp":  "E260",
                                                               "policeprct":  "114",
                                                               "healtharea":  "8300",
                                                               "sanitboro":  "1",
                                                               "address":  "531 MAIN STREET",
                                                               "zonedist1":  "R7-2",
                                                               "splitzone":  false,
                                                               "bldgclass":  "D4",
                                                               "landuse":  "3",
                                                               "easements":  "0",
                                                               "ownertype":  "C",
                                                               "ownername":  "RIVERCROSS TENANTS\u0027 CORP.",
                                                               "lotarea":  "97913",
                                                               "bldgarea":  "683637",
                                                               "comarea":  "11972",
                                                               "resarea":  "671665",
                                                               "officearea":  "3472",
                                                               "retailarea":  "8500",
                                                               "garagearea":  "0",
                                                               "strgearea":  "0",
                                                               "factryarea":  "0",
                                                               "otherarea":  "0",
                                                               "areasource":  "2",
                                                               "numbldgs":  "3",
                                                               "numfloors":  "20.0000000",
                                                               "unitsres":  "365",
                                                               "unitstotal":  "368",
                                                               "lotfront":  "377.0000000",
                                                               "lotdepth":  "320.0000000",
                                                               "bldgfront":  "374.0000000",
                                                               "bldgdepth":  "308.0000000",
                                                               "ext":  "N",
                                                               "proxcode":  "0",
                                                               "irrlotcode":  true,
                                                               "lottype":  "5",
                                                               "bsmtcode":  "0",
                                                               "assessland":  "4405500.00000",
                                                               "assesstot":  "83931750.00000",
                                                               "exempttot":  "83931750.00000",
                                                               "yearbuilt":  "1975",
                                                               "yearalter1":  "0",
                                                               "yearalter2":  "0",
                                                               "landmark":  "INDIVIDUAL LANDMARK",
                                                               "builtfar":  "6.98000000000",
                                                               "residfar":  "3.44000000000",
                                                               "commfar":  "0.00000000000",
                                                               "facilfar":  "6.50000000000",
                                                               "affresfar":  "5.01000000000",
                                                               "mnffar":  "0.00000000000",
                                                               "borocode":  "1",
                                                               "bbl":  "1013730040.00000000",
                                                               "tract2010":  "23801",
                                                               "xcoord":  "998006",
                                                               "ycoord":  "216729",
                                                               "latitude":  "40.7615368",
                                                               "longitude":  "-73.9503438",
                                                               "zonemap":  "9a",
                                                               "sanborn":  "16E 070",
                                                               "taxmap":  "10507",
                                                               "appbbl":  "1013730001.00000000",
                                                               "appdate":  "2004-01-09T00:00:00.000",
                                                               "plutomapid":  "1",
                                                               "version":  "26v2",
                                                               "sanitdistrict":  "8",
                                                               "healthcenterdistrict":  "13",
                                                               "bct2020":  "1023803",
                                                               "bctcb2020":  "10238032000",
                                                               "transitzone":  "Inner Transit Zone"
                                                           }
                                             }
                   },
    "geometry":  {
                     "type":  "MultiPolygon",
                     "coordinates":  [
                                         [
                                             [
                                                 [
                                                     -73.950334828496,
                                                     40.761955002236
                                                 ],
                                                 [
                                                     -73.950330486099,
                                                     40.761952749102
                                                 ],
                                                 [
                                                     -73.950325731851,
                                                     40.761958043821
                                                 ],
                                                 [
                                                     -73.950321003678,
                                                     40.761963311536
                                                 ],
                                                 [
                                                     -73.950316683774,
                                                     40.761961070118
                                                 ],
                                                 [
                                                     -73.950133285234,
                                                     40.76186588948
                                                 ],
                                                 [
                                                     -73.950120205393,
                                                     40.761880460288
                                                 ],
                                                 [
                                                     -73.950066360074,
                                                     40.761852516814
                                                 ],
                                                 [
                                                     -73.950065715268,
                                                     40.761853235137
                                                 ],
                                                 [
                                                     -73.950028021322,
                                                     40.761833672438
                                                 ],
                                                 [
                                                     -73.950023055052,
                                                     40.76183109484
                                                 ],
                                                 [
                                                     -73.950026465178,
                                                     40.76182729619
                                                 ],
                                                 [
                                                     -73.950047331302,
                                                     40.761804050604
                                                 ],
                                                 [
                                                     -73.950042760249,
                                                     40.761800353851
                                                 ],
                                                 [
                                                     -73.950038766234,
                                                     40.761796289942
                                                 ],
                                                 [
                                                     -73.950035397775,
                                                     40.761791910227
                                                 ],
                                                 [
                                                     -73.950032701018,
                                                     40.761787268757
                                                 ],
                                                 [
                                                     -73.950030706711,
                                                     40.761782427679
                                                 ],
                                                 [
                                                     -73.950029442048,
                                                     40.761777445538
                                                 ],
                                                 [
                                                     -73.95002892356,
                                                     40.761772387178
                                                 ],
                                                 [
                                                     -73.950029157121,
                                                     40.761767316537
                                                 ],
                                                 [
                                                     -73.950030139129,
                                                     40.76176229845
                                                 ],
                                                 [
                                                     -73.950031857694,
                                                     40.761757395947
                                                 ],
                                                 [
                                                     -73.950034291451,
                                                     40.761752671153
                                                 ],
                                                 [
                                                     -73.950037409562,
                                                     40.76174818529
                                                 ],
                                                 [
                                                     -73.950041170535,
                                                     40.761743994171
                                                 ],
                                                 [
                                                     -73.950045529323,
                                                     40.761740152707
                                                 ],
                                                 [
                                                     -73.950050429045,
                                                     40.761736707699
                                                 ],
                                                 [
                                                     -73.950055806898,
                                                     40.761733704146
                                                 ],
                                                 [
                                                     -73.950061595348,
                                                     40.761731179839
                                                 ],
                                                 [
                                                     -73.950067719759,
                                                     40.761729167163
                                                 ],
                                                 [
                                                     -73.950074104317,
                                                     40.761727691301
                                                 ],
                                                 [
                                                     -73.950080667289,
                                                     40.761726772028
                                                 ],
                                                 [
                                                     -73.950087323396,
                                                     40.761726419213
                                                 ],
                                                 [
                                                     -73.950093989734,
                                                     40.761726638222
                                                 ],
                                                 [
                                                     -73.950100582218,
                                                     40.761727427218
                                                 ],
                                                 [
                                                     -73.950107014401,
                                                     40.761728774457
                                                 ],
                                                 [
                                                     -73.950113208131,
                                                     40.761730664597
                                                 ],
                                                 [
                                                     -73.950149632952,
                                                     40.761749568451
                                                 ],
                                                 [
                                                     -73.950159518373,
                                                     40.761738555052
                                                 ],
                                                 [
                                                     -73.950407343348,
                                                     40.761867171226
                                                 ],
                                                 [
                                                     -73.950394644048,
                                                     40.761881318992
                                                 ],
                                                 [
                                                     -73.950414644164,
                                                     40.761891698715
                                                 ],
                                                 [
                                                     -73.950464249073,
                                                     40.76191744207
                                                 ],
                                                 [
                                                     -73.950440425736,
                                                     40.761943981406
                                                 ],
                                                 [
                                                     -73.950426784113,
                                                     40.761936902072
                                                 ],
                                                 [
                                                     -73.95041119741,
                                                     40.761954266101
                                                 ],
                                                 [
                                                     -73.950425408472,
                                                     40.761961641947
                                                 ],
                                                 [
                                                     -73.950400687829,
                                                     40.761989182249
                                                 ],
                                                 [
                                                     -73.950334828496,
                                                     40.761955002236
                                                 ]
                                             ]
                                         ]
                                     ]
                 }
}
