{
    "type":  "Feature",
    "id":  "1089341",
    "properties":  {
                       "bin":  "1089341",
                       "bbl":  "1013730030",
                       "address":  "510 MAIN STREET",
                       "building_use":  "Mixed Residential \u0026 Commercial Buildings",
                       "pluto_landuse_code":  "4",
                       "building_class":  "D6",
                       "pluto_year_built":  "1969",
                       "pluto_floors":  "16.0000000",
                       "residential_units":  "1003",
                       "total_units":  "1017",
                       "building_area_sqft":  "804200",
                       "lot_area_sqft":  "230012",
                       "construction_year":  "1969",
                       "height_roof":  "178",
                       "feature_code":  "2100",
                       "geometry_source":  "Other (Manual)",
                       "last_status_type":  "Constructed",
                       "retrieved_on":  "2026-09-29",
                       "source_footprint":  "NYC DoITT BUILDING (Socrata 5zhs-2jue)",
                       "source_taxlot":  "NYC DCP PLUTO 26v2 (Socrata 64uk-42ks)",
                       "source_boundary":  "OpenStreetMap relation 2389564 (Roosevelt Island)",
                       "source_attributes":  {
                                                 "building":  {
                                                                  "name":  null,
                                                                  "base_bbl":  "1013730030",
                                                                  "shape_area":  "3461.0859375",
                                                                  "construction_year":  "1969",
                                                                  "ground_elevation":  "14",
                                                                  "mappluto_bbl":  "1013730030",
                                                                  "objectid":  "49994",
                                                                  "feature_code":  "2100",
                                                                  "shape_length":  "592.868657986788",
                                                                  "height_roof":  "178",
                                                                  "last_status_type":  "Constructed",
                                                                  "bin":  "1089341",
                                                                  "last_edited_date":  "2017-08-22T19:19:39.000Z",
                                                                  "geom_source":  "Other (Manual)",
                                                                  "doitt_id":  "1257207"
                                                              },
                                                 "pluto":  {
                                                               "borough":  "MN",
                                                               "block":  "1373",
                                                               "lot":  "30",
                                                               "cd":  "108",
                                                               "ct2010":  "238.01",
                                                               "cb2010":  "1005",
                                                               "schooldist":  "2",
                                                               "council":  "5",
                                                               "zipcode":  "10044",
                                                               "firecomp":  "E260",
                                                               "policeprct":  "114",
                                                               "healtharea":  "8300",
                                                               "sanitboro":  "1",
                                                               "address":  "510 MAIN STREET",
                                                               "zonedist1":  "R7-2",
                                                               "splitzone":  false,
                                                               "bldgclass":  "D6",
                                                               "landuse":  "4",
                                                               "easements":  "0",
                                                               "ownertype":  "C",
                                                               "ownername":  "ROOSEVELT ISLAND OPERATING CORPORATION",
                                                               "lotarea":  "230012",
                                                               "bldgarea":  "804200",
                                                               "comarea":  "35500",
                                                               "resarea":  "768700",
                                                               "officearea":  "0",
                                                               "retailarea":  "35500",
                                                               "garagearea":  "0",
                                                               "strgearea":  "0",
                                                               "factryarea":  "0",
                                                               "otherarea":  "0",
                                                               "areasource":  "2",
                                                               "numbldgs":  "6",
                                                               "numfloors":  "16.0000000",
                                                               "unitsres":  "1003",
                                                               "unitstotal":  "1017",
                                                               "lotfront":  "0.0000000",
                                                               "lotdepth":  "0.0000000",
                                                               "bldgfront":  "780.0000000",
                                                               "bldgdepth":  "250.0000000",
                                                               "ext":  "N",
                                                               "proxcode":  "0",
                                                               "irrlotcode":  true,
                                                               "lottype":  "5",
                                                               "bsmtcode":  "2",
                                                               "assessland":  "18135000.00000",
                                                               "assesstot":  "92847150.00000",
                                                               "exempttot":  "92847150.00000",
                                                               "yearbuilt":  "1969",
                                                               "yearalter1":  "0",
                                                               "yearalter2":  "0",
                                                               "builtfar":  "3.50000000000",
                                                               "residfar":  "3.44000000000",
                                                               "commfar":  "0.00000000000",
                                                               "facilfar":  "6.50000000000",
                                                               "affresfar":  "5.01000000000",
                                                               "mnffar":  "0.00000000000",
                                                               "borocode":  "1",
                                                               "bbl":  "1013730030.00000000",
                                                               "tract2010":  "23801",
                                                               "xcoord":  "998020",
                                                               "ycoord":  "216499",
                                                               "latitude":  "40.7609054",
                                                               "longitude":  "-73.9502937",
                                                               "zonemap":  "9a",
                                                               "sanborn":  "106E070",
                                                               "taxmap":  "10507",
                                                               "appbbl":  "1013730001.00000000",
                                                               "appdate":  "2007-03-05T00:00:00.000",
                                                               "plutomapid":  "1",
                                                               "version":  "26v2",
                                                               "sanitdistrict":  "8",
                                                               "healthcenterdistrict":  "13",
                                                               "firm07_flag":  "1",
                                                               "pfirm15_flag":  "1",
                                                               "bct2020":  "1023803",
                                                               "bctcb2020":  "10238031001",
                                                               "transitzone":  "Inner Transit Zone"
                                                           }
                                             }
                   },
    "geometry":  {
                     "type":  "MultiPolygon",
                     "coordinates":  [
                                         [
                                             [
                                                 [
                                                     -73.94825454587,
                                                     40.762351281307
                                                 ],
                                                 [
                                                     -73.948284537726,
                                                     40.762366519606
                                                 ],
                                                 [
                                                     -73.948303362257,
                                                     40.762376083309
                                                 ],
                                                 [
                                                     -73.948309801199,
                                                     40.76236875609
                                                 ],
                                                 [
                                                     -73.948345316961,
                                                     40.762386800123
                                                 ],
                                                 [
                                                     -73.948338876837,
                                                     40.762394128244
                                                 ],
                                                 [
                                                     -73.948395999249,
                                                     40.762423150994
                                                 ],
                                                 [
                                                     -73.948400855444,
                                                     40.762425617851
                                                 ],
                                                 [
                                                     -73.948407294379,
                                                     40.762418290626
                                                 ],
                                                 [
                                                     -73.948444559941,
                                                     40.76243722421
                                                 ],
                                                 [
                                                     -73.94843787208,
                                                     40.762444834083
                                                 ],
                                                 [
                                                     -73.948467785885,
                                                     40.762460032677
                                                 ],
                                                 [
                                                     -73.948474473743,
                                                     40.762452422802
                                                 ],
                                                 [
                                                     -73.948507832599,
                                                     40.762469370806
                                                 ],
                                                 [
                                                     -73.948512328907,
                                                     40.762471655594
                                                 ],
                                                 [
                                                     -73.9485045837,
                                                     40.762480468974
                                                 ],
                                                 [
                                                     -73.948567272783,
                                                     40.762512319911
                                                 ],
                                                 [
                                                     -73.948573312239,
                                                     40.762505447254
                                                 ],
                                                 [
                                                     -73.948645723273,
                                                     40.762542238153
                                                 ],
                                                 [
                                                     -73.948639683822,
                                                     40.762549109914
                                                 ],
                                                 [
                                                     -73.948670769745,
                                                     40.762564904211
                                                 ],
                                                 [
                                                     -73.948676815123,
                                                     40.762558024347
                                                 ],
                                                 [
                                                     -73.948685799475,
                                                     40.762562589405
                                                 ],
                                                 [
                                                     -73.948714688162,
                                                     40.762577266986
                                                 ],
                                                 [
                                                     -73.948707236941,
                                                     40.762585745522
                                                 ],
                                                 [
                                                     -73.948769893072,
                                                     40.762617579224
                                                 ],
                                                 [
                                                     -73.948776524015,
                                                     40.762610033242
                                                 ],
                                                 [
                                                     -73.948813255865,
                                                     40.762628694516
                                                 ],
                                                 [
                                                     -73.948806623739,
                                                     40.7626362414
                                                 ],
                                                 [
                                                     -73.948837521509,
                                                     40.762651939214
                                                 ],
                                                 [
                                                     -73.948844153632,
                                                     40.762644393229
                                                 ],
                                                 [
                                                     -73.948879986962,
                                                     40.762662599327
                                                 ],
                                                 [
                                                     -73.948871548344,
                                                     40.762672201266
                                                 ],
                                                 [
                                                     -73.94893579102,
                                                     40.762704840632
                                                 ],
                                                 [
                                                     -73.94894379342,
                                                     40.762695734674
                                                 ],
                                                 [
                                                     -73.948955752875,
                                                     40.762701811175
                                                 ],
                                                 [
                                                     -73.948980192696,
                                                     40.762714227352
                                                 ],
                                                 [
                                                     -73.948972189114,
                                                     40.762723334213
                                                 ],
                                                 [
                                                     -73.949002493844,
                                                     40.762738730051
                                                 ],
                                                 [
                                                     -73.949010496239,
                                                     40.762729624088
                                                 ],
                                                 [
                                                     -73.949048210833,
                                                     40.762748785502
                                                 ],
                                                 [
                                                     -73.949070727245,
                                                     40.762736534186
                                                 ],
                                                 [
                                                     -73.949125386849,
                                                     40.762633768433
                                                 ],
                                                 [
                                                     -73.94908399359,
                                                     40.762621039524
                                                 ],
                                                 [
                                                     -73.949075856534,
                                                     40.76260647927
                                                 ],
                                                 [
                                                     -73.949078756805,
                                                     40.762602030258
                                                 ],
                                                 [
                                                     -73.949096751756,
                                                     40.762597052116
                                                 ],
                                                 [
                                                     -73.949137043835,
                                                     40.762609441944
                                                 ],
                                                 [
                                                     -73.949161840196,
                                                     40.762562819355
                                                 ],
                                                 [
                                                     -73.949221370528,
                                                     40.762450895769
                                                 ],
                                                 [
                                                     -73.949307494827,
                                                     40.762288969825
                                                 ],
                                                 [
                                                     -73.949313140286,
                                                     40.762278355358
                                                 ],
                                                 [
                                                     -73.949335744921,
                                                     40.76228530549
                                                 ],
                                                 [
                                                     -73.949405015231,
                                                     40.762306605852
                                                 ],
                                                 [
                                                     -73.949437773094,
                                                     40.76231667887
                                                 ],
                                                 [
                                                     -73.949423404419,
                                                     40.762343792162
                                                 ],
                                                 [
                                                     -73.949434161497,
                                                     40.762347100835
                                                 ],
                                                 [
                                                     -73.949417041324,
                                                     40.762379289064
                                                 ],
                                                 [
                                                     -73.949406284241,
                                                     40.762375981289
                                                 ],
                                                 [
                                                     -73.949392057936,
                                                     40.762402729035
                                                 ],
                                                 [
                                                     -73.949402815023,
                                                     40.762406036811
                                                 ],
                                                 [
                                                     -73.949386058929,
                                                     40.76243753991
                                                 ],
                                                 [
                                                     -73.949375301838,
                                                     40.762434232133
                                                 ],
                                                 [
                                                     -73.949361584312,
                                                     40.762460022862
                                                 ],
                                                 [
                                                     -73.949372342591,
                                                     40.762463330641
                                                 ],
                                                 [
                                                     -73.949355289962,
                                                     40.762495391918
                                                 ],
                                                 [
                                                     -73.949344531678,
                                                     40.762492084138
                                                 ],
                                                 [
                                                     -73.949331069124,
                                                     40.762517395906
                                                 ],
                                                 [
                                                     -73.94934182741,
                                                     40.762520704589
                                                 ],
                                                 [
                                                     -73.949324480618,
                                                     40.762553317741
                                                 ],
                                                 [
                                                     -73.949313722327,
                                                     40.762550009958
                                                 ],
                                                 [
                                                     -73.949285816315,
                                                     40.762602478188
                                                 ],
                                                 [
                                                     -73.949297588162,
                                                     40.762606097995
                                                 ],
                                                 [
                                                     -73.949281560189,
                                                     40.762636231731
                                                 ],
                                                 [
                                                     -73.949269788338,
                                                     40.762632611922
                                                 ],
                                                 [
                                                     -73.949255618853,
                                                     40.762659252515
                                                 ],
                                                 [
                                                     -73.949267390708,
                                                     40.762662872325
                                                 ],
                                                 [
                                                     -73.949250718693,
                                                     40.762694217852
                                                 ],
                                                 [
                                                     -73.949238946833,
                                                     40.762690598041
                                                 ],
                                                 [
                                                     -73.949224891182,
                                                     40.76271702526
                                                 ],
                                                 [
                                                     -73.949236663045,
                                                     40.762720645974
                                                 ],
                                                 [
                                                     -73.949220216348,
                                                     40.762751566557
                                                 ],
                                                 [
                                                     -73.94921050355,
                                                     40.762748579805
                                                 ],
                                                 [
                                                     -73.949209067292,
                                                     40.762748137924
                                                 ],
                                                 [
                                                     -73.949194926223,
                                                     40.762774725392
                                                 ],
                                                 [
                                                     -73.949164271052,
                                                     40.762765298895
                                                 ],
                                                 [
                                                     -73.949137704427,
                                                     40.762757129499
                                                 ],
                                                 [
                                                     -73.949098594565,
                                                     40.762801632275
                                                 ],
                                                 [
                                                     -73.949129943535,
                                                     40.762817560738
                                                 ],
                                                 [
                                                     -73.949131129777,
                                                     40.762818162799
                                                 ],
                                                 [
                                                     -73.949134166109,
                                                     40.762832510979
                                                 ],
                                                 [
                                                     -73.94913057054,
                                                     40.76283707495
                                                 ],
                                                 [
                                                     -73.9491129376,
                                                     40.762839387764
                                                 ],
                                                 [
                                                     -73.949112417626,
                                                     40.762839455973
                                                 ],
                                                 [
                                                     -73.949091935424,
                                                     40.762829049698
                                                 ],
                                                 [
                                                     -73.949079907531,
                                                     40.762842735655
                                                 ],
                                                 [
                                                     -73.949092584454,
                                                     40.762849175362
                                                 ],
                                                 [
                                                     -73.949061734137,
                                                     40.762884280506
                                                 ],
                                                 [
                                                     -73.948915381383,
                                                     40.762809924077
                                                 ],
                                                 [
                                                     -73.948846129659,
                                                     40.76277473945
                                                 ],
                                                 [
                                                     -73.94881793092,
                                                     40.762806825414
                                                 ],
                                                 [
                                                     -73.948799836205,
                                                     40.762808984889
                                                 ],
                                                 [
                                                     -73.948794626037,
                                                     40.762806277458
                                                 ],
                                                 [
                                                     -73.948789967898,
                                                     40.762792618334
                                                 ],
                                                 [
                                                     -73.948818166645,
                                                     40.762760531477
                                                 ],
                                                 [
                                                     -73.948629230741,
                                                     40.762664538243
                                                 ],
                                                 [
                                                     -73.948473558393,
                                                     40.762585444941
                                                 ],
                                                 [
                                                     -73.948447865433,
                                                     40.762614680038
                                                 ],
                                                 [
                                                     -73.948431327613,
                                                     40.762617535341
                                                 ],
                                                 [
                                                     -73.948424170036,
                                                     40.762613816655
                                                 ],
                                                 [
                                                     -73.948421035529,
                                                     40.762601047896
                                                 ],
                                                 [
                                                     -73.948446727309,
                                                     40.762571813706
                                                 ],
                                                 [
                                                     -73.948435736324,
                                                     40.76256622926
                                                 ],
                                                 [
                                                     -73.948309628984,
                                                     40.762502156775
                                                 ],
                                                 [
                                                     -73.948263568529,
                                                     40.762478754497
                                                 ],
                                                 [
                                                     -73.948258921859,
                                                     40.762484041975
                                                 ],
                                                 [
                                                     -73.948221934531,
                                                     40.762465248935
                                                 ],
                                                 [
                                                     -73.948227869706,
                                                     40.762458495116
                                                 ],
                                                 [
                                                     -73.948209555406,
                                                     40.762449189174
                                                 ],
                                                 [
                                                     -73.948184669625,
                                                     40.76247750606
                                                 ],
                                                 [
                                                     -73.948167614148,
                                                     40.762480526786
                                                 ],
                                                 [
                                                     -73.948159114115,
                                                     40.762476111389
                                                 ],
                                                 [
                                                     -73.948156558893,
                                                     40.762463224017
                                                 ],
                                                 [
                                                     -73.948181420973,
                                                     40.762434935042
                                                 ],
                                                 [
                                                     -73.948180748541,
                                                     40.762434593448
                                                 ],
                                                 [
                                                     -73.948165269594,
                                                     40.762426729582
                                                 ],
                                                 [
                                                     -73.948160061052,
                                                     40.762432655261
                                                 ],
                                                 [
                                                     -73.948123325943,
                                                     40.762413990174
                                                 ],
                                                 [
                                                     -73.948127875417,
                                                     40.762408814321
                                                 ],
                                                 [
                                                     -73.948073350515,
                                                     40.762381111847
                                                 ],
                                                 [
                                                     -73.948061028938,
                                                     40.762374851388
                                                 ],
                                                 [
                                                     -73.948056480645,
                                                     40.762380027239
                                                 ],
                                                 [
                                                     -73.948050850225,
                                                     40.762377166499
                                                 ],
                                                 [
                                                     -73.948031926285,
                                                     40.762367552281
                                                 ],
                                                 [
                                                     -73.948027572064,
                                                     40.762365339578
                                                 ],
                                                 [
                                                     -73.948021149646,
                                                     40.762362076853
                                                 ],
                                                 [
                                                     -73.948025699125,
                                                     40.762356900103
                                                 ],
                                                 [
                                                     -73.947998721428,
                                                     40.762343193955
                                                 ],
                                                 [
                                                     -73.947994106761,
                                                     40.762340848759
                                                 ],
                                                 [
                                                     -73.947999565426,
                                                     40.76233463684
                                                 ],
                                                 [
                                                     -73.94799582326,
                                                     40.762332735987
                                                 ],
                                                 [
                                                     -73.947995179243,
                                                     40.762332408813
                                                 ],
                                                 [
                                                     -73.947994058132,
                                                     40.762331839188
                                                 ],
                                                 [
                                                     -73.947989151054,
                                                     40.762329346177
                                                 ],
                                                 [
                                                     -73.948012365481,
                                                     40.762302931344
                                                 ],
                                                 [
                                                     -73.948016916219,
                                                     40.762305243192
                                                 ],
                                                 [
                                                     -73.948017910656,
                                                     40.762305748824
                                                 ],
                                                 [
                                                     -73.948018918117,
                                                     40.762306260765
                                                 ],
                                                 [
                                                     -73.94802320959,
                                                     40.762308441022
                                                 ],
                                                 [
                                                     -73.948069531702,
                                                     40.762255731958
                                                 ],
                                                 [
                                                     -73.94807165672,
                                                     40.76225681262
                                                 ],
                                                 [
                                                     -73.948101682823,
                                                     40.762272068092
                                                 ],
                                                 [
                                                     -73.948108765434,
                                                     40.762264009965
                                                 ],
                                                 [
                                                     -73.948120907049,
                                                     40.762270179387
                                                 ],
                                                 [
                                                     -73.94813819015,
                                                     40.762278959885
                                                 ],
                                                 [
                                                     -73.948142816656,
                                                     40.762281311384
                                                 ],
                                                 [
                                                     -73.948146743505,
                                                     40.762283305969
                                                 ],
                                                 [
                                                     -73.948139662081,
                                                     40.762291364099
                                                 ],
                                                 [
                                                     -73.94814957332,
                                                     40.76229639968
                                                 ],
                                                 [
                                                     -73.94820151856,
                                                     40.762322792525
                                                 ],
                                                 [
                                                     -73.94820859998,
                                                     40.76231473439
                                                 ],
                                                 [
                                                     -73.948247610432,
                                                     40.762334554919
                                                 ],
                                                 [
                                                     -73.948239589015,
                                                     40.762343681532
                                                 ],
                                                 [
                                                     -73.948253849762,
                                                     40.762350927096
                                                 ],
                                                 [
                                                     -73.94825454587,
                                                     40.762351281307
                                                 ]
                                             ]
                                         ]
                                     ]
                 }
}
