{
    "type":  "Feature",
    "id":  "1084696",
    "properties":  {
                       "bin":  "1084696",
                       "bbl":  "1013730001",
                       "address":  "MAIN STREET",
                       "building_use":  "Multi-Family Elevator Buildings",
                       "pluto_landuse_code":  "3",
                       "building_class":  "D4",
                       "pluto_year_built":  "1975",
                       "pluto_floors":  "18.0000000",
                       "residential_units":  "8018",
                       "total_units":  "8088",
                       "building_area_sqft":  "4786701",
                       "lot_area_sqft":  "4227757",
                       "construction_year":  "1969",
                       "height_roof":  "49",
                       "feature_code":  "2100",
                       "geometry_source":  "Other (Manual)",
                       "last_status_type":  "Constructed",
                       "retrieved_on":  "2026-09-29",
                       "source_footprint":  "NYC DoITT BUILDING (Socrata 5zhs-2jue)",
                       "source_taxlot":  "NYC DCP PLUTO 26v2 (Socrata 64uk-42ks)",
                       "source_boundary":  "OpenStreetMap relation 2389564 (Roosevelt Island)",
                       "source_attributes":  {
                                                 "building":  {
                                                                  "name":  null,
                                                                  "base_bbl":  "1013730001",
                                                                  "shape_area":  "1321.18359375",
                                                                  "construction_year":  "1969",
                                                                  "ground_elevation":  "16",
                                                                  "mappluto_bbl":  "1013730001",
                                                                  "objectid":  "63238",
                                                                  "feature_code":  "2100",
                                                                  "shape_length":  "205.47130406847234",
                                                                  "height_roof":  "49",
                                                                  "last_status_type":  "Constructed",
                                                                  "bin":  "1084696",
                                                                  "last_edited_date":  "2018-12-07T18:34:26.000Z",
                                                                  "geom_source":  "Other (Manual)",
                                                                  "doitt_id":  "1257210"
                                                              },
                                                 "pluto":  {
                                                               "borough":  "MN",
                                                               "block":  "1373",
                                                               "lot":  "1",
                                                               "cd":  "108",
                                                               "ct2010":  "238.01",
                                                               "cb2010":  "1015",
                                                               "schooldist":  "2",
                                                               "council":  "5",
                                                               "zipcode":  "10044",
                                                               "firecomp":  "E260",
                                                               "policeprct":  "114",
                                                               "healtharea":  "8300",
                                                               "sanitboro":  "1",
                                                               "address":  "MAIN STREET",
                                                               "zonedist1":  "R7-2",
                                                               "splitzone":  false,
                                                               "bldgclass":  "D4",
                                                               "landuse":  "3",
                                                               "easements":  "1",
                                                               "ownertype":  "C",
                                                               "ownername":  "RIVERWALK 8 AFFORDABLE, L.P.",
                                                               "lotarea":  "4227757",
                                                               "bldgarea":  "4786701",
                                                               "comarea":  "1046956",
                                                               "resarea":  "3739745",
                                                               "officearea":  "7496",
                                                               "retailarea":  "537154",
                                                               "garagearea":  "406500",
                                                               "strgearea":  "0",
                                                               "factryarea":  "0",
                                                               "otherarea":  "95806",
                                                               "areasource":  "2",
                                                               "numbldgs":  "38",
                                                               "numfloors":  "18.0000000",
                                                               "unitsres":  "8018",
                                                               "unitstotal":  "8088",
                                                               "lotfront":  "200.0000000",
                                                               "lotdepth":  "102.5000000",
                                                               "bldgfront":  "0.0000000",
                                                               "bldgdepth":  "0.0000000",
                                                               "ext":  "N",
                                                               "proxcode":  "0",
                                                               "irrlotcode":  true,
                                                               "lottype":  "7",
                                                               "bsmtcode":  "0",
                                                               "assessland":  "134391150.00000",
                                                               "assesstot":  "592936650.00000",
                                                               "exempttot":  "592936650.00000",
                                                               "yearbuilt":  "1975",
                                                               "yearalter1":  "0",
                                                               "yearalter2":  "0",
                                                               "landmark":  "INDIVIDUAL LANDMARK",
                                                               "builtfar":  "1.13000000000",
                                                               "residfar":  "3.44000000000",
                                                               "commfar":  "0.00000000000",
                                                               "facilfar":  "6.50000000000",
                                                               "affresfar":  "5.01000000000",
                                                               "mnffar":  "0.00000000000",
                                                               "borocode":  "1",
                                                               "bbl":  "1013730001.00000000",
                                                               "tract2010":  "23801",
                                                               "xcoord":  "996792",
                                                               "ycoord":  "215349",
                                                               "latitude":  "40.7577508",
                                                               "longitude":  "-73.9547287",
                                                               "zonemap":  "9a",
                                                               "zmcode":  true,
                                                               "sanborn":  "106E070",
                                                               "taxmap":  "10507",
                                                               "appbbl":  "1013730001.00000000",
                                                               "appdate":  "2023-12-06T00:00:00.000",
                                                               "plutomapid":  "1",
                                                               "version":  "26v2",
                                                               "sanitdistrict":  "8",
                                                               "healthcenterdistrict":  "13",
                                                               "firm07_flag":  "1",
                                                               "pfirm15_flag":  "1",
                                                               "bct2020":  "1023804",
                                                               "bctcb2020":  "10238041000",
                                                               "transitzone":  "Inner Transit Zone"
                                                           }
                                             }
                   },
    "geometry":  {
                     "type":  "MultiPolygon",
                     "coordinates":  [
                                         [
                                             [
                                                 [
                                                     -73.94903400967,
                                                     40.761491752988
                                                 ],
                                                 [
                                                     -73.949048617506,
                                                     40.761475535955
                                                 ],
                                                 [
                                                     -73.949115505556,
                                                     40.761510369126
                                                 ],
                                                 [
                                                     -73.94912637608,
                                                     40.761498300859
                                                 ],
                                                 [
                                                     -73.94915521833,
                                                     40.761466280835
                                                 ],
                                                 [
                                                     -73.949168779501,
                                                     40.761451224075
                                                 ],
                                                 [
                                                     -73.949170959291,
                                                     40.76144880448
                                                 ],
                                                 [
                                                     -73.949205216031,
                                                     40.761466645081
                                                 ],
                                                 [
                                                     -73.949212316054,
                                                     40.76145876159
                                                 ],
                                                 [
                                                     -73.949250222588,
                                                     40.76147850205
                                                 ],
                                                 [
                                                     -73.949243122568,
                                                     40.761486384643
                                                 ],
                                                 [
                                                     -73.949312439973,
                                                     40.761522483079
                                                 ],
                                                 [
                                                     -73.949319539988,
                                                     40.761514600482
                                                 ],
                                                 [
                                                     -73.949355027997,
                                                     40.761533081839
                                                 ],
                                                 [
                                                     -73.949347927984,
                                                     40.761540964438
                                                 ],
                                                 [
                                                     -73.949421903924,
                                                     40.761579488114
                                                 ],
                                                 [
                                                     -73.949429003933,
                                                     40.76157160551
                                                 ],
                                                 [
                                                     -73.949434217578,
                                                     40.761574320119
                                                 ],
                                                 [
                                                     -73.949463869302,
                                                     40.761589761478
                                                 ],
                                                 [
                                                     -73.94945676811,
                                                     40.761597644984
                                                 ],
                                                 [
                                                     -73.949475485866,
                                                     40.761607392153
                                                 ],
                                                 [
                                                     -73.949491964976,
                                                     40.761615973985
                                                 ],
                                                 [
                                                     -73.949460027976,
                                                     40.761651430862
                                                 ],
                                                 [
                                                     -73.94953845276,
                                                     40.76168320533
                                                 ],
                                                 [
                                                     -73.949474480379,
                                                     40.761805685562
                                                 ],
                                                 [
                                                     -73.949450236019,
                                                     40.76179820524
                                                 ],
                                                 [
                                                     -73.949457474144,
                                                     40.761784695442
                                                 ],
                                                 [
                                                     -73.949415226211,
                                                     40.761762693778
                                                 ],
                                                 [
                                                     -73.949405427221,
                                                     40.761773571175
                                                 ],
                                                 [
                                                     -73.949368392968,
                                                     40.761754285004
                                                 ],
                                                 [
                                                     -73.949361612968,
                                                     40.761761812045
                                                 ],
                                                 [
                                                     -73.949325010837,
                                                     40.761742750276
                                                 ],
                                                 [
                                                     -73.949331790839,
                                                     40.761735223237
                                                 ],
                                                 [
                                                     -73.949326345153,
                                                     40.761732386953
                                                 ],
                                                 [
                                                     -73.949309423276,
                                                     40.761723575274
                                                 ],
                                                 [
                                                     -73.949294068814,
                                                     40.761715579239
                                                 ],
                                                 [
                                                     -73.949269974036,
                                                     40.761703031805
                                                 ],
                                                 [
                                                     -73.949263293606,
                                                     40.761699552915
                                                 ],
                                                 [
                                                     -73.9492565136,
                                                     40.76170707995
                                                 ],
                                                 [
                                                     -73.949219119538,
                                                     40.761687606267
                                                 ],
                                                 [
                                                     -73.949225899546,
                                                     40.761680079235
                                                 ],
                                                 [
                                                     -73.9492156084,
                                                     40.761674720297
                                                 ],
                                                 [
                                                     -73.949157250893,
                                                     40.76164433314
                                                 ],
                                                 [
                                                     -73.949154771931,
                                                     40.761643038021
                                                 ],
                                                 [
                                                     -73.949154683032,
                                                     40.761643137037
                                                 ],
                                                 [
                                                     -73.949147991918,
                                                     40.761650565049
                                                 ],
                                                 [
                                                     -73.949110502029,
                                                     40.761631041761
                                                 ],
                                                 [
                                                     -73.949114265411,
                                                     40.761626864181
                                                 ],
                                                 [
                                                     -73.949117282044,
                                                     40.761623514735
                                                 ],
                                                 [
                                                     -73.949084769043,
                                                     40.761606582588
                                                 ],
                                                 [
                                                     -73.949081866266,
                                                     40.761605071158
                                                 ],
                                                 [
                                                     -73.949081906567,
                                                     40.761605027051
                                                 ],
                                                 [
                                                     -73.949083826782,
                                                     40.761602894604
                                                 ],
                                                 [
                                                     -73.949098030438,
                                                     40.761587125838
                                                 ],
                                                 [
                                                     -73.94910238055,
                                                     40.761582296552
                                                 ],
                                                 [
                                                     -73.949068209014,
                                                     40.761564501884
                                                 ],
                                                 [
                                                     -73.94906450062,
                                                     40.761550977364
                                                 ],
                                                 [
                                                     -73.949067454596,
                                                     40.761547480209
                                                 ],
                                                 [
                                                     -73.949085899867,
                                                     40.761544860689
                                                 ],
                                                 [
                                                     -73.949104687399,
                                                     40.76155464487
                                                 ],
                                                 [
                                                     -73.949108744736,
                                                     40.761550140536
                                                 ],
                                                 [
                                                     -73.949120680867,
                                                     40.761536888576
                                                 ],
                                                 [
                                                     -73.949110567327,
                                                     40.76153162156
                                                 ],
                                                 [
                                                     -73.949042053848,
                                                     40.761495942093
                                                 ],
                                                 [
                                                     -73.94903400967,
                                                     40.761491752988
                                                 ]
                                             ]
                                         ]
                                     ]
                 }
}
