{
    "type":  "Feature",
    "id":  "1083216",
    "properties":  {
                       "bin":  "1083216",
                       "bbl":  "1013730040",
                       "address":  "531 MAIN STREET",
                       "building_use":  "Multi-Family Elevator Buildings",
                       "pluto_landuse_code":  "3",
                       "building_class":  "D4",
                       "pluto_year_built":  "1975",
                       "pluto_floors":  "20.0000000",
                       "residential_units":  "365",
                       "total_units":  "368",
                       "building_area_sqft":  "683637",
                       "lot_area_sqft":  "97913",
                       "construction_year":  "1975",
                       "height_roof":  "177.53",
                       "feature_code":  "2100",
                       "geometry_source":  "Photogrammetric",
                       "last_status_type":  "Constructed",
                       "retrieved_on":  "2026-09-29",
                       "source_footprint":  "NYC DoITT BUILDING (Socrata 5zhs-2jue)",
                       "source_taxlot":  "NYC DCP PLUTO 26v2 (Socrata 64uk-42ks)",
                       "source_boundary":  "OpenStreetMap relation 2389564 (Roosevelt Island)",
                       "source_attributes":  {
                                                 "building":  {
                                                                  "name":  null,
                                                                  "base_bbl":  "1013730040",
                                                                  "shape_area":  "1236.85546875",
                                                                  "construction_year":  "1975",
                                                                  "ground_elevation":  "16",
                                                                  "mappluto_bbl":  "1013730040",
                                                                  "objectid":  "250092",
                                                                  "feature_code":  "2100",
                                                                  "shape_length":  "185.63517520928215",
                                                                  "height_roof":  "177.53",
                                                                  "last_status_type":  "Constructed",
                                                                  "bin":  "1083216",
                                                                  "last_edited_date":  "2017-08-22T17:36:22.000Z",
                                                                  "geom_source":  "Photogrammetric",
                                                                  "doitt_id":  "347099"
                                                              },
                                                 "pluto":  {
                                                               "borough":  "MN",
                                                               "block":  "1373",
                                                               "lot":  "40",
                                                               "cd":  "108",
                                                               "ct2010":  "238.01",
                                                               "cb2010":  "1009",
                                                               "schooldist":  "2",
                                                               "council":  "5",
                                                               "zipcode":  "10044",
                                                               "firecomp":  "E260",
                                                               "policeprct":  "114",
                                                               "healtharea":  "8300",
                                                               "sanitboro":  "1",
                                                               "address":  "531 MAIN STREET",
                                                               "zonedist1":  "R7-2",
                                                               "splitzone":  false,
                                                               "bldgclass":  "D4",
                                                               "landuse":  "3",
                                                               "easements":  "0",
                                                               "ownertype":  "C",
                                                               "ownername":  "RIVERCROSS TENANTS\u0027 CORP.",
                                                               "lotarea":  "97913",
                                                               "bldgarea":  "683637",
                                                               "comarea":  "11972",
                                                               "resarea":  "671665",
                                                               "officearea":  "3472",
                                                               "retailarea":  "8500",
                                                               "garagearea":  "0",
                                                               "strgearea":  "0",
                                                               "factryarea":  "0",
                                                               "otherarea":  "0",
                                                               "areasource":  "2",
                                                               "numbldgs":  "3",
                                                               "numfloors":  "20.0000000",
                                                               "unitsres":  "365",
                                                               "unitstotal":  "368",
                                                               "lotfront":  "377.0000000",
                                                               "lotdepth":  "320.0000000",
                                                               "bldgfront":  "374.0000000",
                                                               "bldgdepth":  "308.0000000",
                                                               "ext":  "N",
                                                               "proxcode":  "0",
                                                               "irrlotcode":  true,
                                                               "lottype":  "5",
                                                               "bsmtcode":  "0",
                                                               "assessland":  "4405500.00000",
                                                               "assesstot":  "83931750.00000",
                                                               "exempttot":  "83931750.00000",
                                                               "yearbuilt":  "1975",
                                                               "yearalter1":  "0",
                                                               "yearalter2":  "0",
                                                               "landmark":  "INDIVIDUAL LANDMARK",
                                                               "builtfar":  "6.98000000000",
                                                               "residfar":  "3.44000000000",
                                                               "commfar":  "0.00000000000",
                                                               "facilfar":  "6.50000000000",
                                                               "affresfar":  "5.01000000000",
                                                               "mnffar":  "0.00000000000",
                                                               "borocode":  "1",
                                                               "bbl":  "1013730040.00000000",
                                                               "tract2010":  "23801",
                                                               "xcoord":  "998006",
                                                               "ycoord":  "216729",
                                                               "latitude":  "40.7615368",
                                                               "longitude":  "-73.9503438",
                                                               "zonemap":  "9a",
                                                               "sanborn":  "16E 070",
                                                               "taxmap":  "10507",
                                                               "appbbl":  "1013730001.00000000",
                                                               "appdate":  "2004-01-09T00:00:00.000",
                                                               "plutomapid":  "1",
                                                               "version":  "26v2",
                                                               "sanitdistrict":  "8",
                                                               "healthcenterdistrict":  "13",
                                                               "bct2020":  "1023803",
                                                               "bctcb2020":  "10238032000",
                                                               "transitzone":  "Inner Transit Zone"
                                                           }
                                             }
                   },
    "geometry":  {
                     "type":  "MultiPolygon",
                     "coordinates":  [
                                         [
                                             [
                                                 [
                                                     -73.951254556931,
                                                     40.761663372159
                                                 ],
                                                 [
                                                     -73.951229349967,
                                                     40.761650504985
                                                 ],
                                                 [
                                                     -73.951201472205,
                                                     40.76163627331
                                                 ],
                                                 [
                                                     -73.951365509552,
                                                     40.761450487492
                                                 ],
                                                 [
                                                     -73.951378553407,
                                                     40.761457145927
                                                 ],
                                                 [
                                                     -73.951397202736,
                                                     40.761436024352
                                                 ],
                                                 [
                                                     -73.951384888146,
                                                     40.761429738135
                                                 ],
                                                 [
                                                     -73.951420427808,
                                                     40.761389485253
                                                 ],
                                                 [
                                                     -73.951417694259,
                                                     40.761388090119
                                                 ],
                                                 [
                                                     -73.951412366858,
                                                     40.76138537105
                                                 ],
                                                 [
                                                     -73.951434321919,
                                                     40.761360504762
                                                 ],
                                                 [
                                                     -73.951441082982,
                                                     40.761363955645
                                                 ],
                                                 [
                                                     -73.951479630827,
                                                     40.761320297403
                                                 ],
                                                 [
                                                     -73.951495475696,
                                                     40.761328385205
                                                 ],
                                                 [
                                                     -73.951553154886,
                                                     40.761357828966
                                                 ],
                                                 [
                                                     -73.951565518017,
                                                     40.761364140399
                                                 ],
                                                 [
                                                     -73.951584525216,
                                                     40.761342612816
                                                 ],
                                                 [
                                                     -73.95161959257,
                                                     40.761360513373
                                                 ],
                                                 [
                                                     -73.951600413511,
                                                     40.761382234498
                                                 ],
                                                 [
                                                     -73.951615202398,
                                                     40.761389784239
                                                 ],
                                                 [
                                                     -73.951649868453,
                                                     40.761407480204
                                                 ],
                                                 [
                                                     -73.951610440004,
                                                     40.761452135892
                                                 ],
                                                 [
                                                     -73.951618949661,
                                                     40.761456479899
                                                 ],
                                                 [
                                                     -73.951599263271,
                                                     40.761478778034
                                                 ],
                                                 [
                                                     -73.951590752429,
                                                     40.761474433125
                                                 ],
                                                 [
                                                     -73.95155240488,
                                                     40.761517866361
                                                 ],
                                                 [
                                                     -73.951560920461,
                                                     40.761522213076
                                                 ],
                                                 [
                                                     -73.951538965394,
                                                     40.761547079387
                                                 ],
                                                 [
                                                     -73.951530449811,
                                                     40.76154273267
                                                 ],
                                                 [
                                                     -73.951475595847,
                                                     40.761604859718
                                                 ],
                                                 [
                                                     -73.951498394845,
                                                     40.761616497536
                                                 ],
                                                 [
                                                     -73.951489820462,
                                                     40.761626207671
                                                 ],
                                                 [
                                                     -73.951502754263,
                                                     40.761632810214
                                                 ],
                                                 [
                                                     -73.951482350682,
                                                     40.761655919381
                                                 ],
                                                 [
                                                     -73.951461752491,
                                                     40.761645404516
                                                 ],
                                                 [
                                                     -73.951415739477,
                                                     40.761697517143
                                                 ],
                                                 [
                                                     -73.951294912096,
                                                     40.76162327354
                                                 ],
                                                 [
                                                     -73.951254556931,
                                                     40.761663372159
                                                 ]
                                             ]
                                         ]
                                     ]
                 }
}
