{
    "type":  "Feature",
    "id":  "1084702",
    "properties":  {
                       "bin":  "1084702",
                       "bbl":  "1013730030",
                       "address":  "510 MAIN STREET",
                       "building_use":  "Mixed Residential \u0026 Commercial Buildings",
                       "pluto_landuse_code":  "4",
                       "building_class":  "D6",
                       "pluto_year_built":  "1969",
                       "pluto_floors":  "16.0000000",
                       "residential_units":  "1003",
                       "total_units":  "1017",
                       "building_area_sqft":  "804200",
                       "lot_area_sqft":  "230012",
                       "construction_year":  "1969",
                       "height_roof":  "178",
                       "feature_code":  "2100",
                       "geometry_source":  "Other (Manual)",
                       "last_status_type":  "Constructed",
                       "retrieved_on":  "2026-09-29",
                       "source_footprint":  "NYC DoITT BUILDING (Socrata 5zhs-2jue)",
                       "source_taxlot":  "NYC DCP PLUTO 26v2 (Socrata 64uk-42ks)",
                       "source_boundary":  "OpenStreetMap relation 2389564 (Roosevelt Island)",
                       "source_attributes":  {
                                                 "building":  {
                                                                  "name":  null,
                                                                  "base_bbl":  "1013730030",
                                                                  "shape_area":  "3088.2890625",
                                                                  "construction_year":  "1969",
                                                                  "ground_elevation":  "14",
                                                                  "mappluto_bbl":  "1013730030",
                                                                  "objectid":  "64035",
                                                                  "feature_code":  "2100",
                                                                  "shape_length":  "528.74740259889927",
                                                                  "height_roof":  "178",
                                                                  "last_status_type":  "Constructed",
                                                                  "bin":  "1084702",
                                                                  "last_edited_date":  "2017-08-22T17:50:46.000Z",
                                                                  "geom_source":  "Other (Manual)",
                                                                  "doitt_id":  "1257206"
                                                              },
                                                 "pluto":  {
                                                               "borough":  "MN",
                                                               "block":  "1373",
                                                               "lot":  "30",
                                                               "cd":  "108",
                                                               "ct2010":  "238.01",
                                                               "cb2010":  "1005",
                                                               "schooldist":  "2",
                                                               "council":  "5",
                                                               "zipcode":  "10044",
                                                               "firecomp":  "E260",
                                                               "policeprct":  "114",
                                                               "healtharea":  "8300",
                                                               "sanitboro":  "1",
                                                               "address":  "510 MAIN STREET",
                                                               "zonedist1":  "R7-2",
                                                               "splitzone":  false,
                                                               "bldgclass":  "D6",
                                                               "landuse":  "4",
                                                               "easements":  "0",
                                                               "ownertype":  "C",
                                                               "ownername":  "ROOSEVELT ISLAND OPERATING CORPORATION",
                                                               "lotarea":  "230012",
                                                               "bldgarea":  "804200",
                                                               "comarea":  "35500",
                                                               "resarea":  "768700",
                                                               "officearea":  "0",
                                                               "retailarea":  "35500",
                                                               "garagearea":  "0",
                                                               "strgearea":  "0",
                                                               "factryarea":  "0",
                                                               "otherarea":  "0",
                                                               "areasource":  "2",
                                                               "numbldgs":  "6",
                                                               "numfloors":  "16.0000000",
                                                               "unitsres":  "1003",
                                                               "unitstotal":  "1017",
                                                               "lotfront":  "0.0000000",
                                                               "lotdepth":  "0.0000000",
                                                               "bldgfront":  "780.0000000",
                                                               "bldgdepth":  "250.0000000",
                                                               "ext":  "N",
                                                               "proxcode":  "0",
                                                               "irrlotcode":  true,
                                                               "lottype":  "5",
                                                               "bsmtcode":  "2",
                                                               "assessland":  "18135000.00000",
                                                               "assesstot":  "92847150.00000",
                                                               "exempttot":  "92847150.00000",
                                                               "yearbuilt":  "1969",
                                                               "yearalter1":  "0",
                                                               "yearalter2":  "0",
                                                               "builtfar":  "3.50000000000",
                                                               "residfar":  "3.44000000000",
                                                               "commfar":  "0.00000000000",
                                                               "facilfar":  "6.50000000000",
                                                               "affresfar":  "5.01000000000",
                                                               "mnffar":  "0.00000000000",
                                                               "borocode":  "1",
                                                               "bbl":  "1013730030.00000000",
                                                               "tract2010":  "23801",
                                                               "xcoord":  "998020",
                                                               "ycoord":  "216499",
                                                               "latitude":  "40.7609054",
                                                               "longitude":  "-73.9502937",
                                                               "zonemap":  "9a",
                                                               "sanborn":  "106E070",
                                                               "taxmap":  "10507",
                                                               "appbbl":  "1013730001.00000000",
                                                               "appdate":  "2007-03-05T00:00:00.000",
                                                               "plutomapid":  "1",
                                                               "version":  "26v2",
                                                               "sanitdistrict":  "8",
                                                               "healthcenterdistrict":  "13",
                                                               "firm07_flag":  "1",
                                                               "pfirm15_flag":  "1",
                                                               "bct2020":  "1023803",
                                                               "bctcb2020":  "10238031001",
                                                               "transitzone":  "Inner Transit Zone"
                                                           }
                                             }
                   },
    "geometry":  {
                     "type":  "MultiPolygon",
                     "coordinates":  [
                                         [
                                             [
                                                 [
                                                     -73.94825454587,
                                                     40.762351281307
                                                 ],
                                                 [
                                                     -73.948306872917,
                                                     40.762291739113
                                                 ],
                                                 [
                                                     -73.948305837043,
                                                     40.762291212753
                                                 ],
                                                 [
                                                     -73.948225270887,
                                                     40.762250279255
                                                 ],
                                                 [
                                                     -73.948247015334,
                                                     40.762225536852
                                                 ],
                                                 [
                                                     -73.948236495597,
                                                     40.762220191232
                                                 ],
                                                 [
                                                     -73.948261230718,
                                                     40.762192046262
                                                 ],
                                                 [
                                                     -73.948271750453,
                                                     40.762197390979
                                                 ],
                                                 [
                                                     -73.948312774883,
                                                     40.762150709217
                                                 ],
                                                 [
                                                     -73.948302255152,
                                                     40.762145364504
                                                 ],
                                                 [
                                                     -73.948327748853,
                                                     40.762116354475
                                                 ],
                                                 [
                                                     -73.948338269765,
                                                     40.762121700086
                                                 ],
                                                 [
                                                     -73.948358053534,
                                                     40.762099187333
                                                 ],
                                                 [
                                                     -73.948347533808,
                                                     40.762093842624
                                                 ],
                                                 [
                                                     -73.948373067771,
                                                     40.762064787578
                                                 ],
                                                 [
                                                     -73.948383587495,
                                                     40.762070132284
                                                 ],
                                                 [
                                                     -73.94840426144,
                                                     40.762046608654
                                                 ],
                                                 [
                                                     -73.948393741719,
                                                     40.762041263049
                                                 ],
                                                 [
                                                     -73.948418775419,
                                                     40.762012776887
                                                 ],
                                                 [
                                                     -73.948429295138,
                                                     40.76201812249
                                                 ],
                                                 [
                                                     -73.948449128629,
                                                     40.761995553912
                                                 ],
                                                 [
                                                     -73.948438608913,
                                                     40.761990208311
                                                 ],
                                                 [
                                                     -73.948464432025,
                                                     40.761960824689
                                                 ],
                                                 [
                                                     -73.948475794647,
                                                     40.7619665921
                                                 ],
                                                 [
                                                     -73.948476258112,
                                                     40.761966079921
                                                 ],
                                                 [
                                                     -73.948493568695,
                                                     40.761946936627
                                                 ],
                                                 [
                                                     -73.948496079227,
                                                     40.761944159692
                                                 ],
                                                 [
                                                     -73.948486686649,
                                                     40.761939248642
                                                 ],
                                                 [
                                                     -73.948504702493,
                                                     40.761919326725
                                                 ],
                                                 [
                                                     -73.948512986768,
                                                     40.76191016509
                                                 ],
                                                 [
                                                     -73.948521272455,
                                                     40.761914497519
                                                 ],
                                                 [
                                                     -73.948552383799,
                                                     40.761880094125
                                                 ],
                                                 [
                                                     -73.948512651825,
                                                     40.761859321542
                                                 ],
                                                 [
                                                     -73.948503530357,
                                                     40.761854551994
                                                 ],
                                                 [
                                                     -73.948501894293,
                                                     40.761853696684
                                                 ],
                                                 [
                                                     -73.948497019033,
                                                     40.761859087628
                                                 ],
                                                 [
                                                     -73.94849262818,
                                                     40.761856792079
                                                 ],
                                                 [
                                                     -73.948470617094,
                                                     40.761845283691
                                                 ],
                                                 [
                                                     -73.948460885954,
                                                     40.761840195989
                                                 ],
                                                 [
                                                     -73.94846576003,
                                                     40.761834805947
                                                 ],
                                                 [
                                                     -73.948441730515,
                                                     40.76182224216
                                                 ],
                                                 [
                                                     -73.948432645755,
                                                     40.761817492434
                                                 ],
                                                 [
                                                     -73.94843664743,
                                                     40.761813067344
                                                 ],
                                                 [
                                                     -73.948436359758,
                                                     40.761812916831
                                                 ],
                                                 [
                                                     -73.948435857811,
                                                     40.761812654559
                                                 ],
                                                 [
                                                     -73.948433692575,
                                                     40.761811522556
                                                 ],
                                                 [
                                                     -73.948427199234,
                                                     40.761808127448
                                                 ],
                                                 [
                                                     -73.948424500088,
                                                     40.761806716049
                                                 ],
                                                 [
                                                     -73.948448580061,
                                                     40.761780086294
                                                 ],
                                                 [
                                                     -73.948449772184,
                                                     40.761780709977
                                                 ],
                                                 [
                                                     -73.948456888221,
                                                     40.761784430444
                                                 ],
                                                 [
                                                     -73.948458571636,
                                                     40.76178531009
                                                 ],
                                                 [
                                                     -73.948459071214,
                                                     40.76178557146
                                                 ],
                                                 [
                                                     -73.948460728585,
                                                     40.761786437586
                                                 ],
                                                 [
                                                     -73.94850793902,
                                                     40.76173422942
                                                 ],
                                                 [
                                                     -73.948513261544,
                                                     40.761737012557
                                                 ],
                                                 [
                                                     -73.948539558089,
                                                     40.761750760606
                                                 ],
                                                 [
                                                     -73.94854641876,
                                                     40.761743174216
                                                 ],
                                                 [
                                                     -73.948555971133,
                                                     40.761748168178
                                                 ],
                                                 [
                                                     -73.948567562074,
                                                     40.761754228347
                                                 ],
                                                 [
                                                     -73.948574391626,
                                                     40.761757799196
                                                 ],
                                                 [
                                                     -73.948582702158,
                                                     40.761762144238
                                                 ],
                                                 [
                                                     -73.948575842675,
                                                     40.761769729731
                                                 ],
                                                 [
                                                     -73.94858479248,
                                                     40.761774409146
                                                 ],
                                                 [
                                                     -73.94858536309,
                                                     40.761774707467
                                                 ],
                                                 [
                                                     -73.948637828394,
                                                     40.761802137731
                                                 ],
                                                 [
                                                     -73.94864578193,
                                                     40.761793341544
                                                 ],
                                                 [
                                                     -73.948683320254,
                                                     40.761812966761
                                                 ],
                                                 [
                                                     -73.948676650428,
                                                     40.761820343427
                                                 ],
                                                 [
                                                     -73.948693856339,
                                                     40.761829339028
                                                 ],
                                                 [
                                                     -73.948719407139,
                                                     40.761842696785
                                                 ],
                                                 [
                                                     -73.948739292092,
                                                     40.761853092956
                                                 ],
                                                 [
                                                     -73.948745961913,
                                                     40.761845717188
                                                 ],
                                                 [
                                                     -73.948780359568,
                                                     40.761863700256
                                                 ],
                                                 [
                                                     -73.948782160188,
                                                     40.761864642084
                                                 ],
                                                 [
                                                     -73.948775490369,
                                                     40.761872017855
                                                 ],
                                                 [
                                                     -73.948807364095,
                                                     40.761888681454
                                                 ],
                                                 [
                                                     -73.948814033913,
                                                     40.761881305682
                                                 ],
                                                 [
                                                     -73.948850474915,
                                                     40.761900356735
                                                 ],
                                                 [
                                                     -73.948843805099,
                                                     40.76190773251
                                                 ],
                                                 [
                                                     -73.948906268167,
                                                     40.761940389116
                                                 ],
                                                 [
                                                     -73.948913997658,
                                                     40.761931841351
                                                 ],
                                                 [
                                                     -73.948951630846,
                                                     40.76195151605
                                                 ],
                                                 [
                                                     -73.948943901358,
                                                     40.761960063818
                                                 ],
                                                 [
                                                     -73.948974311937,
                                                     40.761975963095
                                                 ],
                                                 [
                                                     -73.948982041423,
                                                     40.761967415325
                                                 ],
                                                 [
                                                     -73.949018654177,
                                                     40.761986556451
                                                 ],
                                                 [
                                                     -73.949010924693,
                                                     40.761995104223
                                                 ],
                                                 [
                                                     -73.949031373247,
                                                     40.762005795059
                                                 ],
                                                 [
                                                     -73.949073565502,
                                                     40.76202785357
                                                 ],
                                                 [
                                                     -73.949081511895,
                                                     40.762019065454
                                                 ],
                                                 [
                                                     -73.949084215799,
                                                     40.762020478641
                                                 ],
                                                 [
                                                     -73.949116783408,
                                                     40.762037505364
                                                 ],
                                                 [
                                                     -73.949110857989,
                                                     40.762044059322
                                                 ],
                                                 [
                                                     -73.949141699566,
                                                     40.76206018387
                                                 ],
                                                 [
                                                     -73.94914398605,
                                                     40.762057655362
                                                 ],
                                                 [
                                                     -73.949147220789,
                                                     40.762054078184
                                                 ],
                                                 [
                                                     -73.949184516718,
                                                     40.762073577059
                                                 ],
                                                 [
                                                     -73.949178995498,
                                                     40.762079681847
                                                 ],
                                                 [
                                                     -73.9492277002,
                                                     40.76210514438
                                                 ],
                                                 [
                                                     -73.949241125046,
                                                     40.762112163426
                                                 ],
                                                 [
                                                     -73.949247999899,
                                                     40.762104559892
                                                 ],
                                                 [
                                                     -73.949319834708,
                                                     40.762142114644
                                                 ],
                                                 [
                                                     -73.949312771394,
                                                     40.762149925216
                                                 ],
                                                 [
                                                     -73.949359761982,
                                                     40.762174492738
                                                 ],
                                                 [
                                                     -73.949376293282,
                                                     40.762183134942
                                                 ],
                                                 [
                                                     -73.949383611436,
                                                     40.76217504172
                                                 ],
                                                 [
                                                     -73.949418854703,
                                                     40.762193466215
                                                 ],
                                                 [
                                                     -73.949406394643,
                                                     40.76220724567
                                                 ],
                                                 [
                                                     -73.949432911754,
                                                     40.762221108875
                                                 ],
                                                 [
                                                     -73.949401977317,
                                                     40.762255318074
                                                 ],
                                                 [
                                                     -73.94937541758,
                                                     40.762241432331
                                                 ],
                                                 [
                                                     -73.949335744921,
                                                     40.76228530549
                                                 ],
                                                 [
                                                     -73.949334879523,
                                                     40.762284853957
                                                 ],
                                                 [
                                                     -73.949297127648,
                                                     40.762265118097
                                                 ],
                                                 [
                                                     -73.949284411893,
                                                     40.762258469478
                                                 ],
                                                 [
                                                     -73.949259782092,
                                                     40.762285707004
                                                 ],
                                                 [
                                                     -73.949239829493,
                                                     40.76228765141
                                                 ],
                                                 [
                                                     -73.949235896698,
                                                     40.762285646054
                                                 ],
                                                 [
                                                     -73.949231814774,
                                                     40.762271084896
                                                 ],
                                                 [
                                                     -73.94925644458,
                                                     40.762243848276
                                                 ],
                                                 [
                                                     -73.949147422608,
                                                     40.762186851389
                                                 ],
                                                 [
                                                     -73.949141831441,
                                                     40.762193034488
                                                 ],
                                                 [
                                                     -73.949122472741,
                                                     40.762214441743
                                                 ],
                                                 [
                                                     -73.949102962483,
                                                     40.76221718867
                                                 ],
                                                 [
                                                     -73.94909884883,
                                                     40.762214743784
                                                 ],
                                                 [
                                                     -73.949094743436,
                                                     40.762199944877
                                                 ],
                                                 [
                                                     -73.949119692125,
                                                     40.762172353627
                                                 ],
                                                 [
                                                     -73.949018069431,
                                                     40.762119224851
                                                 ],
                                                 [
                                                     -73.948917885271,
                                                     40.762066847644
                                                 ],
                                                 [
                                                     -73.948815837899,
                                                     40.762013496976
                                                 ],
                                                 [
                                                     -73.948789846056,
                                                     40.762042240343
                                                 ],
                                                 [
                                                     -73.948771496689,
                                                     40.762044698668
                                                 ],
                                                 [
                                                     -73.948766769392,
                                                     40.762042501135
                                                 ],
                                                 [
                                                     -73.94876257149,
                                                     40.762027981331
                                                 ],
                                                 [
                                                     -73.948785903466,
                                                     40.762002179638
                                                 ],
                                                 [
                                                     -73.948691338174,
                                                     40.761952740375
                                                 ],
                                                 [
                                                     -73.948665006003,
                                                     40.761938973436
                                                 ],
                                                 [
                                                     -73.948633895873,
                                                     40.761973377761
                                                 ],
                                                 [
                                                     -73.948640962219,
                                                     40.761977072981
                                                 ],
                                                 [
                                                     -73.948614701245,
                                                     40.762006114255
                                                 ],
                                                 [
                                                     -73.948607254884,
                                                     40.762002220753
                                                 ],
                                                 [
                                                     -73.948549183139,
                                                     40.762066438643
                                                 ],
                                                 [
                                                     -73.948574396605,
                                                     40.762079620682
                                                 ],
                                                 [
                                                     -73.948585950907,
                                                     40.762085661021
                                                 ],
                                                 [
                                                     -73.948591613076,
                                                     40.762099556534
                                                 ],
                                                 [
                                                     -73.948587940825,
                                                     40.762103735939
                                                 ],
                                                 [
                                                     -73.94857484214,
                                                     40.762105399629
                                                 ],
                                                 [
                                                     -73.948568381038,
                                                     40.762106220707
                                                 ],
                                                 [
                                                     -73.948532069815,
                                                     40.76208777116
                                                 ],
                                                 [
                                                     -73.94848083485,
                                                     40.762146071249
                                                 ],
                                                 [
                                                     -73.94840912258,
                                                     40.762227672612
                                                 ],
                                                 [
                                                     -73.948384419512,
                                                     40.762255782509
                                                 ],
                                                 [
                                                     -73.948388604447,
                                                     40.762257908674
                                                 ],
                                                 [
                                                     -73.948363316974,
                                                     40.762286681976
                                                 ],
                                                 [
                                                     -73.948357360988,
                                                     40.762283655411
                                                 ],
                                                 [
                                                     -73.948284537726,
                                                     40.762366519606
                                                 ],
                                                 [
                                                     -73.94825454587,
                                                     40.762351281307
                                                 ]
                                             ]
                                         ]
                                     ]
                 }
}
