{
    "type":  "Feature",
    "id":  "1087292",
    "properties":  {
                       "bin":  "1087292",
                       "bbl":  "1013737502",
                       "address":  "425 MAIN STREET",
                       "building_use":  "Mixed Residential \u0026 Commercial Buildings",
                       "pluto_landuse_code":  "4",
                       "building_class":  "RM",
                       "pluto_year_built":  "2006",
                       "pluto_floors":  "16.0000000",
                       "residential_units":  "216",
                       "total_units":  "218",
                       "building_area_sqft":  "195990",
                       "lot_area_sqft":  "45544",
                       "construction_year":  "2006",
                       "height_roof":  "184",
                       "feature_code":  "2100",
                       "geometry_source":  "Other (Manual)",
                       "last_status_type":  "Constructed",
                       "retrieved_on":  "2026-09-29",
                       "source_footprint":  "NYC DoITT BUILDING (Socrata 5zhs-2jue)",
                       "source_taxlot":  "NYC DCP PLUTO 26v2 (Socrata 64uk-42ks)",
                       "source_boundary":  "OpenStreetMap relation 2389564 (Roosevelt Island)",
                       "source_attributes":  {
                                                 "building":  {
                                                                  "name":  null,
                                                                  "base_bbl":  "1013730005",
                                                                  "shape_area":  "2322.23046875",
                                                                  "construction_year":  "2006",
                                                                  "ground_elevation":  "20",
                                                                  "mappluto_bbl":  "1013737502",
                                                                  "objectid":  "1037199",
                                                                  "feature_code":  "2100",
                                                                  "shape_length":  "275.2370958442097",
                                                                  "height_roof":  "184",
                                                                  "last_status_type":  "Constructed",
                                                                  "bin":  "1087292",
                                                                  "last_edited_date":  "2017-08-22T18:12:56.000Z",
                                                                  "geom_source":  "Other (Manual)",
                                                                  "doitt_id":  "1097676"
                                                              },
                                                 "pluto":  {
                                                               "borough":  "MN",
                                                               "block":  "1373",
                                                               "lot":  "7502",
                                                               "cd":  "108",
                                                               "ct2010":  "238.01",
                                                               "cb2010":  "1008",
                                                               "schooldist":  "2",
                                                               "council":  "5",
                                                               "zipcode":  "10044",
                                                               "firecomp":  "E260",
                                                               "policeprct":  "114",
                                                               "healtharea":  "8300",
                                                               "sanitboro":  "1",
                                                               "address":  "425 MAIN STREET",
                                                               "zonedist1":  "R7-2",
                                                               "splitzone":  false,
                                                               "bldgclass":  "RM",
                                                               "landuse":  "4",
                                                               "easements":  "0",
                                                               "ownertype":  "X",
                                                               "ownername":  "UNAVAILABLE OWNER",
                                                               "lotarea":  "45544",
                                                               "bldgarea":  "195990",
                                                               "comarea":  "10042",
                                                               "resarea":  "185948",
                                                               "officearea":  "0",
                                                               "retailarea":  "10042",
                                                               "garagearea":  "0",
                                                               "strgearea":  "0",
                                                               "factryarea":  "0",
                                                               "otherarea":  "0",
                                                               "areasource":  "2",
                                                               "numbldgs":  "1",
                                                               "numfloors":  "16.0000000",
                                                               "unitsres":  "216",
                                                               "unitstotal":  "218",
                                                               "lotfront":  "315.0000000",
                                                               "lotdepth":  "128.0000000",
                                                               "bldgfront":  "205.0000000",
                                                               "bldgdepth":  "128.0000000",
                                                               "proxcode":  "0",
                                                               "irrlotcode":  true,
                                                               "lottype":  "0",
                                                               "bsmtcode":  "5",
                                                               "assessland":  "2042994.00000",
                                                               "assesstot":  "25063952.00000",
                                                               "exempttot":  "25063952.00000",
                                                               "yearbuilt":  "2006",
                                                               "yearalter1":  "0",
                                                               "yearalter2":  "0",
                                                               "builtfar":  "4.30000000000",
                                                               "residfar":  "3.44000000000",
                                                               "commfar":  "0.00000000000",
                                                               "facilfar":  "6.50000000000",
                                                               "affresfar":  "5.01000000000",
                                                               "mnffar":  "0.00000000000",
                                                               "borocode":  "1",
                                                               "bbl":  "1013737502.00000000",
                                                               "condono":  "1714",
                                                               "tract2010":  "23801",
                                                               "xcoord":  "997246",
                                                               "ycoord":  "215675",
                                                               "latitude":  "40.7586449",
                                                               "longitude":  "-73.9530893",
                                                               "zonemap":  "9b",
                                                               "sanborn":  "16E 070",
                                                               "taxmap":  "10507",
                                                               "appbbl":  "1013730005.00000000",
                                                               "appdate":  "2007-08-21T00:00:00.000",
                                                               "plutomapid":  "1",
                                                               "version":  "26v2",
                                                               "sanitdistrict":  "8",
                                                               "healthcenterdistrict":  "13",
                                                               "bct2020":  "1023804",
                                                               "bctcb2020":  "10238042001",
                                                               "transitzone":  "Inner Transit Zone"
                                                           }
                                             }
                   },
    "geometry":  {
                     "type":  "MultiPolygon",
                     "coordinates":  [
                                         [
                                             [
                                                 [
                                                     -73.952787966462,
                                                     40.758541267564
                                                 ],
                                                 [
                                                     -73.953039264745,
                                                     40.758295857443
                                                 ],
                                                 [
                                                     -73.953087727845,
                                                     40.758324551074
                                                 ],
                                                 [
                                                     -73.953128780644,
                                                     40.75834885801
                                                 ],
                                                 [
                                                     -73.9531929843,
                                                     40.758386871925
                                                 ],
                                                 [
                                                     -73.953192959413,
                                                     40.758386897129
                                                 ],
                                                 [
                                                     -73.953134445467,
                                                     40.75844403921
                                                 ],
                                                 [
                                                     -73.953119683954,
                                                     40.758435299204
                                                 ],
                                                 [
                                                     -73.953041502445,
                                                     40.758511649112
                                                 ],
                                                 [
                                                     -73.953192670304,
                                                     40.758601150603
                                                 ],
                                                 [
                                                     -73.953376302254,
                                                     40.758709873712
                                                 ],
                                                 [
                                                     -73.953424593827,
                                                     40.758662713981
                                                 ],
                                                 [
                                                     -73.953524955055,
                                                     40.75872213382
                                                 ],
                                                 [
                                                     -73.953487984475,
                                                     40.758758239061
                                                 ],
                                                 [
                                                     -73.953362086062,
                                                     40.758881188158
                                                 ],
                                                 [
                                                     -73.952787966462,
                                                     40.758541267564
                                                 ]
                                             ]
                                         ]
                                     ]
                 }
}
