{
    "type":  "Feature",
    "id":  "1084707",
    "properties":  {
                       "bin":  "1084707",
                       "bbl":  "1013730001",
                       "address":  "MAIN STREET",
                       "building_use":  "Multi-Family Elevator Buildings",
                       "pluto_landuse_code":  "3",
                       "building_class":  "D4",
                       "pluto_year_built":  "1975",
                       "pluto_floors":  "18.0000000",
                       "residential_units":  "8018",
                       "total_units":  "8088",
                       "building_area_sqft":  "4786701",
                       "lot_area_sqft":  "4227757",
                       "construction_year":  "1975",
                       "height_roof":  "180.94994742",
                       "feature_code":  "2100",
                       "geometry_source":  "Photogrammetric",
                       "last_status_type":  "Constructed",
                       "retrieved_on":  "2026-09-29",
                       "source_footprint":  "NYC DoITT BUILDING (Socrata 5zhs-2jue)",
                       "source_taxlot":  "NYC DCP PLUTO 26v2 (Socrata 64uk-42ks)",
                       "source_boundary":  "OpenStreetMap relation 2389564 (Roosevelt Island)",
                       "source_attributes":  {
                                                 "building":  {
                                                                  "name":  null,
                                                                  "base_bbl":  "1013730001",
                                                                  "shape_area":  "4203.46875",
                                                                  "construction_year":  "1975",
                                                                  "ground_elevation":  "18",
                                                                  "mappluto_bbl":  "1013730001",
                                                                  "objectid":  "881200",
                                                                  "feature_code":  "2100",
                                                                  "shape_length":  "488.61755148985912",
                                                                  "height_roof":  "180.94994742",
                                                                  "last_status_type":  "Constructed",
                                                                  "bin":  "1084707",
                                                                  "last_edited_date":  "2017-08-22T17:28:13.000Z",
                                                                  "geom_source":  "Photogrammetric",
                                                                  "doitt_id":  "1257226"
                                                              },
                                                 "pluto":  {
                                                               "borough":  "MN",
                                                               "block":  "1373",
                                                               "lot":  "1",
                                                               "cd":  "108",
                                                               "ct2010":  "238.01",
                                                               "cb2010":  "1015",
                                                               "schooldist":  "2",
                                                               "council":  "5",
                                                               "zipcode":  "10044",
                                                               "firecomp":  "E260",
                                                               "policeprct":  "114",
                                                               "healtharea":  "8300",
                                                               "sanitboro":  "1",
                                                               "address":  "MAIN STREET",
                                                               "zonedist1":  "R7-2",
                                                               "splitzone":  false,
                                                               "bldgclass":  "D4",
                                                               "landuse":  "3",
                                                               "easements":  "1",
                                                               "ownertype":  "C",
                                                               "ownername":  "RIVERWALK 8 AFFORDABLE, L.P.",
                                                               "lotarea":  "4227757",
                                                               "bldgarea":  "4786701",
                                                               "comarea":  "1046956",
                                                               "resarea":  "3739745",
                                                               "officearea":  "7496",
                                                               "retailarea":  "537154",
                                                               "garagearea":  "406500",
                                                               "strgearea":  "0",
                                                               "factryarea":  "0",
                                                               "otherarea":  "95806",
                                                               "areasource":  "2",
                                                               "numbldgs":  "38",
                                                               "numfloors":  "18.0000000",
                                                               "unitsres":  "8018",
                                                               "unitstotal":  "8088",
                                                               "lotfront":  "200.0000000",
                                                               "lotdepth":  "102.5000000",
                                                               "bldgfront":  "0.0000000",
                                                               "bldgdepth":  "0.0000000",
                                                               "ext":  "N",
                                                               "proxcode":  "0",
                                                               "irrlotcode":  true,
                                                               "lottype":  "7",
                                                               "bsmtcode":  "0",
                                                               "assessland":  "134391150.00000",
                                                               "assesstot":  "592936650.00000",
                                                               "exempttot":  "592936650.00000",
                                                               "yearbuilt":  "1975",
                                                               "yearalter1":  "0",
                                                               "yearalter2":  "0",
                                                               "landmark":  "INDIVIDUAL LANDMARK",
                                                               "builtfar":  "1.13000000000",
                                                               "residfar":  "3.44000000000",
                                                               "commfar":  "0.00000000000",
                                                               "facilfar":  "6.50000000000",
                                                               "affresfar":  "5.01000000000",
                                                               "mnffar":  "0.00000000000",
                                                               "borocode":  "1",
                                                               "bbl":  "1013730001.00000000",
                                                               "tract2010":  "23801",
                                                               "xcoord":  "996792",
                                                               "ycoord":  "215349",
                                                               "latitude":  "40.7577508",
                                                               "longitude":  "-73.9547287",
                                                               "zonemap":  "9a",
                                                               "zmcode":  true,
                                                               "sanborn":  "106E070",
                                                               "taxmap":  "10507",
                                                               "appbbl":  "1013730001.00000000",
                                                               "appdate":  "2023-12-06T00:00:00.000",
                                                               "plutomapid":  "1",
                                                               "version":  "26v2",
                                                               "sanitdistrict":  "8",
                                                               "healthcenterdistrict":  "13",
                                                               "firm07_flag":  "1",
                                                               "pfirm15_flag":  "1",
                                                               "bct2020":  "1023804",
                                                               "bctcb2020":  "10238041000",
                                                               "transitzone":  "Inner Transit Zone"
                                                           }
                                             }
                   },
    "geometry":  {
                     "type":  "MultiPolygon",
                     "coordinates":  [
                                         [
                                             [
                                                 [
                                                     -73.94881018104,
                                                     40.763407318048
                                                 ],
                                                 [
                                                     -73.948720961185,
                                                     40.763337694586
                                                 ],
                                                 [
                                                     -73.948751488491,
                                                     40.763316540008
                                                 ],
                                                 [
                                                     -73.948742582035,
                                                     40.763309109585
                                                 ],
                                                 [
                                                     -73.948776578922,
                                                     40.763285550396
                                                 ],
                                                 [
                                                     -73.948783700537,
                                                     40.763291491489
                                                 ],
                                                 [
                                                     -73.948816572862,
                                                     40.763268711626
                                                 ],
                                                 [
                                                     -73.948814577342,
                                                     40.763267046607
                                                 ],
                                                 [
                                                     -73.948807421403,
                                                     40.763261077584
                                                 ],
                                                 [
                                                     -73.948839178647,
                                                     40.763239070752
                                                 ],
                                                 [
                                                     -73.948844746218,
                                                     40.763243715325
                                                 ],
                                                 [
                                                     -73.948908547407,
                                                     40.763199502747
                                                 ],
                                                 [
                                                     -73.948902113453,
                                                     40.763194134687
                                                 ],
                                                 [
                                                     -73.948933387165,
                                                     40.763172463503
                                                 ],
                                                 [
                                                     -73.948939644766,
                                                     40.7631776847
                                                 ],
                                                 [
                                                     -73.948972143716,
                                                     40.763155163971
                                                 ],
                                                 [
                                                     -73.94896625776,
                                                     40.763150253614
                                                 ],
                                                 [
                                                     -73.94899831825,
                                                     40.763128036154
                                                 ],
                                                 [
                                                     -73.949004133191,
                                                     40.763132887945
                                                 ],
                                                 [
                                                     -73.949037186662,
                                                     40.763109982928
                                                 ],
                                                 [
                                                     -73.949029260208,
                                                     40.763103370619
                                                 ],
                                                 [
                                                     -73.949059959129,
                                                     40.763082097168
                                                 ],
                                                 [
                                                     -73.949066509076,
                                                     40.763087562525
                                                 ],
                                                 [
                                                     -73.949098200978,
                                                     40.763065600617
                                                 ],
                                                 [
                                                     -73.949093257152,
                                                     40.763061476823
                                                 ],
                                                 [
                                                     -73.949126247754,
                                                     40.763038614076
                                                 ],
                                                 [
                                                     -73.94913103298,
                                                     40.763042607225
                                                 ],
                                                 [
                                                     -73.949163096918,
                                                     40.763020387919
                                                 ],
                                                 [
                                                     -73.949155675852,
                                                     40.763014197278
                                                 ],
                                                 [
                                                     -73.949189856111,
                                                     40.762990511976
                                                 ],
                                                 [
                                                     -73.94919499878,
                                                     40.762994801546
                                                 ],
                                                 [
                                                     -73.949262414813,
                                                     40.76294808336
                                                 ],
                                                 [
                                                     -73.949255493219,
                                                     40.762942308077
                                                 ],
                                                 [
                                                     -73.949296736953,
                                                     40.762913727109
                                                 ],
                                                 [
                                                     -73.949305152231,
                                                     40.762920747544
                                                 ],
                                                 [
                                                     -73.949365999887,
                                                     40.762878582059
                                                 ],
                                                 [
                                                     -73.949426360331,
                                                     40.762928937773
                                                 ],
                                                 [
                                                     -73.949437288018,
                                                     40.762921365723
                                                 ],
                                                 [
                                                     -73.949471142126,
                                                     40.762949609594
                                                 ],
                                                 [
                                                     -73.949462168435,
                                                     40.762955828145
                                                 ],
                                                 [
                                                     -73.949515646456,
                                                     40.763000443677
                                                 ],
                                                 [
                                                     -73.94952656348,
                                                     40.762992878819
                                                 ],
                                                 [
                                                     -73.949556383993,
                                                     40.763017755711
                                                 ],
                                                 [
                                                     -73.949562103095,
                                                     40.763022527287
                                                 ],
                                                 [
                                                     -73.949554099883,
                                                     40.763028073593
                                                 ],
                                                 [
                                                     -73.949607071447,
                                                     40.763072266524
                                                 ],
                                                 [
                                                     -73.949615654104,
                                                     40.763066318843
                                                 ],
                                                 [
                                                     -73.949648940238,
                                                     40.763094087847
                                                 ],
                                                 [
                                                     -73.949640452378,
                                                     40.763099969835
                                                 ],
                                                 [
                                                     -73.949659327118,
                                                     40.763115716202
                                                 ],
                                                 [
                                                     -73.949693702201,
                                                     40.763144393377
                                                 ],
                                                 [
                                                     -73.949703617939,
                                                     40.763137521453
                                                 ],
                                                 [
                                                     -73.949739345853,
                                                     40.763167390572
                                                 ],
                                                 [
                                                     -73.949733280047,
                                                     40.763171594182
                                                 ],
                                                 [
                                                     -73.949777348837,
                                                     40.76320835939
                                                 ],
                                                 [
                                                     -73.94978654656,
                                                     40.763216032096
                                                 ],
                                                 [
                                                     -73.949793444208,
                                                     40.763211251622
                                                 ],
                                                 [
                                                     -73.949795611371,
                                                     40.763213060779
                                                 ],
                                                 [
                                                     -73.949826730489,
                                                     40.763239020573
                                                 ],
                                                 [
                                                     -73.949817990228,
                                                     40.763245078063
                                                 ],
                                                 [
                                                     -73.949871237919,
                                                     40.763289499719
                                                 ],
                                                 [
                                                     -73.949882223677,
                                                     40.763281887131
                                                 ],
                                                 [
                                                     -73.949916074608,
                                                     40.763310126365
                                                 ],
                                                 [
                                                     -73.949917258208,
                                                     40.763311113832
                                                 ],
                                                 [
                                                     -73.949914180868,
                                                     40.76331324669
                                                 ],
                                                 [
                                                     -73.949907609083,
                                                     40.763317800386
                                                 ],
                                                 [
                                                     -73.949910136067,
                                                     40.763319908666
                                                 ],
                                                 [
                                                     -73.949914394659,
                                                     40.763323461206
                                                 ],
                                                 [
                                                     -73.949961318495,
                                                     40.763362607617
                                                 ],
                                                 [
                                                     -73.949971173805,
                                                     40.763355777068
                                                 ],
                                                 [
                                                     -73.950002941671,
                                                     40.763382279199
                                                 ],
                                                 [
                                                     -73.949994592446,
                                                     40.763388064019
                                                 ],
                                                 [
                                                     -73.950021869747,
                                                     40.763410819897
                                                 ],
                                                 [
                                                     -73.95003999071,
                                                     40.763425937322
                                                 ],
                                                 [
                                                     -73.950047635605,
                                                     40.763432315308
                                                 ],
                                                 [
                                                     -73.950048625098,
                                                     40.7634331406
                                                 ],
                                                 [
                                                     -73.950058752949,
                                                     40.763426121955
                                                 ],
                                                 [
                                                     -73.950062143973,
                                                     40.76342895191
                                                 ],
                                                 [
                                                     -73.950094293032,
                                                     40.763455770258
                                                 ],
                                                 [
                                                     -73.950027672178,
                                                     40.763501937263
                                                 ],
                                                 [
                                                     -73.950023597095,
                                                     40.763504761279
                                                 ],
                                                 [
                                                     -73.950036848733,
                                                     40.763515817117
                                                 ],
                                                 [
                                                     -73.950004519417,
                                                     40.763538220253
                                                 ],
                                                 [
                                                     -73.950001500132,
                                                     40.763540312615
                                                 ],
                                                 [
                                                     -73.9499898724,
                                                     40.763530612737
                                                 ],
                                                 [
                                                     -73.949984722553,
                                                     40.763534181903
                                                 ],
                                                 [
                                                     -73.949960483524,
                                                     40.763513961355
                                                 ],
                                                 [
                                                     -73.9499519817,
                                                     40.76350686799
                                                 ],
                                                 [
                                                     -73.949938450747,
                                                     40.76349557969
                                                 ],
                                                 [
                                                     -73.949919895406,
                                                     40.763480100058
                                                 ],
                                                 [
                                                     -73.949897276768,
                                                     40.763461230958
                                                 ],
                                                 [
                                                     -73.949817918592,
                                                     40.763516224451
                                                 ],
                                                 [
                                                     -73.949797157041,
                                                     40.763498904107
                                                 ],
                                                 [
                                                     -73.949718951862,
                                                     40.763433661769
                                                 ],
                                                 [
                                                     -73.949606346805,
                                                     40.763339719665
                                                 ],
                                                 [
                                                     -73.949346985206,
                                                     40.763123346158
                                                 ],
                                                 [
                                                     -73.949291076113,
                                                     40.763076702442
                                                 ],
                                                 [
                                                     -73.94926049695,
                                                     40.76309789316
                                                 ],
                                                 [
                                                     -73.949264405152,
                                                     40.763101152907
                                                 ],
                                                 [
                                                     -73.949230245006,
                                                     40.763124825632
                                                 ],
                                                 [
                                                     -73.949220411774,
                                                     40.763116622204
                                                 ],
                                                 [
                                                     -73.949211947572,
                                                     40.763122487962
                                                 ],
                                                 [
                                                     -73.949189325406,
                                                     40.763138162976
                                                 ],
                                                 [
                                                     -73.949198430732,
                                                     40.763145759146
                                                 ],
                                                 [
                                                     -73.949164937676,
                                                     40.763168968386
                                                 ],
                                                 [
                                                     -73.949156656127,
                                                     40.763162059662
                                                 ],
                                                 [
                                                     -73.949125015152,
                                                     40.763183985588
                                                 ],
                                                 [
                                                     -73.949133661246,
                                                     40.763191197945
                                                 ],
                                                 [
                                                     -73.949102658947,
                                                     40.763212681098
                                                 ],
                                                 [
                                                     -73.949094424743,
                                                     40.763205811113
                                                 ],
                                                 [
                                                     -73.949061439972,
                                                     40.76322866845
                                                 ],
                                                 [
                                                     -73.949070544111,
                                                     40.763236263728
                                                 ],
                                                 [
                                                     -73.949002131092,
                                                     40.763283672046
                                                 ],
                                                 [
                                                     -73.948942842258,
                                                     40.763324757423
                                                 ],
                                                 [
                                                     -73.948936297031,
                                                     40.763319297464
                                                 ],
                                                 [
                                                     -73.948904473423,
                                                     40.763341350219
                                                 ],
                                                 [
                                                     -73.948912905284,
                                                     40.763348384198
                                                 ],
                                                 [
                                                     -73.94888016804,
                                                     40.763371069595
                                                 ],
                                                 [
                                                     -73.948872146884,
                                                     40.763364377989
                                                 ],
                                                 [
                                                     -73.94881018104,
                                                     40.763407318048
                                                 ]
                                             ]
                                         ]
                                     ]
                 }
}
