{
    "type":  "Feature",
    "id":  "1083203",
    "properties":  {
                       "bin":  "1083203",
                       "bbl":  "1013730001",
                       "address":  "MAIN STREET",
                       "building_use":  "Multi-Family Elevator Buildings",
                       "pluto_landuse_code":  "3",
                       "building_class":  "D4",
                       "pluto_year_built":  "1975",
                       "pluto_floors":  "18.0000000",
                       "residential_units":  "8018",
                       "total_units":  "8088",
                       "building_area_sqft":  "4786701",
                       "lot_area_sqft":  "4227757",
                       "construction_year":  "1975",
                       "height_roof":  "14.27",
                       "feature_code":  "2100",
                       "geometry_source":  "Photogrammetric",
                       "last_status_type":  "Constructed",
                       "retrieved_on":  "2026-09-29",
                       "source_footprint":  "NYC DoITT BUILDING (Socrata 5zhs-2jue)",
                       "source_taxlot":  "NYC DCP PLUTO 26v2 (Socrata 64uk-42ks)",
                       "source_boundary":  "OpenStreetMap relation 2389564 (Roosevelt Island)",
                       "source_attributes":  {
                                                 "building":  {
                                                                  "name":  null,
                                                                  "base_bbl":  "1013730001",
                                                                  "shape_area":  "1196.13671875",
                                                                  "construction_year":  "1975",
                                                                  "ground_elevation":  "13",
                                                                  "mappluto_bbl":  "1013730001",
                                                                  "objectid":  "835390",
                                                                  "feature_code":  "2100",
                                                                  "shape_length":  "229.63674812371997",
                                                                  "height_roof":  "14.27",
                                                                  "last_status_type":  "Constructed",
                                                                  "bin":  "1083203",
                                                                  "last_edited_date":  "2017-08-22T17:54:11.000Z",
                                                                  "geom_source":  "Photogrammetric",
                                                                  "doitt_id":  "431272"
                                                              },
                                                 "pluto":  {
                                                               "borough":  "MN",
                                                               "block":  "1373",
                                                               "lot":  "1",
                                                               "cd":  "108",
                                                               "ct2010":  "238.01",
                                                               "cb2010":  "1015",
                                                               "schooldist":  "2",
                                                               "council":  "5",
                                                               "zipcode":  "10044",
                                                               "firecomp":  "E260",
                                                               "policeprct":  "114",
                                                               "healtharea":  "8300",
                                                               "sanitboro":  "1",
                                                               "address":  "MAIN STREET",
                                                               "zonedist1":  "R7-2",
                                                               "splitzone":  false,
                                                               "bldgclass":  "D4",
                                                               "landuse":  "3",
                                                               "easements":  "1",
                                                               "ownertype":  "C",
                                                               "ownername":  "RIVERWALK 8 AFFORDABLE, L.P.",
                                                               "lotarea":  "4227757",
                                                               "bldgarea":  "4786701",
                                                               "comarea":  "1046956",
                                                               "resarea":  "3739745",
                                                               "officearea":  "7496",
                                                               "retailarea":  "537154",
                                                               "garagearea":  "406500",
                                                               "strgearea":  "0",
                                                               "factryarea":  "0",
                                                               "otherarea":  "95806",
                                                               "areasource":  "2",
                                                               "numbldgs":  "38",
                                                               "numfloors":  "18.0000000",
                                                               "unitsres":  "8018",
                                                               "unitstotal":  "8088",
                                                               "lotfront":  "200.0000000",
                                                               "lotdepth":  "102.5000000",
                                                               "bldgfront":  "0.0000000",
                                                               "bldgdepth":  "0.0000000",
                                                               "ext":  "N",
                                                               "proxcode":  "0",
                                                               "irrlotcode":  true,
                                                               "lottype":  "7",
                                                               "bsmtcode":  "0",
                                                               "assessland":  "134391150.00000",
                                                               "assesstot":  "592936650.00000",
                                                               "exempttot":  "592936650.00000",
                                                               "yearbuilt":  "1975",
                                                               "yearalter1":  "0",
                                                               "yearalter2":  "0",
                                                               "landmark":  "INDIVIDUAL LANDMARK",
                                                               "builtfar":  "1.13000000000",
                                                               "residfar":  "3.44000000000",
                                                               "commfar":  "0.00000000000",
                                                               "facilfar":  "6.50000000000",
                                                               "affresfar":  "5.01000000000",
                                                               "mnffar":  "0.00000000000",
                                                               "borocode":  "1",
                                                               "bbl":  "1013730001.00000000",
                                                               "tract2010":  "23801",
                                                               "xcoord":  "996792",
                                                               "ycoord":  "215349",
                                                               "latitude":  "40.7577508",
                                                               "longitude":  "-73.9547287",
                                                               "zonemap":  "9a",
                                                               "zmcode":  true,
                                                               "sanborn":  "106E070",
                                                               "taxmap":  "10507",
                                                               "appbbl":  "1013730001.00000000",
                                                               "appdate":  "2023-12-06T00:00:00.000",
                                                               "plutomapid":  "1",
                                                               "version":  "26v2",
                                                               "sanitdistrict":  "8",
                                                               "healthcenterdistrict":  "13",
                                                               "firm07_flag":  "1",
                                                               "pfirm15_flag":  "1",
                                                               "bct2020":  "1023804",
                                                               "bctcb2020":  "10238041000",
                                                               "transitzone":  "Inner Transit Zone"
                                                           }
                                             }
                   },
    "geometry":  {
                     "type":  "MultiPolygon",
                     "coordinates":  [
                                         [
                                             [
                                                 [
                                                     -73.949914394659,
                                                     40.763323461206
                                                 ],
                                                 [
                                                     -73.950014489537,
                                                     40.763212721904
                                                 ],
                                                 [
                                                     -73.949972531543,
                                                     40.763191144714
                                                 ],
                                                 [
                                                     -73.94988912944,
                                                     40.763148254357
                                                 ],
                                                 [
                                                     -73.949795611371,
                                                     40.763213060779
                                                 ],
                                                 [
                                                     -73.949793444208,
                                                     40.763211251622
                                                 ],
                                                 [
                                                     -73.94978654656,
                                                     40.763216032096
                                                 ],
                                                 [
                                                     -73.949777348837,
                                                     40.76320835939
                                                 ],
                                                 [
                                                     -73.949733280047,
                                                     40.763171594182
                                                 ],
                                                 [
                                                     -73.949739345853,
                                                     40.763167390572
                                                 ],
                                                 [
                                                     -73.949787909003,
                                                     40.763133737378
                                                 ],
                                                 [
                                                     -73.949819604244,
                                                     40.763111773473
                                                 ],
                                                 [
                                                     -73.949791090278,
                                                     40.763087986829
                                                 ],
                                                 [
                                                     -73.949768317943,
                                                     40.763068988863
                                                 ],
                                                 [
                                                     -73.949794466706,
                                                     40.763039436695
                                                 ],
                                                 [
                                                     -73.949837050263,
                                                     40.762991308865
                                                 ],
                                                 [
                                                     -73.949881385373,
                                                     40.763014031682
                                                 ],
                                                 [
                                                     -73.949870145952,
                                                     40.763026709498
                                                 ],
                                                 [
                                                     -73.949890229299,
                                                     40.763037002898
                                                 ],
                                                 [
                                                     -73.949901468719,
                                                     40.763024324179
                                                 ],
                                                 [
                                                     -73.949944453065,
                                                     40.763046354796
                                                 ],
                                                 [
                                                     -73.94993321365,
                                                     40.763059032619
                                                 ],
                                                 [
                                                     -73.949954033391,
                                                     40.763069703638
                                                 ],
                                                 [
                                                     -73.949965272804,
                                                     40.763057025813
                                                 ],
                                                 [
                                                     -73.950008273766,
                                                     40.763079065419
                                                 ],
                                                 [
                                                     -73.949997034357,
                                                     40.763091743248
                                                 ],
                                                 [
                                                     -73.950003331429,
                                                     40.763094970688
                                                 ],
                                                 [
                                                     -73.950016349404,
                                                     40.763101642771
                                                 ],
                                                 [
                                                     -73.950027588811,
                                                     40.76308896404
                                                 ],
                                                 [
                                                     -73.950054166984,
                                                     40.763102586691
                                                 ],
                                                 [
                                                     -73.950069693615,
                                                     40.763110543976
                                                 ],
                                                 [
                                                     -73.950058454213,
                                                     40.763123221811
                                                 ],
                                                 [
                                                     -73.950083907716,
                                                     40.763136267645
                                                 ],
                                                 [
                                                     -73.950095147115,
                                                     40.763123589808
                                                 ],
                                                 [
                                                     -73.950211607072,
                                                     40.76318327791
                                                 ],
                                                 [
                                                     -73.950181073906,
                                                     40.763217718916
                                                 ],
                                                 [
                                                     -73.950167530246,
                                                     40.763210778273
                                                 ],
                                                 [
                                                     -73.95013883551,
                                                     40.763243146202
                                                 ],
                                                 [
                                                     -73.950152379173,
                                                     40.763250086848
                                                 ],
                                                 [
                                                     -73.950124239153,
                                                     40.763281829161
                                                 ],
                                                 [
                                                     -73.950110695486,
                                                     40.763274887612
                                                 ],
                                                 [
                                                     -73.950096010271,
                                                     40.763291452336
                                                 ],
                                                 [
                                                     -73.950109552755,
                                                     40.763298393888
                                                 ],
                                                 [
                                                     -73.950080995453,
                                                     40.763330606974
                                                 ],
                                                 [
                                                     -73.950067451781,
                                                     40.763323665419
                                                 ],
                                                 [
                                                     -73.950054194884,
                                                     40.763338620655
                                                 ],
                                                 [
                                                     -73.950067737374,
                                                     40.76334556131
                                                 ],
                                                 [
                                                     -73.950036963434,
                                                     40.763380274126
                                                 ],
                                                 [
                                                     -73.950019092646,
                                                     40.763371115448
                                                 ],
                                                 [
                                                     -73.950002941671,
                                                     40.763382279199
                                                 ],
                                                 [
                                                     -73.949971173805,
                                                     40.763355777068
                                                 ],
                                                 [
                                                     -73.949961318495,
                                                     40.763362607617
                                                 ],
                                                 [
                                                     -73.949914394659,
                                                     40.763323461206
                                                 ]
                                             ]
                                         ]
                                     ]
                 }
}
