{
    "type":  "Feature",
    "id":  "1040750",
    "properties":  {
                       "bin":  "1040750",
                       "bbl":  "1013730050",
                       "address":  "900 MAIN STREET",
                       "building_use":  "Public Facilities \u0026 Institutions",
                       "pluto_landuse_code":  "8",
                       "building_class":  "I1",
                       "pluto_year_built":  "1900",
                       "pluto_floors":  "8.0000000",
                       "residential_units":  "0",
                       "total_units":  "1",
                       "building_area_sqft":  "661538",
                       "lot_area_sqft":  "490397",
                       "construction_year":  "1900",
                       "height_roof":  "113.7",
                       "feature_code":  "2100",
                       "geometry_source":  "Photogrammetric",
                       "last_status_type":  "Constructed",
                       "retrieved_on":  "2026-09-29",
                       "source_footprint":  "NYC DoITT BUILDING (Socrata 5zhs-2jue)",
                       "source_taxlot":  "NYC DCP PLUTO 26v2 (Socrata 64uk-42ks)",
                       "source_boundary":  "OpenStreetMap relation 2389564 (Roosevelt Island)",
                       "source_attributes":  {
                                                 "building":  {
                                                                  "name":  null,
                                                                  "base_bbl":  "1013730050",
                                                                  "shape_area":  "29387.703125",
                                                                  "construction_year":  "1900",
                                                                  "ground_elevation":  "10",
                                                                  "mappluto_bbl":  "1013730050",
                                                                  "objectid":  "75680",
                                                                  "feature_code":  "2100",
                                                                  "shape_length":  "2671.2386597597151",
                                                                  "height_roof":  "113.7",
                                                                  "last_status_type":  "Constructed",
                                                                  "bin":  "1040750",
                                                                  "last_edited_date":  "2017-08-22T19:42:14.000Z",
                                                                  "geom_source":  "Photogrammetric",
                                                                  "doitt_id":  "990365"
                                                              },
                                                 "pluto":  {
                                                               "borough":  "MN",
                                                               "block":  "1373",
                                                               "lot":  "50",
                                                               "cd":  "108",
                                                               "ct2010":  "238.02",
                                                               "cb2010":  "1000",
                                                               "schooldist":  "2",
                                                               "council":  "5",
                                                               "zipcode":  "10044",
                                                               "firecomp":  "E260",
                                                               "policeprct":  "114",
                                                               "healtharea":  "8300",
                                                               "sanitboro":  "1",
                                                               "address":  "900 MAIN STREET",
                                                               "zonedist1":  "R7-2",
                                                               "splitzone":  false,
                                                               "bldgclass":  "I1",
                                                               "landuse":  "8",
                                                               "easements":  "0",
                                                               "ownertype":  "C",
                                                               "ownername":  "NYC HEALTH AND HOSPITALS CORPORATION",
                                                               "lotarea":  "490397",
                                                               "bldgarea":  "661538",
                                                               "comarea":  "661538",
                                                               "resarea":  "0",
                                                               "officearea":  "0",
                                                               "retailarea":  "0",
                                                               "garagearea":  "0",
                                                               "strgearea":  "0",
                                                               "factryarea":  "0",
                                                               "otherarea":  "661538",
                                                               "areasource":  "2",
                                                               "numbldgs":  "4",
                                                               "numfloors":  "8.0000000",
                                                               "unitsres":  "0",
                                                               "unitstotal":  "1",
                                                               "lotfront":  "465.5800000",
                                                               "lotdepth":  "1053.2500000",
                                                               "bldgfront":  "200.0000000",
                                                               "bldgdepth":  "400.0000000",
                                                               "ext":  "N",
                                                               "proxcode":  "0",
                                                               "irrlotcode":  false,
                                                               "lottype":  "5",
                                                               "bsmtcode":  "0",
                                                               "assessland":  "39784050.00000",
                                                               "assesstot":  "116261550.00000",
                                                               "exempttot":  "116261550.00000",
                                                               "yearbuilt":  "1900",
                                                               "yearalter1":  "0",
                                                               "yearalter2":  "0",
                                                               "builtfar":  "1.35000000000",
                                                               "residfar":  "3.44000000000",
                                                               "commfar":  "0.00000000000",
                                                               "facilfar":  "6.50000000000",
                                                               "affresfar":  "5.01000000000",
                                                               "mnffar":  "0.00000000000",
                                                               "borocode":  "1",
                                                               "bbl":  "1013730050.00000000",
                                                               "tract2010":  "23802",
                                                               "xcoord":  "1000315",
                                                               "ycoord":  "219954",
                                                               "latitude":  "40.7703846",
                                                               "longitude":  "-73.9420011",
                                                               "zonemap":  "9a",
                                                               "sanborn":  "106E070",
                                                               "taxmap":  "10507",
                                                               "plutomapid":  "1",
                                                               "version":  "26v2",
                                                               "sanitdistrict":  "8",
                                                               "healthcenterdistrict":  "13",
                                                               "firm07_flag":  "1",
                                                               "pfirm15_flag":  "1",
                                                               "dcpedited":  "t",
                                                               "bct2020":  "1023802",
                                                               "bctcb2020":  "10238023000",
                                                               "transitzone":  "Inner Transit Zone"
                                                           }
                                             }
                   },
    "geometry":  {
                     "type":  "MultiPolygon",
                     "coordinates":  [
                                         [
                                             [
                                                 [
                                                     -73.941598286442,
                                                     40.771781303146
                                                 ],
                                                 [
                                                     -73.941708732407,
                                                     40.771646965231
                                                 ],
                                                 [
                                                     -73.941652303947,
                                                     40.771460995306
                                                 ],
                                                 [
                                                     -73.941641598597,
                                                     40.771424448353
                                                 ],
                                                 [
                                                     -73.941209316919,
                                                     40.771220324891
                                                 ],
                                                 [
                                                     -73.940916235352,
                                                     40.771270042167
                                                 ],
                                                 [
                                                     -73.940879573655,
                                                     40.771314916165
                                                 ],
                                                 [
                                                     -73.940843859341,
                                                     40.77135863079
                                                 ],
                                                 [
                                                     -73.940763073481,
                                                     40.771320483579
                                                 ],
                                                 [
                                                     -73.940782190545,
                                                     40.771297085717
                                                 ],
                                                 [
                                                     -73.940786127317,
                                                     40.771292266444
                                                 ],
                                                 [
                                                     -73.940768159134,
                                                     40.77128378167
                                                 ],
                                                 [
                                                     -73.940752635994,
                                                     40.771243045715
                                                 ],
                                                 [
                                                     -73.940765366465,
                                                     40.771227462742
                                                 ],
                                                 [
                                                     -73.940599476079,
                                                     40.771149127187
                                                 ],
                                                 [
                                                     -73.940648018144,
                                                     40.771089712662
                                                 ],
                                                 [
                                                     -73.940848109035,
                                                     40.771184197331
                                                 ],
                                                 [
                                                     -73.940874686897,
                                                     40.771151664972
                                                 ],
                                                 [
                                                     -73.940955866882,
                                                     40.771189998712
                                                 ],
                                                 [
                                                     -73.941134145145,
                                                     40.771159756465
                                                 ],
                                                 [
                                                     -73.941125751134,
                                                     40.771131154885
                                                 ],
                                                 [
                                                     -73.941182880003,
                                                     40.771061229342
                                                 ],
                                                 [
                                                     -73.941218249618,
                                                     40.771054675515
                                                 ],
                                                 [
                                                     -73.941175512886,
                                                     40.770921369271
                                                 ],
                                                 [
                                                     -73.941094284559,
                                                     40.770883012247
                                                 ],
                                                 [
                                                     -73.941120154282,
                                                     40.770851346653
                                                 ],
                                                 [
                                                     -73.940915435834,
                                                     40.770754676358
                                                 ],
                                                 [
                                                     -73.940964124364,
                                                     40.770695081671
                                                 ],
                                                 [
                                                     -73.941132039838,
                                                     40.770774373176
                                                 ],
                                                 [
                                                     -73.941146234539,
                                                     40.770756998906
                                                 ],
                                                 [
                                                     -73.941133033139,
                                                     40.770718626206
                                                 ],
                                                 [
                                                     -73.941131434652,
                                                     40.770713981493
                                                 ],
                                                 [
                                                     -73.941079406669,
                                                     40.770689856523
                                                 ],
                                                 [
                                                     -73.941065048044,
                                                     40.77064484471
                                                 ],
                                                 [
                                                     -73.941096767645,
                                                     40.770605313512
                                                 ],
                                                 [
                                                     -73.941155986643,
                                                     40.77059441976
                                                 ],
                                                 [
                                                     -73.941208013394,
                                                     40.770618544695
                                                 ],
                                                 [
                                                     -73.94122237211,
                                                     40.77066355649
                                                 ],
                                                 [
                                                     -73.941197289251,
                                                     40.770693595299
                                                 ],
                                                 [
                                                     -73.94118761016,
                                                     40.770705186144
                                                 ],
                                                 [
                                                     -73.941199004362,
                                                     40.770744581788
                                                 ],
                                                 [
                                                     -73.941225109955,
                                                     40.770756909494
                                                 ],
                                                 [
                                                     -73.941326675636,
                                                     40.770632590001
                                                 ],
                                                 [
                                                     -73.941402734532,
                                                     40.770668504769
                                                 ],
                                                 [
                                                     -73.941250232445,
                                                     40.77085516905
                                                 ],
                                                 [
                                                     -73.941321336575,
                                                     40.77107695969
                                                 ],
                                                 [
                                                     -73.941469526053,
                                                     40.771129118385
                                                 ],
                                                 [
                                                     -73.941740582732,
                                                     40.770797339139
                                                 ],
                                                 [
                                                     -73.941697519988,
                                                     40.770777004698
                                                 ],
                                                 [
                                                     -73.941704604815,
                                                     40.770768332831
                                                 ],
                                                 [
                                                     -73.941680346146,
                                                     40.770756877856
                                                 ],
                                                 [
                                                     -73.941789315927,
                                                     40.770623495433
                                                 ],
                                                 [
                                                     -73.941678522401,
                                                     40.770571177779
                                                 ],
                                                 [
                                                     -73.941665319824,
                                                     40.770564943213
                                                 ],
                                                 [
                                                     -73.941657129042,
                                                     40.770561075905
                                                 ],
                                                 [
                                                     -73.941691488277,
                                                     40.770519019066
                                                 ],
                                                 [
                                                     -73.941729001535,
                                                     40.770473102452
                                                 ],
                                                 [
                                                     -73.941751905636,
                                                     40.770483918276
                                                 ],
                                                 [
                                                     -73.941803902531,
                                                     40.770508471567
                                                 ],
                                                 [
                                                     -73.941857655551,
                                                     40.770442675489
                                                 ],
                                                 [
                                                     -73.941857979256,
                                                     40.77044227943
                                                 ],
                                                 [
                                                     -73.941792389121,
                                                     40.770411307711
                                                 ],
                                                 [
                                                     -73.941839737921,
                                                     40.770353350892
                                                 ],
                                                 [
                                                     -73.941761480503,
                                                     40.770316397919
                                                 ],
                                                 [
                                                     -73.941768073193,
                                                     40.770308328235
                                                 ],
                                                 [
                                                     -73.941520809374,
                                                     40.770191568873
                                                 ],
                                                 [
                                                     -73.941452406525,
                                                     40.770159268189
                                                 ],
                                                 [
                                                     -73.941572135142,
                                                     40.770012716155
                                                 ],
                                                 [
                                                     -73.941689349486,
                                                     40.769869241544
                                                 ],
                                                 [
                                                     -73.942004394907,
                                                     40.770018007972
                                                 ],
                                                 [
                                                     -73.942010991094,
                                                     40.770009935575
                                                 ],
                                                 [
                                                     -73.942051526835,
                                                     40.770029076363
                                                 ],
                                                 [
                                                     -73.942210189139,
                                                     40.77010399691
                                                 ],
                                                 [
                                                     -73.942310016094,
                                                     40.769981802656
                                                 ],
                                                 [
                                                     -73.942178273984,
                                                     40.769919593761
                                                 ],
                                                 [
                                                     -73.942252045802,
                                                     40.769829291324
                                                 ],
                                                 [
                                                     -73.942383788987,
                                                     40.769891500136
                                                 ],
                                                 [
                                                     -73.942426915767,
                                                     40.769838708951
                                                 ],
                                                 [
                                                     -73.942493932168,
                                                     40.769756676811
                                                 ],
                                                 [
                                                     -73.942519181601,
                                                     40.769768598571
                                                 ],
                                                 [
                                                     -73.942525997058,
                                                     40.769760256103
                                                 ],
                                                 [
                                                     -73.942556949703,
                                                     40.769774872305
                                                 ],
                                                 [
                                                     -73.9426904424,
                                                     40.769611465832
                                                 ],
                                                 [
                                                     -73.942684411242,
                                                     40.769608618141
                                                 ],
                                                 [
                                                     -73.94268796835,
                                                     40.769604264173
                                                 ],
                                                 [
                                                     -73.942643713828,
                                                     40.769583367575
                                                 ],
                                                 [
                                                     -73.942421044994,
                                                     40.769577723825
                                                 ],
                                                 [
                                                     -73.941982341416,
                                                     40.769566603165
                                                 ],
                                                 [
                                                     -73.941988025997,
                                                     40.769436974007
                                                 ],
                                                 [
                                                     -73.942463187699,
                                                     40.769449018763
                                                 ],
                                                 [
                                                     -73.942513777567,
                                                     40.769413814506
                                                 ],
                                                 [
                                                     -73.942519208579,
                                                     40.769289946616
                                                 ],
                                                 [
                                                     -73.942529787795,
                                                     40.769048684409
                                                 ],
                                                 [
                                                     -73.942667190964,
                                                     40.769052167571
                                                 ],
                                                 [
                                                     -73.942702936708,
                                                     40.769053073248
                                                 ],
                                                 [
                                                     -73.942696192799,
                                                     40.769206887653
                                                 ],
                                                 [
                                                     -73.942683464836,
                                                     40.769497168623
                                                 ],
                                                 [
                                                     -73.942751462685,
                                                     40.769529276571
                                                 ],
                                                 [
                                                     -73.942775240706,
                                                     40.769500169693
                                                 ],
                                                 [
                                                     -73.942783987606,
                                                     40.769489463445
                                                 ],
                                                 [
                                                     -73.942802803285,
                                                     40.769498348151
                                                 ],
                                                 [
                                                     -73.942812323604,
                                                     40.769502843689
                                                 ],
                                                 [
                                                     -73.942818469078,
                                                     40.769495321229
                                                 ],
                                                 [
                                                     -73.942820507293,
                                                     40.769492826044
                                                 ],
                                                 [
                                                     -73.942823237532,
                                                     40.76949411602
                                                 ],
                                                 [
                                                     -73.942864373467,
                                                     40.76951353958
                                                 ],
                                                 [
                                                     -73.942904497439,
                                                     40.769464424382
                                                 ],
                                                 [
                                                     -73.942893010542,
                                                     40.769459000358
                                                 ],
                                                 [
                                                     -73.942844047399,
                                                     40.76943587996
                                                 ],
                                                 [
                                                     -73.942964682264,
                                                     40.769288211191
                                                 ],
                                                 [
                                                     -73.942892853238,
                                                     40.769254293257
                                                 ],
                                                 [
                                                     -73.942873410114,
                                                     40.769245111988
                                                 ],
                                                 [
                                                     -73.942962558627,
                                                     40.769135985374
                                                 ],
                                                 [
                                                     -73.943307366119,
                                                     40.76929880274
                                                 ],
                                                 [
                                                     -73.943209627645,
                                                     40.769418443268
                                                 ],
                                                 [
                                                     -73.943123340865,
                                                     40.769377698837
                                                 ],
                                                 [
                                                     -73.94301129536,
                                                     40.769514853234
                                                 ],
                                                 [
                                                     -73.942946027642,
                                                     40.769484034512
                                                 ],
                                                 [
                                                     -73.94290590369,
                                                     40.769533149725
                                                 ],
                                                 [
                                                     -73.94294765534,
                                                     40.769552864422
                                                 ],
                                                 [
                                                     -73.942939471661,
                                                     40.769562882977
                                                 ],
                                                 [
                                                     -73.942969943612,
                                                     40.769577271003
                                                 ],
                                                 [
                                                     -73.942938953052,
                                                     40.76961520559
                                                 ],
                                                 [
                                                     -73.942937418759,
                                                     40.769617084182
                                                 ],
                                                 [
                                                     -73.943004694626,
                                                     40.769648852132
                                                 ],
                                                 [
                                                     -73.943093436325,
                                                     40.769612829017
                                                 ],
                                                 [
                                                     -73.943520481896,
                                                     40.769439479642
                                                 ],
                                                 [
                                                     -73.943600726446,
                                                     40.769553740646
                                                 ],
                                                 [
                                                     -73.943178406785,
                                                     40.769725170971
                                                 ],
                                                 [
                                                     -73.94317088093,
                                                     40.769745782492
                                                 ],
                                                 [
                                                     -73.943160169731,
                                                     40.769775114719
                                                 ],
                                                 [
                                                     -73.943170894986,
                                                     40.76979038715
                                                 ],
                                                 [
                                                     -73.943387226542,
                                                     40.770098425386
                                                 ],
                                                 [
                                                     -73.943321482733,
                                                     40.77012511281
                                                 ],
                                                 [
                                                     -73.943237904155,
                                                     40.770159039567
                                                 ],
                                                 [
                                                     -73.942923445575,
                                                     40.769711274455
                                                 ],
                                                 [
                                                     -73.942874838613,
                                                     40.769688321741
                                                 ],
                                                 [
                                                     -73.94273505723,
                                                     40.769859425508
                                                 ],
                                                 [
                                                     -73.94276721052,
                                                     40.769874608667
                                                 ],
                                                 [
                                                     -73.942760294296,
                                                     40.769883074469
                                                 ],
                                                 [
                                                     -73.94278212331,
                                                     40.76989338167
                                                 ],
                                                 [
                                                     -73.942499108047,
                                                     40.770239812236
                                                 ],
                                                 [
                                                     -73.942631229964,
                                                     40.770302200151
                                                 ],
                                                 [
                                                     -73.942624436994,
                                                     40.770310514721
                                                 ],
                                                 [
                                                     -73.942674036505,
                                                     40.770333934493
                                                 ],
                                                 [
                                                     -73.942680829471,
                                                     40.77032562082
                                                 ],
                                                 [
                                                     -73.94290510156,
                                                     40.770431520634
                                                 ],
                                                 [
                                                     -73.942833152407,
                                                     40.770519591136
                                                 ],
                                                 [
                                                     -73.942804890851,
                                                     40.770554185267
                                                 ],
                                                 [
                                                     -73.942786687713,
                                                     40.770576467296
                                                 ],
                                                 [
                                                     -73.942655672667,
                                                     40.770736838593
                                                 ],
                                                 [
                                                     -73.942535038124,
                                                     40.770679875671
                                                 ],
                                                 [
                                                     -73.942541611783,
                                                     40.770671831149
                                                 ],
                                                 [
                                                     -73.942298084288,
                                                     40.770556838511
                                                 ],
                                                 [
                                                     -73.942290475991,
                                                     40.770553246194
                                                 ],
                                                 [
                                                     -73.942258552174,
                                                     40.770538171979
                                                 ],
                                                 [
                                                     -73.94223943229,
                                                     40.77056157459
                                                 ],
                                                 [
                                                     -73.94196834467,
                                                     40.770893397327
                                                 ],
                                                 [
                                                     -73.941947448438,
                                                     40.77088353079
                                                 ],
                                                 [
                                                     -73.941940674294,
                                                     40.770891822816
                                                 ],
                                                 [
                                                     -73.941902585365,
                                                     40.77087383677
                                                 ],
                                                 [
                                                     -73.941631695188,
                                                     40.771205412963
                                                 ],
                                                 [
                                                     -73.941754510782,
                                                     40.771279710821
                                                 ],
                                                 [
                                                     -73.941906422739,
                                                     40.771253068669
                                                 ],
                                                 [
                                                     -73.942049706668,
                                                     40.771227940228
                                                 ],
                                                 [
                                                     -73.94219984419,
                                                     40.771044166132
                                                 ],
                                                 [
                                                     -73.942278757455,
                                                     40.771081428905
                                                 ],
                                                 [
                                                     -73.942263951139,
                                                     40.771099553126
                                                 ],
                                                 [
                                                     -73.942176904733,
                                                     40.771206100281
                                                 ],
                                                 [
                                                     -73.942200428389,
                                                     40.771217208088
                                                 ],
                                                 [
                                                     -73.942214145506,
                                                     40.77125996097
                                                 ],
                                                 [
                                                     -73.942200808269,
                                                     40.771276285812
                                                 ],
                                                 [
                                                     -73.942261663447,
                                                     40.771305021673
                                                 ],
                                                 [
                                                     -73.94236378466,
                                                     40.771353241633
                                                 ],
                                                 [
                                                     -73.94231467952,
                                                     40.771413348182
                                                 ],
                                                 [
                                                     -73.942111815303,
                                                     40.771317558041
                                                 ],
                                                 [
                                                     -73.942084573962,
                                                     40.771350902605
                                                 ],
                                                 [
                                                     -73.942000758736,
                                                     40.771311325641
                                                 ],
                                                 [
                                                     -73.941827119906,
                                                     40.771341777786
                                                 ],
                                                 [
                                                     -73.941834599719,
                                                     40.771366428343
                                                 ],
                                                 [
                                                     -73.941774860239,
                                                     40.771439550575
                                                 ],
                                                 [
                                                     -73.941752647709,
                                                     40.771443445733
                                                 ],
                                                 [
                                                     -73.941742272383,
                                                     40.771445265808
                                                 ],
                                                 [
                                                     -73.941745255796,
                                                     40.771455098113
                                                 ],
                                                 [
                                                     -73.941782659555,
                                                     40.771578365329
                                                 ],
                                                 [
                                                     -73.941868178544,
                                                     40.771619001401
                                                 ],
                                                 [
                                                     -73.941843088089,
                                                     40.771649521212
                                                 ],
                                                 [
                                                     -73.942044177584,
                                                     40.771745074096
                                                 ],
                                                 [
                                                     -73.941994688011,
                                                     40.771805271263
                                                 ],
                                                 [
                                                     -73.941829954309,
                                                     40.771726993001
                                                 ],
                                                 [
                                                     -73.941817783755,
                                                     40.771741795636
                                                 ],
                                                 [
                                                     -73.941764014358,
                                                     40.771753283211
                                                 ],
                                                 [
                                                     -73.941741351414,
                                                     40.77174251434
                                                 ],
                                                 [
                                                     -73.941636374075,
                                                     40.771870200334
                                                 ],
                                                 [
                                                     -73.941556430361,
                                                     40.771832212599
                                                 ],
                                                 [
                                                     -73.941598286442,
                                                     40.771781303146
                                                 ]
                                             ]
                                         ]
                                     ]
                 }
}
