{
    "type":  "Feature",
    "id":  "1083204",
    "properties":  {
                       "bin":  "1083204",
                       "bbl":  "1013730001",
                       "address":  "MAIN STREET",
                       "building_use":  "Multi-Family Elevator Buildings",
                       "pluto_landuse_code":  "3",
                       "building_class":  "D4",
                       "pluto_year_built":  "1975",
                       "pluto_floors":  "18.0000000",
                       "residential_units":  "8018",
                       "total_units":  "8088",
                       "building_area_sqft":  "4786701",
                       "lot_area_sqft":  "4227757",
                       "construction_year":  "1975",
                       "height_roof":  "144.48452595",
                       "feature_code":  "2100",
                       "geometry_source":  "Photogrammetric",
                       "last_status_type":  "Constructed",
                       "retrieved_on":  "2026-09-29",
                       "source_footprint":  "NYC DoITT BUILDING (Socrata 5zhs-2jue)",
                       "source_taxlot":  "NYC DCP PLUTO 26v2 (Socrata 64uk-42ks)",
                       "source_boundary":  "OpenStreetMap relation 2389564 (Roosevelt Island)",
                       "source_attributes":  {
                                                 "building":  {
                                                                  "name":  null,
                                                                  "base_bbl":  "1013730001",
                                                                  "shape_area":  "2767.01953125",
                                                                  "construction_year":  "1975",
                                                                  "ground_elevation":  "15",
                                                                  "mappluto_bbl":  "1013730001",
                                                                  "objectid":  "949991",
                                                                  "feature_code":  "2100",
                                                                  "shape_length":  "288.72718241148829",
                                                                  "height_roof":  "144.48452595",
                                                                  "last_status_type":  "Constructed",
                                                                  "bin":  "1083204",
                                                                  "last_edited_date":  "2017-08-22T18:41:37.000Z",
                                                                  "geom_source":  "Photogrammetric",
                                                                  "doitt_id":  "7416"
                                                              },
                                                 "pluto":  {
                                                               "borough":  "MN",
                                                               "block":  "1373",
                                                               "lot":  "1",
                                                               "cd":  "108",
                                                               "ct2010":  "238.01",
                                                               "cb2010":  "1015",
                                                               "schooldist":  "2",
                                                               "council":  "5",
                                                               "zipcode":  "10044",
                                                               "firecomp":  "E260",
                                                               "policeprct":  "114",
                                                               "healtharea":  "8300",
                                                               "sanitboro":  "1",
                                                               "address":  "MAIN STREET",
                                                               "zonedist1":  "R7-2",
                                                               "splitzone":  false,
                                                               "bldgclass":  "D4",
                                                               "landuse":  "3",
                                                               "easements":  "1",
                                                               "ownertype":  "C",
                                                               "ownername":  "RIVERWALK 8 AFFORDABLE, L.P.",
                                                               "lotarea":  "4227757",
                                                               "bldgarea":  "4786701",
                                                               "comarea":  "1046956",
                                                               "resarea":  "3739745",
                                                               "officearea":  "7496",
                                                               "retailarea":  "537154",
                                                               "garagearea":  "406500",
                                                               "strgearea":  "0",
                                                               "factryarea":  "0",
                                                               "otherarea":  "95806",
                                                               "areasource":  "2",
                                                               "numbldgs":  "38",
                                                               "numfloors":  "18.0000000",
                                                               "unitsres":  "8018",
                                                               "unitstotal":  "8088",
                                                               "lotfront":  "200.0000000",
                                                               "lotdepth":  "102.5000000",
                                                               "bldgfront":  "0.0000000",
                                                               "bldgdepth":  "0.0000000",
                                                               "ext":  "N",
                                                               "proxcode":  "0",
                                                               "irrlotcode":  true,
                                                               "lottype":  "7",
                                                               "bsmtcode":  "0",
                                                               "assessland":  "134391150.00000",
                                                               "assesstot":  "592936650.00000",
                                                               "exempttot":  "592936650.00000",
                                                               "yearbuilt":  "1975",
                                                               "yearalter1":  "0",
                                                               "yearalter2":  "0",
                                                               "landmark":  "INDIVIDUAL LANDMARK",
                                                               "builtfar":  "1.13000000000",
                                                               "residfar":  "3.44000000000",
                                                               "commfar":  "0.00000000000",
                                                               "facilfar":  "6.50000000000",
                                                               "affresfar":  "5.01000000000",
                                                               "mnffar":  "0.00000000000",
                                                               "borocode":  "1",
                                                               "bbl":  "1013730001.00000000",
                                                               "tract2010":  "23801",
                                                               "xcoord":  "996792",
                                                               "ycoord":  "215349",
                                                               "latitude":  "40.7577508",
                                                               "longitude":  "-73.9547287",
                                                               "zonemap":  "9a",
                                                               "zmcode":  true,
                                                               "sanborn":  "106E070",
                                                               "taxmap":  "10507",
                                                               "appbbl":  "1013730001.00000000",
                                                               "appdate":  "2023-12-06T00:00:00.000",
                                                               "plutomapid":  "1",
                                                               "version":  "26v2",
                                                               "sanitdistrict":  "8",
                                                               "healthcenterdistrict":  "13",
                                                               "firm07_flag":  "1",
                                                               "pfirm15_flag":  "1",
                                                               "bct2020":  "1023804",
                                                               "bctcb2020":  "10238041000",
                                                               "transitzone":  "Inner Transit Zone"
                                                           }
                                             }
                   },
    "geometry":  {
                     "type":  "MultiPolygon",
                     "coordinates":  [
                                         [
                                             [
                                                 [
                                                     -73.948512215472,
                                                     40.764725073547
                                                 ],
                                                 [
                                                     -73.948375554814,
                                                     40.764654900925
                                                 ],
                                                 [
                                                     -73.948268881256,
                                                     40.764600125826
                                                 ],
                                                 [
                                                     -73.948151809761,
                                                     40.764540012261
                                                 ],
                                                 [
                                                     -73.948057113973,
                                                     40.764491387395
                                                 ],
                                                 [
                                                     -73.948064584387,
                                                     40.76448297645
                                                 ],
                                                 [
                                                     -73.94788328036,
                                                     40.76438987968
                                                 ],
                                                 [
                                                     -73.947878672688,
                                                     40.764395068103
                                                 ],
                                                 [
                                                     -73.947675093237,
                                                     40.764290531722
                                                 ],
                                                 [
                                                     -73.947795626442,
                                                     40.764154831753
                                                 ],
                                                 [
                                                     -73.947803041086,
                                                     40.764158638843
                                                 ],
                                                 [
                                                     -73.947815779643,
                                                     40.764165179574
                                                 ],
                                                 [
                                                     -73.947856075408,
                                                     40.764185871599
                                                 ],
                                                 [
                                                     -73.947999205667,
                                                     40.764259367022
                                                 ],
                                                 [
                                                     -73.94799186685,
                                                     40.76426763034
                                                 ],
                                                 [
                                                     -73.948173169511,
                                                     40.764360726941
                                                 ],
                                                 [
                                                     -73.9481805095,
                                                     40.764352464512
                                                 ],
                                                 [
                                                     -73.948351892835,
                                                     40.764440467618
                                                 ],
                                                 [
                                                     -73.94848802146,
                                                     40.764510367179
                                                 ],
                                                 [
                                                     -73.94856106534,
                                                     40.764547873403
                                                 ],
                                                 [
                                                     -73.948651440355,
                                                     40.764594278886
                                                 ],
                                                 [
                                                     -73.94861518981,
                                                     40.764635091593
                                                 ],
                                                 [
                                                     -73.948615520117,
                                                     40.764635261036
                                                 ],
                                                 [
                                                     -73.948632092302,
                                                     40.764643770988
                                                 ],
                                                 [
                                                     -73.948579998892,
                                                     40.764702421014
                                                 ],
                                                 [
                                                     -73.948561630726,
                                                     40.764692989937
                                                 ],
                                                 [
                                                     -73.948526580882,
                                                     40.764732449693
                                                 ],
                                                 [
                                                     -73.948512215472,
                                                     40.764725073547
                                                 ]
                                             ]
                                         ]
                                     ]
                 }
}
