{
    "type":  "Feature",
    "id":  "1089264",
    "properties":  {
                       "bin":  "1089264",
                       "bbl":  "1013730001",
                       "address":  "MAIN STREET",
                       "building_use":  "Multi-Family Elevator Buildings",
                       "pluto_landuse_code":  "3",
                       "building_class":  "D4",
                       "pluto_year_built":  "1975",
                       "pluto_floors":  "18.0000000",
                       "residential_units":  "8018",
                       "total_units":  "8088",
                       "building_area_sqft":  "4786701",
                       "lot_area_sqft":  "4227757",
                       "construction_year":  "1975",
                       "height_roof":  "72",
                       "feature_code":  "2100",
                       "geometry_source":  "Other (Manual)",
                       "last_status_type":  "Constructed",
                       "retrieved_on":  "2026-09-29",
                       "source_footprint":  "NYC DoITT BUILDING (Socrata 5zhs-2jue)",
                       "source_taxlot":  "NYC DCP PLUTO 26v2 (Socrata 64uk-42ks)",
                       "source_boundary":  "OpenStreetMap relation 2389564 (Roosevelt Island)",
                       "source_attributes":  {
                                                 "building":  {
                                                                  "name":  null,
                                                                  "base_bbl":  "1013730001",
                                                                  "shape_area":  "2838.7890625",
                                                                  "construction_year":  "1975",
                                                                  "ground_elevation":  "21",
                                                                  "mappluto_bbl":  "1013730001",
                                                                  "objectid":  "52706",
                                                                  "feature_code":  "2100",
                                                                  "shape_length":  "244.82937763488897",
                                                                  "height_roof":  "72",
                                                                  "last_status_type":  "Constructed",
                                                                  "bin":  "1089264",
                                                                  "last_edited_date":  "2017-08-10T15:09:36.000Z",
                                                                  "geom_source":  "Other (Manual)",
                                                                  "doitt_id":  "398365"
                                                              },
                                                 "pluto":  {
                                                               "borough":  "MN",
                                                               "block":  "1373",
                                                               "lot":  "1",
                                                               "cd":  "108",
                                                               "ct2010":  "238.01",
                                                               "cb2010":  "1015",
                                                               "schooldist":  "2",
                                                               "council":  "5",
                                                               "zipcode":  "10044",
                                                               "firecomp":  "E260",
                                                               "policeprct":  "114",
                                                               "healtharea":  "8300",
                                                               "sanitboro":  "1",
                                                               "address":  "MAIN STREET",
                                                               "zonedist1":  "R7-2",
                                                               "splitzone":  false,
                                                               "bldgclass":  "D4",
                                                               "landuse":  "3",
                                                               "easements":  "1",
                                                               "ownertype":  "C",
                                                               "ownername":  "RIVERWALK 8 AFFORDABLE, L.P.",
                                                               "lotarea":  "4227757",
                                                               "bldgarea":  "4786701",
                                                               "comarea":  "1046956",
                                                               "resarea":  "3739745",
                                                               "officearea":  "7496",
                                                               "retailarea":  "537154",
                                                               "garagearea":  "406500",
                                                               "strgearea":  "0",
                                                               "factryarea":  "0",
                                                               "otherarea":  "95806",
                                                               "areasource":  "2",
                                                               "numbldgs":  "38",
                                                               "numfloors":  "18.0000000",
                                                               "unitsres":  "8018",
                                                               "unitstotal":  "8088",
                                                               "lotfront":  "200.0000000",
                                                               "lotdepth":  "102.5000000",
                                                               "bldgfront":  "0.0000000",
                                                               "bldgdepth":  "0.0000000",
                                                               "ext":  "N",
                                                               "proxcode":  "0",
                                                               "irrlotcode":  true,
                                                               "lottype":  "7",
                                                               "bsmtcode":  "0",
                                                               "assessland":  "134391150.00000",
                                                               "assesstot":  "592936650.00000",
                                                               "exempttot":  "592936650.00000",
                                                               "yearbuilt":  "1975",
                                                               "yearalter1":  "0",
                                                               "yearalter2":  "0",
                                                               "landmark":  "INDIVIDUAL LANDMARK",
                                                               "builtfar":  "1.13000000000",
                                                               "residfar":  "3.44000000000",
                                                               "commfar":  "0.00000000000",
                                                               "facilfar":  "6.50000000000",
                                                               "affresfar":  "5.01000000000",
                                                               "mnffar":  "0.00000000000",
                                                               "borocode":  "1",
                                                               "bbl":  "1013730001.00000000",
                                                               "tract2010":  "23801",
                                                               "xcoord":  "996792",
                                                               "ycoord":  "215349",
                                                               "latitude":  "40.7577508",
                                                               "longitude":  "-73.9547287",
                                                               "zonemap":  "9a",
                                                               "zmcode":  true,
                                                               "sanborn":  "106E070",
                                                               "taxmap":  "10507",
                                                               "appbbl":  "1013730001.00000000",
                                                               "appdate":  "2023-12-06T00:00:00.000",
                                                               "plutomapid":  "1",
                                                               "version":  "26v2",
                                                               "sanitdistrict":  "8",
                                                               "healthcenterdistrict":  "13",
                                                               "firm07_flag":  "1",
                                                               "pfirm15_flag":  "1",
                                                               "bct2020":  "1023804",
                                                               "bctcb2020":  "10238041000",
                                                               "transitzone":  "Inner Transit Zone"
                                                           }
                                             }
                   },
    "geometry":  {
                     "type":  "MultiPolygon",
                     "coordinates":  [
                                         [
                                             [
                                                 [
                                                     -73.954007497518,
                                                     40.757174733585
                                                 ],
                                                 [
                                                     -73.954000042633,
                                                     40.757171505899
                                                 ],
                                                 [
                                                     -73.953932013436,
                                                     40.757142052902
                                                 ],
                                                 [
                                                     -73.953791302588,
                                                     40.757081134093
                                                 ],
                                                 [
                                                     -73.953742270029,
                                                     40.757059905714
                                                 ],
                                                 [
                                                     -73.953668096753,
                                                     40.757027793603
                                                 ],
                                                 [
                                                     -73.953598432365,
                                                     40.757120837295
                                                 ],
                                                 [
                                                     -73.95359805826,
                                                     40.757120675053
                                                 ],
                                                 [
                                                     -73.953536857876,
                                                     40.757094179131
                                                 ],
                                                 [
                                                     -73.953436770876,
                                                     40.757050846926
                                                 ],
                                                 [
                                                     -73.953392521293,
                                                     40.757031689692
                                                 ],
                                                 [
                                                     -73.953393588097,
                                                     40.757030264624
                                                 ],
                                                 [
                                                     -73.953420789216,
                                                     40.756993934831
                                                 ],
                                                 [
                                                     -73.953515698934,
                                                     40.756867175706
                                                 ],
                                                 [
                                                     -73.953516848706,
                                                     40.756865639908
                                                 ],
                                                 [
                                                     -73.953555189426,
                                                     40.756814431924
                                                 ],
                                                 [
                                                     -73.953584871261,
                                                     40.756774789231
                                                 ],
                                                 [
                                                     -73.953608368023,
                                                     40.756743407078
                                                 ],
                                                 [
                                                     -73.953711886711,
                                                     40.756788224548
                                                 ],
                                                 [
                                                     -73.954180811858,
                                                     40.756991240035
                                                 ],
                                                 [
                                                     -73.954152545552,
                                                     40.757028993282
                                                 ],
                                                 [
                                                     -73.954127663306,
                                                     40.757062225532
                                                 ],
                                                 [
                                                     -73.954130090256,
                                                     40.757063276487
                                                 ],
                                                 [
                                                     -73.954091724943,
                                                     40.75711451797
                                                 ],
                                                 [
                                                     -73.954089297992,
                                                     40.757113467013
                                                 ],
                                                 [
                                                     -73.954034630845,
                                                     40.757186479799
                                                 ],
                                                 [
                                                     -73.954007497518,
                                                     40.757174733585
                                                 ]
                                             ]
                                         ]
                                     ]
                 }
}
