{
    "type":  "Feature",
    "id":  "1084695",
    "properties":  {
                       "bin":  "1084695",
                       "bbl":  "1013730030",
                       "address":  "510 MAIN STREET",
                       "building_use":  "Mixed Residential \u0026 Commercial Buildings",
                       "pluto_landuse_code":  "4",
                       "building_class":  "D6",
                       "pluto_year_built":  "1969",
                       "pluto_floors":  "16.0000000",
                       "residential_units":  "1003",
                       "total_units":  "1017",
                       "building_area_sqft":  "804200",
                       "lot_area_sqft":  "230012",
                       "construction_year":  "1969",
                       "height_roof":  "178",
                       "feature_code":  "2100",
                       "geometry_source":  "Other (Manual)",
                       "last_status_type":  "Constructed",
                       "retrieved_on":  "2026-09-29",
                       "source_footprint":  "NYC DoITT BUILDING (Socrata 5zhs-2jue)",
                       "source_taxlot":  "NYC DCP PLUTO 26v2 (Socrata 64uk-42ks)",
                       "source_boundary":  "OpenStreetMap relation 2389564 (Roosevelt Island)",
                       "source_attributes":  {
                                                 "building":  {
                                                                  "name":  null,
                                                                  "base_bbl":  "1013730030",
                                                                  "shape_area":  "4621.0234375",
                                                                  "construction_year":  "1969",
                                                                  "ground_elevation":  "15",
                                                                  "mappluto_bbl":  "1013730030",
                                                                  "objectid":  "1065596",
                                                                  "feature_code":  "2100",
                                                                  "shape_length":  "774.52146114199206",
                                                                  "height_roof":  "178",
                                                                  "last_status_type":  "Constructed",
                                                                  "bin":  "1084695",
                                                                  "last_edited_date":  "2017-08-22T19:05:43.000Z",
                                                                  "geom_source":  "Other (Manual)",
                                                                  "doitt_id":  "1253752"
                                                              },
                                                 "pluto":  {
                                                               "borough":  "MN",
                                                               "block":  "1373",
                                                               "lot":  "30",
                                                               "cd":  "108",
                                                               "ct2010":  "238.01",
                                                               "cb2010":  "1005",
                                                               "schooldist":  "2",
                                                               "council":  "5",
                                                               "zipcode":  "10044",
                                                               "firecomp":  "E260",
                                                               "policeprct":  "114",
                                                               "healtharea":  "8300",
                                                               "sanitboro":  "1",
                                                               "address":  "510 MAIN STREET",
                                                               "zonedist1":  "R7-2",
                                                               "splitzone":  false,
                                                               "bldgclass":  "D6",
                                                               "landuse":  "4",
                                                               "easements":  "0",
                                                               "ownertype":  "C",
                                                               "ownername":  "ROOSEVELT ISLAND OPERATING CORPORATION",
                                                               "lotarea":  "230012",
                                                               "bldgarea":  "804200",
                                                               "comarea":  "35500",
                                                               "resarea":  "768700",
                                                               "officearea":  "0",
                                                               "retailarea":  "35500",
                                                               "garagearea":  "0",
                                                               "strgearea":  "0",
                                                               "factryarea":  "0",
                                                               "otherarea":  "0",
                                                               "areasource":  "2",
                                                               "numbldgs":  "6",
                                                               "numfloors":  "16.0000000",
                                                               "unitsres":  "1003",
                                                               "unitstotal":  "1017",
                                                               "lotfront":  "0.0000000",
                                                               "lotdepth":  "0.0000000",
                                                               "bldgfront":  "780.0000000",
                                                               "bldgdepth":  "250.0000000",
                                                               "ext":  "N",
                                                               "proxcode":  "0",
                                                               "irrlotcode":  true,
                                                               "lottype":  "5",
                                                               "bsmtcode":  "2",
                                                               "assessland":  "18135000.00000",
                                                               "assesstot":  "92847150.00000",
                                                               "exempttot":  "92847150.00000",
                                                               "yearbuilt":  "1969",
                                                               "yearalter1":  "0",
                                                               "yearalter2":  "0",
                                                               "builtfar":  "3.50000000000",
                                                               "residfar":  "3.44000000000",
                                                               "commfar":  "0.00000000000",
                                                               "facilfar":  "6.50000000000",
                                                               "affresfar":  "5.01000000000",
                                                               "mnffar":  "0.00000000000",
                                                               "borocode":  "1",
                                                               "bbl":  "1013730030.00000000",
                                                               "tract2010":  "23801",
                                                               "xcoord":  "998020",
                                                               "ycoord":  "216499",
                                                               "latitude":  "40.7609054",
                                                               "longitude":  "-73.9502937",
                                                               "zonemap":  "9a",
                                                               "sanborn":  "106E070",
                                                               "taxmap":  "10507",
                                                               "appbbl":  "1013730001.00000000",
                                                               "appdate":  "2007-03-05T00:00:00.000",
                                                               "plutomapid":  "1",
                                                               "version":  "26v2",
                                                               "sanitdistrict":  "8",
                                                               "healthcenterdistrict":  "13",
                                                               "firm07_flag":  "1",
                                                               "pfirm15_flag":  "1",
                                                               "bct2020":  "1023803",
                                                               "bctcb2020":  "10238031001",
                                                               "transitzone":  "Inner Transit Zone"
                                                           }
                                             }
                   },
    "geometry":  {
                     "type":  "MultiPolygon",
                     "coordinates":  [
                                         [
                                             [
                                                 [
                                                     -73.949869934514,
                                                     40.7614303145
                                                 ],
                                                 [
                                                     -73.949844593143,
                                                     40.761417117379
                                                 ],
                                                 [
                                                     -73.949923883932,
                                                     40.761360185036
                                                 ],
                                                 [
                                                     -73.949934979773,
                                                     40.761352217689
                                                 ],
                                                 [
                                                     -73.949920892678,
                                                     40.761340875111
                                                 ],
                                                 [
                                                     -73.949905380545,
                                                     40.761328384669
                                                 ],
                                                 [
                                                     -73.949905785283,
                                                     40.761313029437
                                                 ],
                                                 [
                                                     -73.949908721663,
                                                     40.761310810069
                                                 ],
                                                 [
                                                     -73.949910783541,
                                                     40.761310809165
                                                 ],
                                                 [
                                                     -73.949929871014,
                                                     40.761310800352
                                                 ],
                                                 [
                                                     -73.949959356617,
                                                     40.761334543265
                                                 ],
                                                 [
                                                     -73.95000086881,
                                                     40.76130473747
                                                 ],
                                                 [
                                                     -73.950001923411,
                                                     40.761303979702
                                                 ],
                                                 [
                                                     -73.950002976827,
                                                     40.761303223735
                                                 ],
                                                 [
                                                     -73.950004037353,
                                                     40.761302462368
                                                 ],
                                                 [
                                                     -73.950005075365,
                                                     40.7613017163
                                                 ],
                                                 [
                                                     -73.950012535777,
                                                     40.761296359733
                                                 ],
                                                 [
                                                     -73.950301112735,
                                                     40.76108915505
                                                 ],
                                                 [
                                                     -73.950302550064,
                                                     40.761088123691
                                                 ],
                                                 [
                                                     -73.950303899707,
                                                     40.76108715443
                                                 ],
                                                 [
                                                     -73.950305237501,
                                                     40.761086194168
                                                 ],
                                                 [
                                                     -73.95030658596,
                                                     40.761085225807
                                                 ],
                                                 [
                                                     -73.950307909535,
                                                     40.761084274544
                                                 ],
                                                 [
                                                     -73.95040448062,
                                                     40.761014934059
                                                 ],
                                                 [
                                                     -73.950380784709,
                                                     40.761002772443
                                                 ],
                                                 [
                                                     -73.950274965331,
                                                     40.760948465099
                                                 ],
                                                 [
                                                     -73.950252348675,
                                                     40.760973944125
                                                 ],
                                                 [
                                                     -73.950227599848,
                                                     40.760974615118
                                                 ],
                                                 [
                                                     -73.950223607252,
                                                     40.760959194048
                                                 ],
                                                 [
                                                     -73.950248516278,
                                                     40.76093113337
                                                 ],
                                                 [
                                                     -73.950193991914,
                                                     40.760903150936
                                                 ],
                                                 [
                                                     -73.950117718021,
                                                     40.760864005409
                                                 ],
                                                 [
                                                     -73.950026996611,
                                                     40.760817445111
                                                 ],
                                                 [
                                                     -73.949947511154,
                                                     40.760776651954
                                                 ],
                                                 [
                                                     -73.949941674822,
                                                     40.76077365614
                                                 ],
                                                 [
                                                     -73.949934576057,
                                                     40.760781654042
                                                 ],
                                                 [
                                                     -73.949916603339,
                                                     40.760801900386
                                                 ],
                                                 [
                                                     -73.949900263821,
                                                     40.760804740678
                                                 ],
                                                 [
                                                     -73.949894794479,
                                                     40.760801934127
                                                 ],
                                                 [
                                                     -73.949893210744,
                                                     40.760797647936
                                                 ],
                                                 [
                                                     -73.949889673341,
                                                     40.760788079433
                                                 ],
                                                 [
                                                     -73.949914641709,
                                                     40.760759951314
                                                 ],
                                                 [
                                                     -73.949896030567,
                                                     40.760750399671
                                                 ],
                                                 [
                                                     -73.949891477826,
                                                     40.760755528768
                                                 ],
                                                 [
                                                     -73.949855622892,
                                                     40.760737126659
                                                 ],
                                                 [
                                                     -73.949859932649,
                                                     40.76073226851
                                                 ],
                                                 [
                                                     -73.949825248719,
                                                     40.760714245113
                                                 ],
                                                 [
                                                     -73.949798326008,
                                                     40.760700255747
                                                 ],
                                                 [
                                                     -73.949793754355,
                                                     40.760705330802
                                                 ],
                                                 [
                                                     -73.949757268665,
                                                     40.760686370975
                                                 ],
                                                 [
                                                     -73.949761675565,
                                                     40.760681478652
                                                 ],
                                                 [
                                                     -73.949742325847,
                                                     40.76067142328
                                                 ],
                                                 [
                                                     -73.949711601928,
                                                     40.760705607447
                                                 ],
                                                 [
                                                     -73.949717257086,
                                                     40.760708551865
                                                 ],
                                                 [
                                                     -73.949690703044,
                                                     40.760738031808
                                                 ],
                                                 [
                                                     -73.949685000532,
                                                     40.760735063054
                                                 ],
                                                 [
                                                     -73.949626831176,
                                                     40.760799643458
                                                 ],
                                                 [
                                                     -73.949640668979,
                                                     40.760806849945
                                                 ],
                                                 [
                                                     -73.94966338197,
                                                     40.760818678997
                                                 ],
                                                 [
                                                     -73.949667407388,
                                                     40.76083279707
                                                 ],
                                                 [
                                                     -73.949664602623,
                                                     40.760836391561
                                                 ],
                                                 [
                                                     -73.949644890224,
                                                     40.76083920783
                                                 ],
                                                 [
                                                     -73.949617297475,
                                                     40.760824838117
                                                 ],
                                                 [
                                                     -73.949608339423,
                                                     40.760820173186
                                                 ],
                                                 [
                                                     -73.949416256122,
                                                     40.761033425817
                                                 ],
                                                 [
                                                     -73.94942380306,
                                                     40.761037356232
                                                 ],
                                                 [
                                                     -73.949399743816,
                                                     40.761064067249
                                                 ],
                                                 [
                                                     -73.949392671595,
                                                     40.761060383779
                                                 ],
                                                 [
                                                     -73.949316763592,
                                                     40.761144656575
                                                 ],
                                                 [
                                                     -73.949289969876,
                                                     40.761130702268
                                                 ],
                                                 [
                                                     -73.949344690616,
                                                     40.761069952169
                                                 ],
                                                 [
                                                     -73.949335206929,
                                                     40.761065013232
                                                 ],
                                                 [
                                                     -73.949260151955,
                                                     40.761025927107
                                                 ],
                                                 [
                                                     -73.949280251143,
                                                     40.761003614243
                                                 ],
                                                 [
                                                     -73.949269713859,
                                                     40.76099812733
                                                 ],
                                                 [
                                                     -73.949294024415,
                                                     40.760971137294
                                                 ],
                                                 [
                                                     -73.949304560512,
                                                     40.760976624205
                                                 ],
                                                 [
                                                     -73.949347424556,
                                                     40.760929036968
                                                 ],
                                                 [
                                                     -73.949336889647,
                                                     40.760923550062
                                                 ],
                                                 [
                                                     -73.949362130609,
                                                     40.760895526641
                                                 ],
                                                 [
                                                     -73.949372666699,
                                                     40.760901013545
                                                 ],
                                                 [
                                                     -73.949393532701,
                                                     40.760877847319
                                                 ],
                                                 [
                                                     -73.949382996612,
                                                     40.760872360417
                                                 ],
                                                 [
                                                     -73.949408442591,
                                                     40.760844110149
                                                 ],
                                                 [
                                                     -73.949418978677,
                                                     40.760849597049
                                                 ],
                                                 [
                                                     -73.949461006924,
                                                     40.760802936922
                                                 ],
                                                 [
                                                     -73.949450472026,
                                                     40.760797450027
                                                 ],
                                                 [
                                                     -73.949475635848,
                                                     40.760769512095
                                                 ],
                                                 [
                                                     -73.949485675904,
                                                     40.760774740326
                                                 ],
                                                 [
                                                     -73.949507020685,
                                                     40.760751042991
                                                 ],
                                                 [
                                                     -73.949496980631,
                                                     40.760745814762
                                                 ],
                                                 [
                                                     -73.949522285463,
                                                     40.760717721994
                                                 ],
                                                 [
                                                     -73.94953232433,
                                                     40.760722950221
                                                 ],
                                                 [
                                                     -73.949553963031,
                                                     40.760698926123
                                                 ],
                                                 [
                                                     -73.949569451239,
                                                     40.760681730559
                                                 ],
                                                 [
                                                     -73.949574114174,
                                                     40.760676554697
                                                 ],
                                                 [
                                                     -73.949564074126,
                                                     40.760671326473
                                                 ],
                                                 [
                                                     -73.949586326778,
                                                     40.760646621855
                                                 ],
                                                 [
                                                     -73.949590077038,
                                                     40.760642457761
                                                 ],
                                                 [
                                                     -73.94960016918,
                                                     40.760647702214
                                                 ],
                                                 [
                                                     -73.949630891944,
                                                     40.760613518976
                                                 ],
                                                 [
                                                     -73.949608914167,
                                                     40.760602098167
                                                 ],
                                                 [
                                                     -73.949599386716,
                                                     40.760597147526
                                                 ],
                                                 [
                                                     -73.949594676367,
                                                     40.760602388205
                                                 ],
                                                 [
                                                     -73.949587807796,
                                                     40.7605988192
                                                 ],
                                                 [
                                                     -73.949568462863,
                                                     40.760588767403
                                                 ],
                                                 [
                                                     -73.949567326388,
                                                     40.760588177074
                                                 ],
                                                 [
                                                     -73.949557820252,
                                                     40.760583237245
                                                 ],
                                                 [
                                                     -73.949562352808,
                                                     40.760578194601
                                                 ],
                                                 [
                                                     -73.949532205463,
                                                     40.760562528823
                                                 ],
                                                 [
                                                     -73.949535748302,
                                                     40.760558586163
                                                 ],
                                                 [
                                                     -73.949522099896,
                                                     40.76055158146
                                                 ],
                                                 [
                                                     -73.949524859286,
                                                     40.760548472325
                                                 ],
                                                 [
                                                     -73.949526014958,
                                                     40.760547170701
                                                 ],
                                                 [
                                                     -73.949547343322,
                                                     40.760523142865
                                                 ],
                                                 [
                                                     -73.949553637758,
                                                     40.760526373932
                                                 ],
                                                 [
                                                     -73.94955402132,
                                                     40.76052657041
                                                 ],
                                                 [
                                                     -73.949562527155,
                                                     40.76053093618
                                                 ],
                                                 [
                                                     -73.949591166445,
                                                     40.760498674618
                                                 ],
                                                 [
                                                     -73.949592651629,
                                                     40.760497001229
                                                 ],
                                                 [
                                                     -73.949609938074,
                                                     40.760477527268
                                                 ],
                                                 [
                                                     -73.949615039206,
                                                     40.760480145465
                                                 ],
                                                 [
                                                     -73.949615513923,
                                                     40.760480388809
                                                 ],
                                                 [
                                                     -73.949638646006,
                                                     40.760492260374
                                                 ],
                                                 [
                                                     -73.949640348098,
                                                     40.760490343043
                                                 ],
                                                 [
                                                     -73.949641642447,
                                                     40.760488884791
                                                 ],
                                                 [
                                                     -73.94964488069,
                                                     40.76048523736
                                                 ],
                                                 [
                                                     -73.949667671835,
                                                     40.760496934072
                                                 ],
                                                 [
                                                     -73.949681675395,
                                                     40.760504120815
                                                 ],
                                                 [
                                                     -73.949674616929,
                                                     40.760512070992
                                                 ],
                                                 [
                                                     -73.949688206152,
                                                     40.760519045034
                                                 ],
                                                 [
                                                     -73.949738364008,
                                                     40.760544787149
                                                 ],
                                                 [
                                                     -73.949745421285,
                                                     40.760536836968
                                                 ],
                                                 [
                                                     -73.949781323436,
                                                     40.760555262545
                                                 ],
                                                 [
                                                     -73.949774266161,
                                                     40.760563212728
                                                 ],
                                                 [
                                                     -73.94982981764,
                                                     40.760591723505
                                                 ],
                                                 [
                                                     -73.949837951777,
                                                     40.760595898186
                                                 ],
                                                 [
                                                     -73.949843811897,
                                                     40.760589295534
                                                 ],
                                                 [
                                                     -73.949879263061,
                                                     40.760607489454
                                                 ],
                                                 [
                                                     -73.949873402943,
                                                     40.760614092108
                                                 ],
                                                 [
                                                     -73.949936430443,
                                                     40.760646439535
                                                 ],
                                                 [
                                                     -73.949942291742,
                                                     40.760639836879
                                                 ],
                                                 [
                                                     -73.94994336785,
                                                     40.760640389356
                                                 ],
                                                 [
                                                     -73.949979772059,
                                                     40.760659072634
                                                 ],
                                                 [
                                                     -73.949973910762,
                                                     40.760665675292
                                                 ],
                                                 [
                                                     -73.950036752497,
                                                     40.76069792713
                                                 ],
                                                 [
                                                     -73.950042737061,
                                                     40.760691184943
                                                 ],
                                                 [
                                                     -73.950078950727,
                                                     40.760709770853
                                                 ],
                                                 [
                                                     -73.950072966164,
                                                     40.760716513041
                                                 ],
                                                 [
                                                     -73.950084510977,
                                                     40.760722437963
                                                 ],
                                                 [
                                                     -73.950103232235,
                                                     40.760732046355
                                                 ],
                                                 [
                                                     -73.950109216796,
                                                     40.760725304165
                                                 ],
                                                 [
                                                     -73.950144541435,
                                                     40.760743432212
                                                 ],
                                                 [
                                                     -73.950138555692,
                                                     40.760750174403
                                                 ],
                                                 [
                                                     -73.950188266403,
                                                     40.760775687399
                                                 ],
                                                 [
                                                     -73.950196172104,
                                                     40.76077974489
                                                 ],
                                                 [
                                                     -73.950202271261,
                                                     40.76078287498
                                                 ],
                                                 [
                                                     -73.95020349062,
                                                     40.760783500457
                                                 ],
                                                 [
                                                     -73.950207251561,
                                                     40.760779263406
                                                 ],
                                                 [
                                                     -73.950209558145,
                                                     40.760776665546
                                                 ],
                                                 [
                                                     -73.950210517058,
                                                     40.760777157636
                                                 ],
                                                 [
                                                     -73.95022828062,
                                                     40.760786273919
                                                 ],
                                                 [
                                                     -73.950230355898,
                                                     40.760787338311
                                                 ],
                                                 [
                                                     -73.950245895024,
                                                     40.760795313591
                                                 ],
                                                 [
                                                     -73.950238644577,
                                                     40.76080348074
                                                 ],
                                                 [
                                                     -73.950269899235,
                                                     40.760819521421
                                                 ],
                                                 [
                                                     -73.950277148497,
                                                     40.760811353369
                                                 ],
                                                 [
                                                     -73.950313137363,
                                                     40.760829823842
                                                 ],
                                                 [
                                                     -73.950313737572,
                                                     40.760830132074
                                                 ],
                                                 [
                                                     -73.950306488313,
                                                     40.760838299228
                                                 ],
                                                 [
                                                     -73.9503693943,
                                                     40.760870583329
                                                 ],
                                                 [
                                                     -73.950375605237,
                                                     40.76086358638
                                                 ],
                                                 [
                                                     -73.950411583504,
                                                     40.760882050515
                                                 ],
                                                 [
                                                     -73.950405372569,
                                                     40.760889047466
                                                 ],
                                                 [
                                                     -73.950436750427,
                                                     40.76090515209
                                                 ],
                                                 [
                                                     -73.950442961361,
                                                     40.760898155138
                                                 ],
                                                 [
                                                     -73.950478878105,
                                                     40.760916587707
                                                 ],
                                                 [
                                                     -73.950472667174,
                                                     40.760923584662
                                                 ],
                                                 [
                                                     -73.950504693815,
                                                     40.760940020932
                                                 ],
                                                 [
                                                     -73.950510904744,
                                                     40.760933023976
                                                 ],
                                                 [
                                                     -73.950512862829,
                                                     40.76093402888
                                                 ],
                                                 [
                                                     -73.950546996735,
                                                     40.76095154755
                                                 ],
                                                 [
                                                     -73.950530245008,
                                                     40.760970419443
                                                 ],
                                                 [
                                                     -73.950538614821,
                                                     40.760974714842
                                                 ],
                                                 [
                                                     -73.950561145843,
                                                     40.760986278891
                                                 ],
                                                 [
                                                     -73.950566564755,
                                                     40.761001244905
                                                 ],
                                                 [
                                                     -73.950563277817,
                                                     40.761005113865
                                                 ],
                                                 [
                                                     -73.950542532017,
                                                     40.761007249063
                                                 ],
                                                 [
                                                     -73.950520661578,
                                                     40.760996024785
                                                 ],
                                                 [
                                                     -73.950509509157,
                                                     40.761008588341
                                                 ],
                                                 [
                                                     -73.950526566064,
                                                     40.76101734227
                                                 ],
                                                 [
                                                     -73.95049916445,
                                                     40.761048211513
                                                 ],
                                                 [
                                                     -73.950473471355,
                                                     40.761035025184
                                                 ],
                                                 [
                                                     -73.950464131234,
                                                     40.76104554717
                                                 ],
                                                 [
                                                     -73.950445321786,
                                                     40.761066737866
                                                 ],
                                                 [
                                                     -73.950465008331,
                                                     40.761082808637
                                                 ],
                                                 [
                                                     -73.950483997754,
                                                     40.761098309985
                                                 ],
                                                 [
                                                     -73.950455772593,
                                                     40.761118575419
                                                 ],
                                                 [
                                                     -73.950464234108,
                                                     40.761125388675
                                                 ],
                                                 [
                                                     -73.950431390046,
                                                     40.761148970477
                                                 ],
                                                 [
                                                     -73.950422929715,
                                                     40.761142158119
                                                 ],
                                                 [
                                                     -73.950396558943,
                                                     40.76116109339
                                                 ],
                                                 [
                                                     -73.950405483242,
                                                     40.761168279659
                                                 ],
                                                 [
                                                     -73.950373470964,
                                                     40.761191265668
                                                 ],
                                                 [
                                                     -73.950364546666,
                                                     40.761184078496
                                                 ],
                                                 [
                                                     -73.950337059648,
                                                     40.761203814722
                                                 ],
                                                 [
                                                     -73.950345666744,
                                                     40.761210745115
                                                 ],
                                                 [
                                                     -73.950312913838,
                                                     40.761234262986
                                                 ],
                                                 [
                                                     -73.950304310293,
                                                     40.761227336194
                                                 ],
                                                 [
                                                     -73.950277176352,
                                                     40.761246818615
                                                 ],
                                                 [
                                                     -73.95028568876,
                                                     40.761253672428
                                                 ],
                                                 [
                                                     -73.950253194128,
                                                     40.76127700489
                                                 ],
                                                 [
                                                     -73.950244681721,
                                                     40.761270151074
                                                 ],
                                                 [
                                                     -73.950217513381,
                                                     40.76128965868
                                                 ],
                                                 [
                                                     -73.950226024604,
                                                     40.761296512498
                                                 ],
                                                 [
                                                     -73.950193650795,
                                                     40.761319758546
                                                 ],
                                                 [
                                                     -73.950185138388,
                                                     40.761312904726
                                                 ],
                                                 [
                                                     -73.950158000823,
                                                     40.761332389818
                                                 ],
                                                 [
                                                     -73.950166224431,
                                                     40.761339012086
                                                 ],
                                                 [
                                                     -73.95013686745,
                                                     40.761360090107
                                                 ],
                                                 [
                                                     -73.950129017856,
                                                     40.761353769668
                                                 ],
                                                 [
                                                     -73.950072243594,
                                                     40.761394533444
                                                 ],
                                                 [
                                                     -73.950080883827,
                                                     40.761401490886
                                                 ],
                                                 [
                                                     -73.950047328525,
                                                     40.761425583756
                                                 ],
                                                 [
                                                     -73.950038810202,
                                                     40.761418725419
                                                 ],
                                                 [
                                                     -73.950012400108,
                                                     40.7614376885
                                                 ],
                                                 [
                                                     -73.95002091843,
                                                     40.761444547739
                                                 ],
                                                 [
                                                     -73.949989035047,
                                                     40.761467440044
                                                 ],
                                                 [
                                                     -73.949980516725,
                                                     40.761460580803
                                                 ],
                                                 [
                                                     -73.949952271112,
                                                     40.761480861412
                                                 ],
                                                 [
                                                     -73.949929206436,
                                                     40.761462289285
                                                 ],
                                                 [
                                                     -73.949913757004,
                                                     40.7614498493
                                                 ],
                                                 [
                                                     -73.949878158116,
                                                     40.761421185158
                                                 ],
                                                 [
                                                     -73.949869934514,
                                                     40.7614303145
                                                 ]
                                             ]
                                         ]
                                     ]
                 }
}
