{
    "type":  "Feature",
    "id":  "1084704",
    "properties":  {
                       "bin":  "1084704",
                       "bbl":  "1013737505",
                       "address":  "555 MAIN STREET",
                       "building_use":  "Mixed Residential \u0026 Commercial Buildings",
                       "pluto_landuse_code":  "4",
                       "building_class":  "RM",
                       "pluto_year_built":  "1975",
                       "pluto_floors":  "19.0000000",
                       "residential_units":  "400",
                       "total_units":  "403",
                       "building_area_sqft":  "556913",
                       "lot_area_sqft":  "118727",
                       "construction_year":  "1975",
                       "height_roof":  "168",
                       "feature_code":  "2100",
                       "geometry_source":  "Other (Manual)",
                       "last_status_type":  "Constructed",
                       "retrieved_on":  "2026-09-29",
                       "source_footprint":  "NYC DoITT BUILDING (Socrata 5zhs-2jue)",
                       "source_taxlot":  "NYC DCP PLUTO 26v2 (Socrata 64uk-42ks)",
                       "source_boundary":  "OpenStreetMap relation 2389564 (Roosevelt Island)",
                       "source_attributes":  {
                                                 "building":  {
                                                                  "name":  null,
                                                                  "base_bbl":  "1013730045",
                                                                  "shape_area":  "3992.47265625",
                                                                  "construction_year":  "1975",
                                                                  "ground_elevation":  "21",
                                                                  "mappluto_bbl":  "1013737505",
                                                                  "objectid":  "54732",
                                                                  "feature_code":  "2100",
                                                                  "shape_length":  "573.26430240686386",
                                                                  "height_roof":  "168",
                                                                  "last_status_type":  "Constructed",
                                                                  "bin":  "1084704",
                                                                  "last_edited_date":  "2019-02-27T17:13:33.000Z",
                                                                  "geom_source":  "Other (Manual)",
                                                                  "doitt_id":  "509338"
                                                              },
                                                 "pluto":  {
                                                               "borough":  "MN",
                                                               "block":  "1373",
                                                               "lot":  "7505",
                                                               "cd":  "108",
                                                               "ct2010":  "238.01",
                                                               "cb2010":  "1009",
                                                               "schooldist":  "2",
                                                               "council":  "5",
                                                               "zipcode":  "10044",
                                                               "firecomp":  "E260",
                                                               "policeprct":  "114",
                                                               "healtharea":  "8300",
                                                               "sanitboro":  "1",
                                                               "address":  "555 MAIN STREET",
                                                               "zonedist1":  "R7-2",
                                                               "splitzone":  false,
                                                               "bldgclass":  "RM",
                                                               "landuse":  "4",
                                                               "easements":  "0",
                                                               "ownertype":  "X",
                                                               "ownername":  "ISLAND HOUSE TENANTS CORP.",
                                                               "lotarea":  "118727",
                                                               "bldgarea":  "556913",
                                                               "comarea":  "35165",
                                                               "resarea":  "521748",
                                                               "officearea":  "6344",
                                                               "retailarea":  "16450",
                                                               "garagearea":  "0",
                                                               "strgearea":  "0",
                                                               "factryarea":  "0",
                                                               "otherarea":  "12371",
                                                               "areasource":  "2",
                                                               "numbldgs":  "3",
                                                               "numfloors":  "19.0000000",
                                                               "unitsres":  "400",
                                                               "unitstotal":  "403",
                                                               "lotfront":  "31.0000000",
                                                               "lotdepth":  "281.0000000",
                                                               "bldgfront":  "431.0000000",
                                                               "bldgdepth":  "281.0000000",
                                                               "proxcode":  "1",
                                                               "irrlotcode":  true,
                                                               "lottype":  "0",
                                                               "bsmtcode":  "5",
                                                               "assessland":  "3214352.00000",
                                                               "assesstot":  "38829748.00000",
                                                               "exempttot":  "38829748.00000",
                                                               "yearbuilt":  "1975",
                                                               "yearalter1":  "0",
                                                               "yearalter2":  "0",
                                                               "builtfar":  "4.69000000000",
                                                               "residfar":  "3.44000000000",
                                                               "commfar":  "0.00000000000",
                                                               "facilfar":  "6.50000000000",
                                                               "affresfar":  "5.01000000000",
                                                               "mnffar":  "0.00000000000",
                                                               "borocode":  "1",
                                                               "bbl":  "1013737505.00000000",
                                                               "condono":  "2415",
                                                               "tract2010":  "23801",
                                                               "xcoord":  "998241",
                                                               "ycoord":  "217128",
                                                               "latitude":  "40.7626315",
                                                               "longitude":  "-73.9494947",
                                                               "zonemap":  "9a",
                                                               "sanborn":  "16E 070",
                                                               "taxmap":  "10507",
                                                               "appbbl":  "1013730045.00000000",
                                                               "appdate":  "2013-08-07T00:00:00.000",
                                                               "plutomapid":  "1",
                                                               "version":  "26v2",
                                                               "sanitdistrict":  "8",
                                                               "healthcenterdistrict":  "13",
                                                               "bct2020":  "1023803",
                                                               "bctcb2020":  "10238032000",
                                                               "transitzone":  "Inner Transit Zone"
                                                           }
                                             }
                   },
    "geometry":  {
                     "type":  "MultiPolygon",
                     "coordinates":  [
                                         [
                                             [
                                                 [
                                                     -73.950308539634,
                                                     40.762244679662
                                                 ],
                                                 [
                                                     -73.95025803255,
                                                     40.762302369412
                                                 ],
                                                 [
                                                     -73.950219284283,
                                                     40.762282756793
                                                 ],
                                                 [
                                                     -73.950179037374,
                                                     40.762328726369
                                                 ],
                                                 [
                                                     -73.950042872803,
                                                     40.762259804914
                                                 ],
                                                 [
                                                     -73.950045264816,
                                                     40.762257072919
                                                 ],
                                                 [
                                                     -73.950016272937,
                                                     40.762242398328
                                                 ],
                                                 [
                                                     -73.94993848659,
                                                     40.762203026007
                                                 ],
                                                 [
                                                     -73.949942047351,
                                                     40.762198958174
                                                 ],
                                                 [
                                                     -73.949928380737,
                                                     40.762192039961
                                                 ],
                                                 [
                                                     -73.949792395867,
                                                     40.762347361063
                                                 ],
                                                 [
                                                     -73.949883938919,
                                                     40.762393696766
                                                 ],
                                                 [
                                                     -73.949873644203,
                                                     40.762405454679
                                                 ],
                                                 [
                                                     -73.949837449678,
                                                     40.762446797304
                                                 ],
                                                 [
                                                     -73.949747098896,
                                                     40.762549994486
                                                 ],
                                                 [
                                                     -73.949756752225,
                                                     40.762554880332
                                                 ],
                                                 [
                                                     -73.949760505042,
                                                     40.762550593766
                                                 ],
                                                 [
                                                     -73.949839712344,
                                                     40.762590684525
                                                 ],
                                                 [
                                                     -73.949866462069,
                                                     40.762604224449
                                                 ],
                                                 [
                                                     -73.94986860992,
                                                     40.762601772409
                                                 ],
                                                 [
                                                     -73.949993397917,
                                                     40.762664934005
                                                 ],
                                                 [
                                                     -73.950004019694,
                                                     40.762670311025
                                                 ],
                                                 [
                                                     -73.949980219106,
                                                     40.762697495934
                                                 ],
                                                 [
                                                     -73.949961442007,
                                                     40.762718943204
                                                 ],
                                                 [
                                                     -73.949968187762,
                                                     40.762722358145
                                                 ],
                                                 [
                                                     -73.95000036685,
                                                     40.762738645134
                                                 ],
                                                 [
                                                     -73.950021316685,
                                                     40.762714715209
                                                 ],
                                                 [
                                                     -73.9501327236,
                                                     40.762771104455
                                                 ],
                                                 [
                                                     -73.950190273396,
                                                     40.762800233659
                                                 ],
                                                 [
                                                     -73.950282920729,
                                                     40.762847127831
                                                 ],
                                                 [
                                                     -73.950186402728,
                                                     40.762957370039
                                                 ],
                                                 [
                                                     -73.950093108907,
                                                     40.762910149527
                                                 ],
                                                 [
                                                     -73.950075242889,
                                                     40.762901106124
                                                 ],
                                                 [
                                                     -73.949925184388,
                                                     40.762825152777
                                                 ],
                                                 [
                                                     -73.949951238395,
                                                     40.762795393415
                                                 ],
                                                 [
                                                     -73.949936464727,
                                                     40.76278791551
                                                 ],
                                                 [
                                                     -73.94990898209,
                                                     40.762774005176
                                                 ],
                                                 [
                                                     -73.949905015907,
                                                     40.762778535691
                                                 ],
                                                 [
                                                     -73.949859805844,
                                                     40.762755652213
                                                 ],
                                                 [
                                                     -73.949772327753,
                                                     40.762711374118
                                                 ],
                                                 [
                                                     -73.949775838767,
                                                     40.762707363
                                                 ],
                                                 [
                                                     -73.94972685696,
                                                     40.762682569655
                                                 ],
                                                 [
                                                     -73.949669018602,
                                                     40.762653294211
                                                 ],
                                                 [
                                                     -73.949673129406,
                                                     40.762648599875
                                                 ],
                                                 [
                                                     -73.949661712094,
                                                     40.762642820852
                                                 ],
                                                 [
                                                     -73.949600893926,
                                                     40.762712286206
                                                 ],
                                                 [
                                                     -73.949593259048,
                                                     40.762721006955
                                                 ],
                                                 [
                                                     -73.949467462664,
                                                     40.762657332997
                                                 ],
                                                 [
                                                     -73.949531896254,
                                                     40.762583737782
                                                 ],
                                                 [
                                                     -73.949535823334,
                                                     40.762579252287
                                                 ],
                                                 [
                                                     -73.949527660517,
                                                     40.762575119898
                                                 ],
                                                 [
                                                     -73.949523381993,
                                                     40.762572955011
                                                 ],
                                                 [
                                                     -73.949525439769,
                                                     40.762570604695
                                                 ],
                                                 [
                                                     -73.949579073465,
                                                     40.762509346136
                                                 ],
                                                 [
                                                     -73.949630846666,
                                                     40.762535551856
                                                 ],
                                                 [
                                                     -73.949655869436,
                                                     40.762506970869
                                                 ],
                                                 [
                                                     -73.949619472401,
                                                     40.762488548644
                                                 ],
                                                 [
                                                     -73.949707349477,
                                                     40.762388176265
                                                 ],
                                                 [
                                                     -73.949759260552,
                                                     40.762328884472
                                                 ],
                                                 [
                                                     -73.949667347124,
                                                     40.762282360303
                                                 ],
                                                 [
                                                     -73.94980453883,
                                                     40.7621256621
                                                 ],
                                                 [
                                                     -73.949845197649,
                                                     40.762146242832
                                                 ],
                                                 [
                                                     -73.949872635903,
                                                     40.762114901901
                                                 ],
                                                 [
                                                     -73.949821593381,
                                                     40.762089064913
                                                 ],
                                                 [
                                                     -73.949876804102,
                                                     40.762026003187
                                                 ],
                                                 [
                                                     -73.949891066163,
                                                     40.762033222434
                                                 ],
                                                 [
                                                     -73.949958530767,
                                                     40.76195616495
                                                 ],
                                                 [
                                                     -73.950007402026,
                                                     40.76198090232
                                                 ],
                                                 [
                                                     -73.950014969314,
                                                     40.761984731848
                                                 ],
                                                 [
                                                     -73.95008415582,
                                                     40.762019751856
                                                 ],
                                                 [
                                                     -73.950015412319,
                                                     40.762098270376
                                                 ],
                                                 [
                                                     -73.950024738852,
                                                     40.762102991266
                                                 ],
                                                 [
                                                     -73.950029168453,
                                                     40.762097932351
                                                 ],
                                                 [
                                                     -73.950105081845,
                                                     40.76213635737
                                                 ],
                                                 [
                                                     -73.950270033331,
                                                     40.762219848741
                                                 ],
                                                 [
                                                     -73.950266793814,
                                                     40.762223549317
                                                 ],
                                                 [
                                                     -73.950308539634,
                                                     40.762244679662
                                                 ]
                                             ]
                                         ]
                                     ]
                 }
}
