{
    "type":  "Feature",
    "id":  "1089280",
    "properties":  {
                       "bin":  "1089280",
                       "bbl":  "1013730050",
                       "address":  "900 MAIN STREET",
                       "building_use":  "Public Facilities \u0026 Institutions",
                       "pluto_landuse_code":  "8",
                       "building_class":  "I1",
                       "pluto_year_built":  "1900",
                       "pluto_floors":  "8.0000000",
                       "residential_units":  "0",
                       "total_units":  "1",
                       "building_area_sqft":  "661538",
                       "lot_area_sqft":  "490397",
                       "construction_year":  "1900",
                       "height_roof":  "10",
                       "feature_code":  "2100",
                       "geometry_source":  "Other (Manual)",
                       "last_status_type":  "Constructed",
                       "retrieved_on":  "2026-09-29",
                       "source_footprint":  "NYC DoITT BUILDING (Socrata 5zhs-2jue)",
                       "source_taxlot":  "NYC DCP PLUTO 26v2 (Socrata 64uk-42ks)",
                       "source_boundary":  "OpenStreetMap relation 2389564 (Roosevelt Island)",
                       "source_attributes":  {
                                                 "building":  {
                                                                  "name":  null,
                                                                  "base_bbl":  "1013730050",
                                                                  "shape_area":  "157.76171875",
                                                                  "construction_year":  "1900",
                                                                  "ground_elevation":  "11",
                                                                  "mappluto_bbl":  "1013730050",
                                                                  "objectid":  "1059718",
                                                                  "feature_code":  "2100",
                                                                  "shape_length":  "52.399581700779891",
                                                                  "height_roof":  "10",
                                                                  "last_status_type":  "Constructed",
                                                                  "bin":  "1089280",
                                                                  "last_edited_date":  "2017-08-10T15:35:05.000Z",
                                                                  "geom_source":  "Other (Manual)",
                                                                  "doitt_id":  "329478"
                                                              },
                                                 "pluto":  {
                                                               "borough":  "MN",
                                                               "block":  "1373",
                                                               "lot":  "50",
                                                               "cd":  "108",
                                                               "ct2010":  "238.02",
                                                               "cb2010":  "1000",
                                                               "schooldist":  "2",
                                                               "council":  "5",
                                                               "zipcode":  "10044",
                                                               "firecomp":  "E260",
                                                               "policeprct":  "114",
                                                               "healtharea":  "8300",
                                                               "sanitboro":  "1",
                                                               "address":  "900 MAIN STREET",
                                                               "zonedist1":  "R7-2",
                                                               "splitzone":  false,
                                                               "bldgclass":  "I1",
                                                               "landuse":  "8",
                                                               "easements":  "0",
                                                               "ownertype":  "C",
                                                               "ownername":  "NYC HEALTH AND HOSPITALS CORPORATION",
                                                               "lotarea":  "490397",
                                                               "bldgarea":  "661538",
                                                               "comarea":  "661538",
                                                               "resarea":  "0",
                                                               "officearea":  "0",
                                                               "retailarea":  "0",
                                                               "garagearea":  "0",
                                                               "strgearea":  "0",
                                                               "factryarea":  "0",
                                                               "otherarea":  "661538",
                                                               "areasource":  "2",
                                                               "numbldgs":  "4",
                                                               "numfloors":  "8.0000000",
                                                               "unitsres":  "0",
                                                               "unitstotal":  "1",
                                                               "lotfront":  "465.5800000",
                                                               "lotdepth":  "1053.2500000",
                                                               "bldgfront":  "200.0000000",
                                                               "bldgdepth":  "400.0000000",
                                                               "ext":  "N",
                                                               "proxcode":  "0",
                                                               "irrlotcode":  false,
                                                               "lottype":  "5",
                                                               "bsmtcode":  "0",
                                                               "assessland":  "39784050.00000",
                                                               "assesstot":  "116261550.00000",
                                                               "exempttot":  "116261550.00000",
                                                               "yearbuilt":  "1900",
                                                               "yearalter1":  "0",
                                                               "yearalter2":  "0",
                                                               "builtfar":  "1.35000000000",
                                                               "residfar":  "3.44000000000",
                                                               "commfar":  "0.00000000000",
                                                               "facilfar":  "6.50000000000",
                                                               "affresfar":  "5.01000000000",
                                                               "mnffar":  "0.00000000000",
                                                               "borocode":  "1",
                                                               "bbl":  "1013730050.00000000",
                                                               "tract2010":  "23802",
                                                               "xcoord":  "1000315",
                                                               "ycoord":  "219954",
                                                               "latitude":  "40.7703846",
                                                               "longitude":  "-73.9420011",
                                                               "zonemap":  "9a",
                                                               "sanborn":  "106E070",
                                                               "taxmap":  "10507",
                                                               "plutomapid":  "1",
                                                               "version":  "26v2",
                                                               "sanitdistrict":  "8",
                                                               "healthcenterdistrict":  "13",
                                                               "firm07_flag":  "1",
                                                               "pfirm15_flag":  "1",
                                                               "dcpedited":  "t",
                                                               "bct2020":  "1023802",
                                                               "bctcb2020":  "10238023000",
                                                               "transitzone":  "Inner Transit Zone"
                                                           }
                                             }
                   },
    "geometry":  {
                     "type":  "MultiPolygon",
                     "coordinates":  [
                                         [
                                             [
                                                 [
                                                     -73.941872476219,
                                                     40.771165331699
                                                 ],
                                                 [
                                                     -73.941937070359,
                                                     40.77108697273
                                                 ],
                                                 [
                                                     -73.941952493201,
                                                     40.771068263534
                                                 ],
                                                 [
                                                     -73.942023810772,
                                                     40.77110224212
                                                 ],
                                                 [
                                                     -73.942008973694,
                                                     40.771120241123
                                                 ],
                                                 [
                                                     -73.941943793852,
                                                     40.771199311234
                                                 ],
                                                 [
                                                     -73.941872476219,
                                                     40.771165331699
                                                 ]
                                             ]
                                         ]
                                     ]
                 }
}
