{
    "type":  "Feature",
    "id":  "1084848",
    "properties":  {
                       "bin":  "1084848",
                       "bbl":  "1013730001",
                       "address":  "MAIN STREET",
                       "building_use":  "Multi-Family Elevator Buildings",
                       "pluto_landuse_code":  "3",
                       "building_class":  "D4",
                       "pluto_year_built":  "1975",
                       "pluto_floors":  "18.0000000",
                       "residential_units":  "8018",
                       "total_units":  "8088",
                       "building_area_sqft":  "4786701",
                       "lot_area_sqft":  "4227757",
                       "construction_year":  "1975",
                       "height_roof":  "51.61",
                       "feature_code":  "2100",
                       "geometry_source":  "Photogrammetric",
                       "last_status_type":  "Constructed",
                       "retrieved_on":  "2026-09-29",
                       "source_footprint":  "NYC DoITT BUILDING (Socrata 5zhs-2jue)",
                       "source_taxlot":  "NYC DCP PLUTO 26v2 (Socrata 64uk-42ks)",
                       "source_boundary":  "OpenStreetMap relation 2389564 (Roosevelt Island)",
                       "source_attributes":  {
                                                 "building":  {
                                                                  "name":  null,
                                                                  "base_bbl":  "1013730001",
                                                                  "shape_area":  "4966.4609375",
                                                                  "construction_year":  "1975",
                                                                  "ground_elevation":  "16",
                                                                  "mappluto_bbl":  "1013730001",
                                                                  "objectid":  "789522",
                                                                  "feature_code":  "2100",
                                                                  "shape_length":  "505.78386832103962",
                                                                  "height_roof":  "51.61",
                                                                  "last_status_type":  "Constructed",
                                                                  "bin":  "1084848",
                                                                  "last_edited_date":  "2017-08-22T19:32:09.000Z",
                                                                  "geom_source":  "Photogrammetric",
                                                                  "doitt_id":  "120032"
                                                              },
                                                 "pluto":  {
                                                               "borough":  "MN",
                                                               "block":  "1373",
                                                               "lot":  "1",
                                                               "cd":  "108",
                                                               "ct2010":  "238.01",
                                                               "cb2010":  "1015",
                                                               "schooldist":  "2",
                                                               "council":  "5",
                                                               "zipcode":  "10044",
                                                               "firecomp":  "E260",
                                                               "policeprct":  "114",
                                                               "healtharea":  "8300",
                                                               "sanitboro":  "1",
                                                               "address":  "MAIN STREET",
                                                               "zonedist1":  "R7-2",
                                                               "splitzone":  false,
                                                               "bldgclass":  "D4",
                                                               "landuse":  "3",
                                                               "easements":  "1",
                                                               "ownertype":  "C",
                                                               "ownername":  "RIVERWALK 8 AFFORDABLE, L.P.",
                                                               "lotarea":  "4227757",
                                                               "bldgarea":  "4786701",
                                                               "comarea":  "1046956",
                                                               "resarea":  "3739745",
                                                               "officearea":  "7496",
                                                               "retailarea":  "537154",
                                                               "garagearea":  "406500",
                                                               "strgearea":  "0",
                                                               "factryarea":  "0",
                                                               "otherarea":  "95806",
                                                               "areasource":  "2",
                                                               "numbldgs":  "38",
                                                               "numfloors":  "18.0000000",
                                                               "unitsres":  "8018",
                                                               "unitstotal":  "8088",
                                                               "lotfront":  "200.0000000",
                                                               "lotdepth":  "102.5000000",
                                                               "bldgfront":  "0.0000000",
                                                               "bldgdepth":  "0.0000000",
                                                               "ext":  "N",
                                                               "proxcode":  "0",
                                                               "irrlotcode":  true,
                                                               "lottype":  "7",
                                                               "bsmtcode":  "0",
                                                               "assessland":  "134391150.00000",
                                                               "assesstot":  "592936650.00000",
                                                               "exempttot":  "592936650.00000",
                                                               "yearbuilt":  "1975",
                                                               "yearalter1":  "0",
                                                               "yearalter2":  "0",
                                                               "landmark":  "INDIVIDUAL LANDMARK",
                                                               "builtfar":  "1.13000000000",
                                                               "residfar":  "3.44000000000",
                                                               "commfar":  "0.00000000000",
                                                               "facilfar":  "6.50000000000",
                                                               "affresfar":  "5.01000000000",
                                                               "mnffar":  "0.00000000000",
                                                               "borocode":  "1",
                                                               "bbl":  "1013730001.00000000",
                                                               "tract2010":  "23801",
                                                               "xcoord":  "996792",
                                                               "ycoord":  "215349",
                                                               "latitude":  "40.7577508",
                                                               "longitude":  "-73.9547287",
                                                               "zonemap":  "9a",
                                                               "zmcode":  true,
                                                               "sanborn":  "106E070",
                                                               "taxmap":  "10507",
                                                               "appbbl":  "1013730001.00000000",
                                                               "appdate":  "2023-12-06T00:00:00.000",
                                                               "plutomapid":  "1",
                                                               "version":  "26v2",
                                                               "sanitdistrict":  "8",
                                                               "healthcenterdistrict":  "13",
                                                               "firm07_flag":  "1",
                                                               "pfirm15_flag":  "1",
                                                               "bct2020":  "1023804",
                                                               "bctcb2020":  "10238041000",
                                                               "transitzone":  "Inner Transit Zone"
                                                           }
                                             }
                   },
    "geometry":  {
                     "type":  "MultiPolygon",
                     "coordinates":  [
                                         [
                                             [
                                                 [
                                                     -73.948506265463,
                                                     40.764314186041
                                                 ],
                                                 [
                                                     -73.9483303464,
                                                     40.764222816844
                                                 ],
                                                 [
                                                     -73.948170912137,
                                                     40.764140009587
                                                 ],
                                                 [
                                                     -73.948190182909,
                                                     40.764118559233
                                                 ],
                                                 [
                                                     -73.948229299324,
                                                     40.764075020317
                                                 ],
                                                 [
                                                     -73.948176718606,
                                                     40.764047710493
                                                 ],
                                                 [
                                                     -73.948116222594,
                                                     40.764115046402
                                                 ],
                                                 [
                                                     -73.948058994571,
                                                     40.764178743013
                                                 ],
                                                 [
                                                     -73.948030765009,
                                                     40.764164080877
                                                 ],
                                                 [
                                                     -73.948048882452,
                                                     40.764143915046
                                                 ],
                                                 [
                                                     -73.948032118754,
                                                     40.764135207713
                                                 ],
                                                 [
                                                     -73.94792921034,
                                                     40.764081758634
                                                 ],
                                                 [
                                                     -73.94808480859,
                                                     40.763908569991
                                                 ],
                                                 [
                                                     -73.948105850832,
                                                     40.763884441448
                                                 ],
                                                 [
                                                     -73.948127604568,
                                                     40.763860679726
                                                 ],
                                                 [
                                                     -73.948150057946,
                                                     40.763837295627
                                                 ],
                                                 [
                                                     -73.948173199112,
                                                     40.763814302652
                                                 ],
                                                 [
                                                     -73.948197013843,
                                                     40.763791713401
                                                 ],
                                                 [
                                                     -73.948221491472,
                                                     40.763769539575
                                                 ],
                                                 [
                                                     -73.948246618959,
                                                     40.763747793776
                                                 ],
                                                 [
                                                     -73.948272380901,
                                                     40.763726486801
                                                 ],
                                                 [
                                                     -73.94829341364,
                                                     40.763709859422
                                                 ],
                                                 [
                                                     -73.948298764259,
                                                     40.763705630352
                                                 ],
                                                 [
                                                     -73.948363372439,
                                                     40.763660347741
                                                 ],
                                                 [
                                                     -73.948410658337,
                                                     40.763627206044
                                                 ],
                                                 [
                                                     -73.948435628458,
                                                     40.763609705111
                                                 ],
                                                 [
                                                     -73.948423367636,
                                                     40.763599591459
                                                 ],
                                                 [
                                                     -73.948468314293,
                                                     40.763568089411
                                                 ],
                                                 [
                                                     -73.948573418512,
                                                     40.763654783818
                                                 ],
                                                 [
                                                     -73.94859475661,
                                                     40.763639827856
                                                 ],
                                                 [
                                                     -73.948617887601,
                                                     40.763658907257
                                                 ],
                                                 [
                                                     -73.948615671672,
                                                     40.76366046054
                                                 ],
                                                 [
                                                     -73.948488652543,
                                                     40.763749486228
                                                 ],
                                                 [
                                                     -73.948441097603,
                                                     40.763782816042
                                                 ],
                                                 [
                                                     -73.948423276236,
                                                     40.763795630349
                                                 ],
                                                 [
                                                     -73.948406077457,
                                                     40.763808926702
                                                 ],
                                                 [
                                                     -73.948389523781,
                                                     40.763822688902
                                                 ],
                                                 [
                                                     -73.948388738012,
                                                     40.763823390943
                                                 ],
                                                 [
                                                     -73.948373637725,
                                                     40.763836898949
                                                 ],
                                                 [
                                                     -73.948358440624,
                                                     40.763851537043
                                                 ],
                                                 [
                                                     -73.948343950255,
                                                     40.763866585181
                                                 ],
                                                 [
                                                     -73.948330187955,
                                                     40.763882022662
                                                 ],
                                                 [
                                                     -73.948317171504,
                                                     40.763897829683
                                                 ],
                                                 [
                                                     -73.948463487425,
                                                     40.763983750221
                                                 ],
                                                 [
                                                     -73.948668111579,
                                                     40.764103909431
                                                 ],
                                                 [
                                                     -73.94872693209,
                                                     40.764138449256
                                                 ],
                                                 [
                                                     -73.948737835087,
                                                     40.764144852192
                                                 ],
                                                 [
                                                     -73.948803823717,
                                                     40.764183602323
                                                 ],
                                                 [
                                                     -73.948813707458,
                                                     40.764189405963
                                                 ],
                                                 [
                                                     -73.948837758629,
                                                     40.764165727976
                                                 ],
                                                 [
                                                     -73.94882069027,
                                                     40.764155704985
                                                 ],
                                                 [
                                                     -73.948785231236,
                                                     40.764134883073
                                                 ],
                                                 [
                                                     -73.948783096342,
                                                     40.764132690296
                                                 ],
                                                 [
                                                     -73.948781629655,
                                                     40.76413020065
                                                 ],
                                                 [
                                                     -73.948780897408,
                                                     40.764127529428
                                                 ],
                                                 [
                                                     -73.948780933852,
                                                     40.764124801817
                                                 ],
                                                 [
                                                     -73.948781737705,
                                                     40.764122142984
                                                 ],
                                                 [
                                                     -73.948783272159,
                                                     40.764119676284
                                                 ],
                                                 [
                                                     -73.948785464878,
                                                     40.764117517849
                                                 ],
                                                 [
                                                     -73.948788215116,
                                                     40.76411576579
                                                 ],
                                                 [
                                                     -73.948791396085,
                                                     40.764114501995
                                                 ],
                                                 [
                                                     -73.948794857324,
                                                     40.764113785831
                                                 ],
                                                 [
                                                     -73.948798441291,
                                                     40.764113649647
                                                 ],
                                                 [
                                                     -73.948801979801,
                                                     40.76411409967
                                                 ],
                                                 [
                                                     -73.94880530943,
                                                     40.764115116018
                                                 ],
                                                 [
                                                     -73.948830755688,
                                                     40.764130058587
                                                 ],
                                                 [
                                                     -73.948843780429,
                                                     40.764117236685
                                                 ],
                                                 [
                                                     -73.948812567555,
                                                     40.764091491808
                                                 ],
                                                 [
                                                     -73.948901082977,
                                                     40.764029453023
                                                 ],
                                                 [
                                                     -73.948913424436,
                                                     40.764039632396
                                                 ],
                                                 [
                                                     -73.948969287132,
                                                     40.76408570985
                                                 ],
                                                 [
                                                     -73.948983553159,
                                                     40.764097476756
                                                 ],
                                                 [
                                                     -73.948948400355,
                                                     40.764122115196
                                                 ],
                                                 [
                                                     -73.948895038907,
                                                     40.764159515603
                                                 ],
                                                 [
                                                     -73.948884064495,
                                                     40.764150464267
                                                 ],
                                                 [
                                                     -73.948833002598,
                                                     40.764200735676
                                                 ],
                                                 [
                                                     -73.948873169398,
                                                     40.764223240903
                                                 ],
                                                 [
                                                     -73.948902013886,
                                                     40.764239402446
                                                 ],
                                                 [
                                                     -73.948868469063,
                                                     40.764276740487
                                                 ],
                                                 [
                                                     -73.94884738167,
                                                     40.764265787296
                                                 ],
                                                 [
                                                     -73.948843640635,
                                                     40.764269951369
                                                 ],
                                                 [
                                                     -73.948771522495,
                                                     40.764350223608
                                                 ],
                                                 [
                                                     -73.948750638547,
                                                     40.764373468947
                                                 ],
                                                 [
                                                     -73.948709203699,
                                                     40.764419587852
                                                 ],
                                                 [
                                                     -73.948662079048,
                                                     40.764395111865
                                                 ],
                                                 [
                                                     -73.948506265463,
                                                     40.764314186041
                                                 ]
                                             ]
                                         ]
                                     ]
                 }
}
