{
    "type":  "Feature",
    "id":  "1089275",
    "properties":  {
                       "bin":  "1089275",
                       "bbl":  "1013730001",
                       "address":  "MAIN STREET",
                       "building_use":  "Multi-Family Elevator Buildings",
                       "pluto_landuse_code":  "3",
                       "building_class":  "D4",
                       "pluto_year_built":  "1975",
                       "pluto_floors":  "18.0000000",
                       "residential_units":  "8018",
                       "total_units":  "8088",
                       "building_area_sqft":  "4786701",
                       "lot_area_sqft":  "4227757",
                       "construction_year":  "1975",
                       "height_roof":  "38",
                       "feature_code":  "2100",
                       "geometry_source":  "Other (Manual)",
                       "last_status_type":  "Constructed",
                       "retrieved_on":  "2026-09-29",
                       "source_footprint":  "NYC DoITT BUILDING (Socrata 5zhs-2jue)",
                       "source_taxlot":  "NYC DCP PLUTO 26v2 (Socrata 64uk-42ks)",
                       "source_boundary":  "OpenStreetMap relation 2389564 (Roosevelt Island)",
                       "name":  "Roosevelt Isld Racquet Club",
                       "source_attributes":  {
                                                 "building":  {
                                                                  "name":  "Roosevelt Isld Racquet Club",
                                                                  "base_bbl":  "1013730001",
                                                                  "shape_area":  "13522.12109375",
                                                                  "construction_year":  "1975",
                                                                  "ground_elevation":  "21",
                                                                  "mappluto_bbl":  "1013730001",
                                                                  "objectid":  "1059654",
                                                                  "feature_code":  "2100",
                                                                  "shape_length":  "538.17404304439833",
                                                                  "height_roof":  "38",
                                                                  "last_status_type":  "Constructed",
                                                                  "bin":  "1089275",
                                                                  "last_edited_date":  "2017-08-22T18:43:19.000Z",
                                                                  "geom_source":  "Other (Manual)",
                                                                  "doitt_id":  "77995"
                                                              },
                                                 "pluto":  {
                                                               "borough":  "MN",
                                                               "block":  "1373",
                                                               "lot":  "1",
                                                               "cd":  "108",
                                                               "ct2010":  "238.01",
                                                               "cb2010":  "1015",
                                                               "schooldist":  "2",
                                                               "council":  "5",
                                                               "zipcode":  "10044",
                                                               "firecomp":  "E260",
                                                               "policeprct":  "114",
                                                               "healtharea":  "8300",
                                                               "sanitboro":  "1",
                                                               "address":  "MAIN STREET",
                                                               "zonedist1":  "R7-2",
                                                               "splitzone":  false,
                                                               "bldgclass":  "D4",
                                                               "landuse":  "3",
                                                               "easements":  "1",
                                                               "ownertype":  "C",
                                                               "ownername":  "RIVERWALK 8 AFFORDABLE, L.P.",
                                                               "lotarea":  "4227757",
                                                               "bldgarea":  "4786701",
                                                               "comarea":  "1046956",
                                                               "resarea":  "3739745",
                                                               "officearea":  "7496",
                                                               "retailarea":  "537154",
                                                               "garagearea":  "406500",
                                                               "strgearea":  "0",
                                                               "factryarea":  "0",
                                                               "otherarea":  "95806",
                                                               "areasource":  "2",
                                                               "numbldgs":  "38",
                                                               "numfloors":  "18.0000000",
                                                               "unitsres":  "8018",
                                                               "unitstotal":  "8088",
                                                               "lotfront":  "200.0000000",
                                                               "lotdepth":  "102.5000000",
                                                               "bldgfront":  "0.0000000",
                                                               "bldgdepth":  "0.0000000",
                                                               "ext":  "N",
                                                               "proxcode":  "0",
                                                               "irrlotcode":  true,
                                                               "lottype":  "7",
                                                               "bsmtcode":  "0",
                                                               "assessland":  "134391150.00000",
                                                               "assesstot":  "592936650.00000",
                                                               "exempttot":  "592936650.00000",
                                                               "yearbuilt":  "1975",
                                                               "yearalter1":  "0",
                                                               "yearalter2":  "0",
                                                               "landmark":  "INDIVIDUAL LANDMARK",
                                                               "builtfar":  "1.13000000000",
                                                               "residfar":  "3.44000000000",
                                                               "commfar":  "0.00000000000",
                                                               "facilfar":  "6.50000000000",
                                                               "affresfar":  "5.01000000000",
                                                               "mnffar":  "0.00000000000",
                                                               "borocode":  "1",
                                                               "bbl":  "1013730001.00000000",
                                                               "tract2010":  "23801",
                                                               "xcoord":  "996792",
                                                               "ycoord":  "215349",
                                                               "latitude":  "40.7577508",
                                                               "longitude":  "-73.9547287",
                                                               "zonemap":  "9a",
                                                               "zmcode":  true,
                                                               "sanborn":  "106E070",
                                                               "taxmap":  "10507",
                                                               "appbbl":  "1013730001.00000000",
                                                               "appdate":  "2023-12-06T00:00:00.000",
                                                               "plutomapid":  "1",
                                                               "version":  "26v2",
                                                               "sanitdistrict":  "8",
                                                               "healthcenterdistrict":  "13",
                                                               "firm07_flag":  "1",
                                                               "pfirm15_flag":  "1",
                                                               "bct2020":  "1023804",
                                                               "bctcb2020":  "10238041000",
                                                               "transitzone":  "Inner Transit Zone"
                                                           }
                                             }
                   },
    "geometry":  {
                     "type":  "MultiPolygon",
                     "coordinates":  [
                                         [
                                             [
                                                 [
                                                     -73.954900314679,
                                                     40.757350855295
                                                 ],
                                                 [
                                                     -73.954301754394,
                                                     40.757093756577
                                                 ],
                                                 [
                                                     -73.954257329215,
                                                     40.757074674347
                                                 ],
                                                 [
                                                     -73.954283070943,
                                                     40.757040021413
                                                 ],
                                                 [
                                                     -73.954349336476,
                                                     40.756950815714
                                                 ],
                                                 [
                                                     -73.954352881775,
                                                     40.75694604354
                                                 ],
                                                 [
                                                     -73.954358398264,
                                                     40.756938616557
                                                 ],
                                                 [
                                                     -73.954370701902,
                                                     40.756922053933
                                                 ],
                                                 [
                                                     -73.954372605528,
                                                     40.756919491848
                                                 ],
                                                 [
                                                     -73.954375022398,
                                                     40.756916237479
                                                 ],
                                                 [
                                                     -73.954379226732,
                                                     40.756910577666
                                                 ],
                                                 [
                                                     -73.954334499764,
                                                     40.756891365674
                                                 ],
                                                 [
                                                     -73.95394133449,
                                                     40.756722486865
                                                 ],
                                                 [
                                                     -73.953774405003,
                                                     40.7566507839
                                                 ],
                                                 [
                                                     -73.953747444722,
                                                     40.756639203385
                                                 ],
                                                 [
                                                     -73.953757410984,
                                                     40.756625787154
                                                 ],
                                                 [
                                                     -73.95376000923,
                                                     40.756622288833
                                                 ],
                                                 [
                                                     -73.953761204043,
                                                     40.756620680109
                                                 ],
                                                 [
                                                     -73.953779947668,
                                                     40.756595448265
                                                 ],
                                                 [
                                                     -73.953782945366,
                                                     40.756591412502
                                                 ],
                                                 [
                                                     -73.953797324594,
                                                     40.756572056503
                                                 ],
                                                 [
                                                     -73.953798508738,
                                                     40.756570461282
                                                 ],
                                                 [
                                                     -73.953803736038,
                                                     40.756563424128
                                                 ],
                                                 [
                                                     -73.953803758559,
                                                     40.756563393519
                                                 ],
                                                 [
                                                     -73.953804692597,
                                                     40.756562136788
                                                 ],
                                                 [
                                                     -73.953825598228,
                                                     40.756533992669
                                                 ],
                                                 [
                                                     -73.953828838913,
                                                     40.756529630118
                                                 ],
                                                 [
                                                     -73.953846329596,
                                                     40.756506085308
                                                 ],
                                                 [
                                                     -73.953847868149,
                                                     40.756504014762
                                                 ],
                                                 [
                                                     -73.95385152251,
                                                     40.756499095864
                                                 ],
                                                 [
                                                     -73.953865457201,
                                                     40.756480337614
                                                 ],
                                                 [
                                                     -73.953866450503,
                                                     40.756479000761
                                                 ],
                                                 [
                                                     -73.953883214556,
                                                     40.756456433603
                                                 ],
                                                 [
                                                     -73.953885721518,
                                                     40.756453058612
                                                 ],
                                                 [
                                                     -73.954037159308,
                                                     40.756249195171
                                                 ],
                                                 [
                                                     -73.954087066357,
                                                     40.756270632694
                                                 ],
                                                 [
                                                     -73.954988562065,
                                                     40.756657855486
                                                 ],
                                                 [
                                                     -73.955145151663,
                                                     40.756725115876
                                                 ],
                                                 [
                                                     -73.95515574386,
                                                     40.756729664851
                                                 ],
                                                 [
                                                     -73.955155231811,
                                                     40.756730354438
                                                 ],
                                                 [
                                                     -73.955116429828,
                                                     40.756782591152
                                                 ],
                                                 [
                                                     -73.955128865338,
                                                     40.756787933292
                                                 ],
                                                 [
                                                     -73.955164073487,
                                                     40.756740534491
                                                 ],
                                                 [
                                                     -73.955180580367,
                                                     40.75674762429
                                                 ],
                                                 [
                                                     -73.955240056307,
                                                     40.756773171338
                                                 ],
                                                 [
                                                     -73.955272833918,
                                                     40.756908065365
                                                 ],
                                                 [
                                                     -73.955285718253,
                                                     40.756961090321
                                                 ],
                                                 [
                                                     -73.955289167856,
                                                     40.756975289027
                                                 ],
                                                 [
                                                     -73.955238842327,
                                                     40.757043037916
                                                 ],
                                                 [
                                                     -73.955236981402,
                                                     40.757045543299
                                                 ],
                                                 [
                                                     -73.955221338956,
                                                     40.75706660094
                                                 ],
                                                 [
                                                     -73.955219229116,
                                                     40.757069441215
                                                 ],
                                                 [
                                                     -73.955204773149,
                                                     40.757088901818
                                                 ],
                                                 [
                                                     -73.95520138792,
                                                     40.75709345886
                                                 ],
                                                 [
                                                     -73.955199897992,
                                                     40.757095464607
                                                 ],
                                                 [
                                                     -73.955179167007,
                                                     40.757123374009
                                                 ],
                                                 [
                                                     -73.955176375612,
                                                     40.757127131633
                                                 ],
                                                 [
                                                     -73.955176038986,
                                                     40.757127584456
                                                 ],
                                                 [
                                                     -73.955172730014,
                                                     40.757126163071
                                                 ],
                                                 [
                                                     -73.955141693166,
                                                     40.757112832516
                                                 ],
                                                 [
                                                     -73.955137698724,
                                                     40.757111116399
                                                 ],
                                                 [
                                                     -73.955120509407,
                                                     40.757134256293
                                                 ],
                                                 [
                                                     -73.955119776887,
                                                     40.757135242061
                                                 ],
                                                 [
                                                     -73.955114365959,
                                                     40.757142527742
                                                 ],
                                                 [
                                                     -73.955113191319,
                                                     40.757144109473
                                                 ],
                                                 [
                                                     -73.955098556323,
                                                     40.757163811329
                                                 ],
                                                 [
                                                     -73.955096221266,
                                                     40.757166954983
                                                 ],
                                                 [
                                                     -73.955079258314,
                                                     40.757189789688
                                                 ],
                                                 [
                                                     -73.955076432537,
                                                     40.757193593221
                                                 ],
                                                 [
                                                     -73.955072003036,
                                                     40.757199556441
                                                 ],
                                                 [
                                                     -73.955061242794,
                                                     40.757214042275
                                                 ],
                                                 [
                                                     -73.955058303226,
                                                     40.757217998849
                                                 ],
                                                 [
                                                     -73.955056628383,
                                                     40.757220253061
                                                 ],
                                                 [
                                                     -73.95504285626,
                                                     40.757238793595
                                                 ],
                                                 [
                                                     -73.955038966069,
                                                     40.757244030316
                                                 ],
                                                 [
                                                     -73.955035205077,
                                                     40.75724909329
                                                 ],
                                                 [
                                                     -73.954945269426,
                                                     40.75737016441
                                                 ],
                                                 [
                                                     -73.954943854674,
                                                     40.757369556917
                                                 ],
                                                 [
                                                     -73.954900314679,
                                                     40.757350855295
                                                 ]
                                             ]
                                         ]
                                     ]
                 }
}
