{
    "type":  "Feature",
    "id":  "1085553",
    "properties":  {
                       "bin":  "1085553",
                       "bbl":  "1013730001",
                       "address":  "MAIN STREET",
                       "building_use":  "Multi-Family Elevator Buildings",
                       "pluto_landuse_code":  "3",
                       "building_class":  "D4",
                       "pluto_year_built":  "1975",
                       "pluto_floors":  "18.0000000",
                       "residential_units":  "8018",
                       "total_units":  "8088",
                       "building_area_sqft":  "4786701",
                       "lot_area_sqft":  "4227757",
                       "construction_year":  "1975",
                       "height_roof":  "30",
                       "feature_code":  "2100",
                       "geometry_source":  "Other (Manual)",
                       "last_status_type":  "Constructed",
                       "retrieved_on":  "2026-09-29",
                       "source_footprint":  "NYC DoITT BUILDING (Socrata 5zhs-2jue)",
                       "source_taxlot":  "NYC DCP PLUTO 26v2 (Socrata 64uk-42ks)",
                       "source_boundary":  "OpenStreetMap relation 2389564 (Roosevelt Island)",
                       "source_attributes":  {
                                                 "building":  {
                                                                  "name":  null,
                                                                  "base_bbl":  "1013730001",
                                                                  "shape_area":  "601.41796875",
                                                                  "construction_year":  "1975",
                                                                  "ground_elevation":  "11",
                                                                  "mappluto_bbl":  "1013730001",
                                                                  "objectid":  "1072083",
                                                                  "feature_code":  "2100",
                                                                  "shape_length":  "114.28827943988372",
                                                                  "height_roof":  "30",
                                                                  "last_status_type":  "Constructed",
                                                                  "bin":  "1085553",
                                                                  "last_edited_date":  "2017-08-22T19:13:30.000Z",
                                                                  "geom_source":  "Other (Manual)",
                                                                  "doitt_id":  "652158"
                                                              },
                                                 "pluto":  {
                                                               "borough":  "MN",
                                                               "block":  "1373",
                                                               "lot":  "1",
                                                               "cd":  "108",
                                                               "ct2010":  "238.01",
                                                               "cb2010":  "1015",
                                                               "schooldist":  "2",
                                                               "council":  "5",
                                                               "zipcode":  "10044",
                                                               "firecomp":  "E260",
                                                               "policeprct":  "114",
                                                               "healtharea":  "8300",
                                                               "sanitboro":  "1",
                                                               "address":  "MAIN STREET",
                                                               "zonedist1":  "R7-2",
                                                               "splitzone":  false,
                                                               "bldgclass":  "D4",
                                                               "landuse":  "3",
                                                               "easements":  "1",
                                                               "ownertype":  "C",
                                                               "ownername":  "RIVERWALK 8 AFFORDABLE, L.P.",
                                                               "lotarea":  "4227757",
                                                               "bldgarea":  "4786701",
                                                               "comarea":  "1046956",
                                                               "resarea":  "3739745",
                                                               "officearea":  "7496",
                                                               "retailarea":  "537154",
                                                               "garagearea":  "406500",
                                                               "strgearea":  "0",
                                                               "factryarea":  "0",
                                                               "otherarea":  "95806",
                                                               "areasource":  "2",
                                                               "numbldgs":  "38",
                                                               "numfloors":  "18.0000000",
                                                               "unitsres":  "8018",
                                                               "unitstotal":  "8088",
                                                               "lotfront":  "200.0000000",
                                                               "lotdepth":  "102.5000000",
                                                               "bldgfront":  "0.0000000",
                                                               "bldgdepth":  "0.0000000",
                                                               "ext":  "N",
                                                               "proxcode":  "0",
                                                               "irrlotcode":  true,
                                                               "lottype":  "7",
                                                               "bsmtcode":  "0",
                                                               "assessland":  "134391150.00000",
                                                               "assesstot":  "592936650.00000",
                                                               "exempttot":  "592936650.00000",
                                                               "yearbuilt":  "1975",
                                                               "yearalter1":  "0",
                                                               "yearalter2":  "0",
                                                               "landmark":  "INDIVIDUAL LANDMARK",
                                                               "builtfar":  "1.13000000000",
                                                               "residfar":  "3.44000000000",
                                                               "commfar":  "0.00000000000",
                                                               "facilfar":  "6.50000000000",
                                                               "affresfar":  "5.01000000000",
                                                               "mnffar":  "0.00000000000",
                                                               "borocode":  "1",
                                                               "bbl":  "1013730001.00000000",
                                                               "tract2010":  "23801",
                                                               "xcoord":  "996792",
                                                               "ycoord":  "215349",
                                                               "latitude":  "40.7577508",
                                                               "longitude":  "-73.9547287",
                                                               "zonemap":  "9a",
                                                               "zmcode":  true,
                                                               "sanborn":  "106E070",
                                                               "taxmap":  "10507",
                                                               "appbbl":  "1013730001.00000000",
                                                               "appdate":  "2023-12-06T00:00:00.000",
                                                               "plutomapid":  "1",
                                                               "version":  "26v2",
                                                               "sanitdistrict":  "8",
                                                               "healthcenterdistrict":  "13",
                                                               "firm07_flag":  "1",
                                                               "pfirm15_flag":  "1",
                                                               "bct2020":  "1023804",
                                                               "bctcb2020":  "10238041000",
                                                               "transitzone":  "Inner Transit Zone"
                                                           }
                                             }
                   },
    "geometry":  {
                     "type":  "MultiPolygon",
                     "coordinates":  [
                                         [
                                             [
                                                 [
                                                     -73.945133805677,
                                                     40.768467909534
                                                 ],
                                                 [
                                                     -73.945105060047,
                                                     40.768500263554
                                                 ],
                                                 [
                                                     -73.94515149155,
                                                     40.768524112098
                                                 ],
                                                 [
                                                     -73.945162093679,
                                                     40.768529557088
                                                 ],
                                                 [
                                                     -73.945135626636,
                                                     40.768559343063
                                                 ],
                                                 [
                                                     -73.945142679334,
                                                     40.768562964645
                                                 ],
                                                 [
                                                     -73.945074522885,
                                                     40.768639672215
                                                 ],
                                                 [
                                                     -73.945069608369,
                                                     40.768637148462
                                                 ],
                                                 [
                                                     -73.945032303766,
                                                     40.768617989561
                                                 ],
                                                 [
                                                     -73.945027390897,
                                                     40.768623519012
                                                 ],
                                                 [
                                                     -73.94498362322,
                                                     40.768601039556
                                                 ],
                                                 [
                                                     -73.944973481644,
                                                     40.768595830701
                                                 ],
                                                 [
                                                     -73.944990801168,
                                                     40.76857633856
                                                 ],
                                                 [
                                                     -73.944934744314,
                                                     40.768547548789
                                                 ],
                                                 [
                                                     -73.944969002793,
                                                     40.768508992073
                                                 ],
                                                 [
                                                     -73.944948604832,
                                                     40.768498515772
                                                 ],
                                                 [
                                                     -73.945067200985,
                                                     40.768365040254
                                                 ],
                                                 [
                                                     -73.945132166827,
                                                     40.768398406062
                                                 ],
                                                 [
                                                     -73.945175695267,
                                                     40.76842076198
                                                 ],
                                                 [
                                                     -73.945133805677,
                                                     40.768467909534
                                                 ]
                                             ]
                                         ]
                                     ]
                 }
}
