{
    "type":  "Feature",
    "id":  "1083217",
    "properties":  {
                       "bin":  "1083217",
                       "bbl":  "1013730001",
                       "address":  "MAIN STREET",
                       "building_use":  "Multi-Family Elevator Buildings",
                       "pluto_landuse_code":  "3",
                       "building_class":  "D4",
                       "pluto_year_built":  "1975",
                       "pluto_floors":  "18.0000000",
                       "residential_units":  "8018",
                       "total_units":  "8088",
                       "building_area_sqft":  "4786701",
                       "lot_area_sqft":  "4227757",
                       "construction_year":  "1975",
                       "height_roof":  "185.62",
                       "feature_code":  "2100",
                       "geometry_source":  "Photogrammetric",
                       "last_status_type":  "Constructed",
                       "retrieved_on":  "2026-09-29",
                       "source_footprint":  "NYC DoITT BUILDING (Socrata 5zhs-2jue)",
                       "source_taxlot":  "NYC DCP PLUTO 26v2 (Socrata 64uk-42ks)",
                       "source_boundary":  "OpenStreetMap relation 2389564 (Roosevelt Island)",
                       "source_attributes":  {
                                                 "building":  {
                                                                  "name":  null,
                                                                  "base_bbl":  "1013730001",
                                                                  "shape_area":  "2080.21875",
                                                                  "construction_year":  "1975",
                                                                  "ground_elevation":  "14",
                                                                  "mappluto_bbl":  "1013730001",
                                                                  "objectid":  "780163",
                                                                  "feature_code":  "2100",
                                                                  "shape_length":  "243.50916172961954",
                                                                  "height_roof":  "185.62",
                                                                  "last_status_type":  "Constructed",
                                                                  "bin":  "1083217",
                                                                  "last_edited_date":  "2017-08-22T18:49:55.000Z",
                                                                  "geom_source":  "Photogrammetric",
                                                                  "doitt_id":  "711672"
                                                              },
                                                 "pluto":  {
                                                               "borough":  "MN",
                                                               "block":  "1373",
                                                               "lot":  "1",
                                                               "cd":  "108",
                                                               "ct2010":  "238.01",
                                                               "cb2010":  "1015",
                                                               "schooldist":  "2",
                                                               "council":  "5",
                                                               "zipcode":  "10044",
                                                               "firecomp":  "E260",
                                                               "policeprct":  "114",
                                                               "healtharea":  "8300",
                                                               "sanitboro":  "1",
                                                               "address":  "MAIN STREET",
                                                               "zonedist1":  "R7-2",
                                                               "splitzone":  false,
                                                               "bldgclass":  "D4",
                                                               "landuse":  "3",
                                                               "easements":  "1",
                                                               "ownertype":  "C",
                                                               "ownername":  "RIVERWALK 8 AFFORDABLE, L.P.",
                                                               "lotarea":  "4227757",
                                                               "bldgarea":  "4786701",
                                                               "comarea":  "1046956",
                                                               "resarea":  "3739745",
                                                               "officearea":  "7496",
                                                               "retailarea":  "537154",
                                                               "garagearea":  "406500",
                                                               "strgearea":  "0",
                                                               "factryarea":  "0",
                                                               "otherarea":  "95806",
                                                               "areasource":  "2",
                                                               "numbldgs":  "38",
                                                               "numfloors":  "18.0000000",
                                                               "unitsres":  "8018",
                                                               "unitstotal":  "8088",
                                                               "lotfront":  "200.0000000",
                                                               "lotdepth":  "102.5000000",
                                                               "bldgfront":  "0.0000000",
                                                               "bldgdepth":  "0.0000000",
                                                               "ext":  "N",
                                                               "proxcode":  "0",
                                                               "irrlotcode":  true,
                                                               "lottype":  "7",
                                                               "bsmtcode":  "0",
                                                               "assessland":  "134391150.00000",
                                                               "assesstot":  "592936650.00000",
                                                               "exempttot":  "592936650.00000",
                                                               "yearbuilt":  "1975",
                                                               "yearalter1":  "0",
                                                               "yearalter2":  "0",
                                                               "landmark":  "INDIVIDUAL LANDMARK",
                                                               "builtfar":  "1.13000000000",
                                                               "residfar":  "3.44000000000",
                                                               "commfar":  "0.00000000000",
                                                               "facilfar":  "6.50000000000",
                                                               "affresfar":  "5.01000000000",
                                                               "mnffar":  "0.00000000000",
                                                               "borocode":  "1",
                                                               "bbl":  "1013730001.00000000",
                                                               "tract2010":  "23801",
                                                               "xcoord":  "996792",
                                                               "ycoord":  "215349",
                                                               "latitude":  "40.7577508",
                                                               "longitude":  "-73.9547287",
                                                               "zonemap":  "9a",
                                                               "zmcode":  true,
                                                               "sanborn":  "106E070",
                                                               "taxmap":  "10507",
                                                               "appbbl":  "1013730001.00000000",
                                                               "appdate":  "2023-12-06T00:00:00.000",
                                                               "plutomapid":  "1",
                                                               "version":  "26v2",
                                                               "sanitdistrict":  "8",
                                                               "healthcenterdistrict":  "13",
                                                               "firm07_flag":  "1",
                                                               "pfirm15_flag":  "1",
                                                               "bct2020":  "1023804",
                                                               "bctcb2020":  "10238041000",
                                                               "transitzone":  "Inner Transit Zone"
                                                           }
                                             }
                   },
    "geometry":  {
                     "type":  "MultiPolygon",
                     "coordinates":  [
                                         [
                                             [
                                                 [
                                                     -73.947675050644,
                                                     40.764986991699
                                                 ],
                                                 [
                                                     -73.947563782325,
                                                     40.764930008528
                                                 ],
                                                 [
                                                     -73.94755861032,
                                                     40.764935845944
                                                 ],
                                                 [
                                                     -73.947449540672,
                                                     40.764879988392
                                                 ],
                                                 [
                                                     -73.94745653824,
                                                     40.764872088758
                                                 ],
                                                 [
                                                     -73.9474298557,
                                                     40.76485842404
                                                 ],
                                                 [
                                                     -73.94742584659,
                                                     40.764862949946
                                                 ],
                                                 [
                                                     -73.947317434232,
                                                     40.764807429357
                                                 ],
                                                 [
                                                     -73.947320624216,
                                                     40.764803827898
                                                 ],
                                                 [
                                                     -73.947263353612,
                                                     40.764774498385
                                                 ],
                                                 [
                                                     -73.947256213584,
                                                     40.764770841771
                                                 ],
                                                 [
                                                     -73.947252938199,
                                                     40.764762635776
                                                 ],
                                                 [
                                                     -73.947329677932,
                                                     40.764676010844
                                                 ],
                                                 [
                                                     -73.947338222044,
                                                     40.764680385798
                                                 ],
                                                 [
                                                     -73.947405750849,
                                                     40.764604156529
                                                 ],
                                                 [
                                                     -73.94739720911,
                                                     40.764599782482
                                                 ],
                                                 [
                                                     -73.947471097537,
                                                     40.764516375455
                                                 ],
                                                 [
                                                     -73.947481085977,
                                                     40.764521491272
                                                 ],
                                                 [
                                                     -73.947526621426,
                                                     40.764470089616
                                                 ],
                                                 [
                                                     -73.947560476991,
                                                     40.764487428934
                                                 ],
                                                 [
                                                     -73.947575122808,
                                                     40.764470896034
                                                 ],
                                                 [
                                                     -73.947581419894,
                                                     40.764474120904
                                                 ],
                                                 [
                                                     -73.947669551941,
                                                     40.764519255526
                                                 ],
                                                 [
                                                     -73.947654906138,
                                                     40.764535788437
                                                 ],
                                                 [
                                                     -73.947688669427,
                                                     40.764553079048
                                                 ],
                                                 [
                                                     -73.947666811552,
                                                     40.764577752848
                                                 ],
                                                 [
                                                     -73.947643135231,
                                                     40.764604479868
                                                 ],
                                                 [
                                                     -73.947651491116,
                                                     40.764608759259
                                                 ],
                                                 [
                                                     -73.947576276329,
                                                     40.764693662435
                                                 ],
                                                 [
                                                     -73.947565353766,
                                                     40.764688069835
                                                 ],
                                                 [
                                                     -73.947527285168,
                                                     40.764731042583
                                                 ],
                                                 [
                                                     -73.947564572965,
                                                     40.764750137644
                                                 ],
                                                 [
                                                     -73.947570993204,
                                                     40.764742890605
                                                 ],
                                                 [
                                                     -73.947680063913,
                                                     40.764798748044
                                                 ],
                                                 [
                                                     -73.947672861303,
                                                     40.764806878129
                                                 ],
                                                 [
                                                     -73.94778412951,
                                                     40.764863861196
                                                 ],
                                                 [
                                                     -73.947760641616,
                                                     40.764890374905
                                                 ],
                                                 [
                                                     -73.947777586701,
                                                     40.764899052642
                                                 ],
                                                 [
                                                     -73.947744684183,
                                                     40.764936193434
                                                 ],
                                                 [
                                                     -73.947714026816,
                                                     40.764970801216
                                                 ],
                                                 [
                                                     -73.947697081722,
                                                     40.764962123469
                                                 ],
                                                 [
                                                     -73.947675050644,
                                                     40.764986991699
                                                 ]
                                             ]
                                         ]
                                     ]
                 }
}
