{
    "type":  "Feature",
    "id":  "1083215",
    "properties":  {
                       "bin":  "1083215",
                       "bbl":  "1013730001",
                       "address":  "MAIN STREET",
                       "building_use":  "Multi-Family Elevator Buildings",
                       "pluto_landuse_code":  "3",
                       "building_class":  "D4",
                       "pluto_year_built":  "1975",
                       "pluto_floors":  "18.0000000",
                       "residential_units":  "8018",
                       "total_units":  "8088",
                       "building_area_sqft":  "4786701",
                       "lot_area_sqft":  "4227757",
                       "construction_year":  "1975",
                       "height_roof":  "27",
                       "feature_code":  "2100",
                       "geometry_source":  "Other (Manual)",
                       "last_status_type":  "Constructed",
                       "retrieved_on":  "2026-09-29",
                       "source_footprint":  "NYC DoITT BUILDING (Socrata 5zhs-2jue)",
                       "source_taxlot":  "NYC DCP PLUTO 26v2 (Socrata 64uk-42ks)",
                       "source_boundary":  "OpenStreetMap relation 2389564 (Roosevelt Island)",
                       "source_attributes":  {
                                                 "building":  {
                                                                  "name":  null,
                                                                  "base_bbl":  "1013730001",
                                                                  "shape_area":  "1385.21484375",
                                                                  "construction_year":  "1975",
                                                                  "ground_elevation":  "20",
                                                                  "mappluto_bbl":  "1013730001",
                                                                  "objectid":  "52380",
                                                                  "feature_code":  "2100",
                                                                  "shape_length":  "215.6045804575557",
                                                                  "height_roof":  "27",
                                                                  "last_status_type":  "Constructed",
                                                                  "bin":  "1083215",
                                                                  "last_edited_date":  "2017-08-22T19:19:39.000Z",
                                                                  "geom_source":  "Other (Manual)",
                                                                  "doitt_id":  "471078"
                                                              },
                                                 "pluto":  {
                                                               "borough":  "MN",
                                                               "block":  "1373",
                                                               "lot":  "1",
                                                               "cd":  "108",
                                                               "ct2010":  "238.01",
                                                               "cb2010":  "1015",
                                                               "schooldist":  "2",
                                                               "council":  "5",
                                                               "zipcode":  "10044",
                                                               "firecomp":  "E260",
                                                               "policeprct":  "114",
                                                               "healtharea":  "8300",
                                                               "sanitboro":  "1",
                                                               "address":  "MAIN STREET",
                                                               "zonedist1":  "R7-2",
                                                               "splitzone":  false,
                                                               "bldgclass":  "D4",
                                                               "landuse":  "3",
                                                               "easements":  "1",
                                                               "ownertype":  "C",
                                                               "ownername":  "RIVERWALK 8 AFFORDABLE, L.P.",
                                                               "lotarea":  "4227757",
                                                               "bldgarea":  "4786701",
                                                               "comarea":  "1046956",
                                                               "resarea":  "3739745",
                                                               "officearea":  "7496",
                                                               "retailarea":  "537154",
                                                               "garagearea":  "406500",
                                                               "strgearea":  "0",
                                                               "factryarea":  "0",
                                                               "otherarea":  "95806",
                                                               "areasource":  "2",
                                                               "numbldgs":  "38",
                                                               "numfloors":  "18.0000000",
                                                               "unitsres":  "8018",
                                                               "unitstotal":  "8088",
                                                               "lotfront":  "200.0000000",
                                                               "lotdepth":  "102.5000000",
                                                               "bldgfront":  "0.0000000",
                                                               "bldgdepth":  "0.0000000",
                                                               "ext":  "N",
                                                               "proxcode":  "0",
                                                               "irrlotcode":  true,
                                                               "lottype":  "7",
                                                               "bsmtcode":  "0",
                                                               "assessland":  "134391150.00000",
                                                               "assesstot":  "592936650.00000",
                                                               "exempttot":  "592936650.00000",
                                                               "yearbuilt":  "1975",
                                                               "yearalter1":  "0",
                                                               "yearalter2":  "0",
                                                               "landmark":  "INDIVIDUAL LANDMARK",
                                                               "builtfar":  "1.13000000000",
                                                               "residfar":  "3.44000000000",
                                                               "commfar":  "0.00000000000",
                                                               "facilfar":  "6.50000000000",
                                                               "affresfar":  "5.01000000000",
                                                               "mnffar":  "0.00000000000",
                                                               "borocode":  "1",
                                                               "bbl":  "1013730001.00000000",
                                                               "tract2010":  "23801",
                                                               "xcoord":  "996792",
                                                               "ycoord":  "215349",
                                                               "latitude":  "40.7577508",
                                                               "longitude":  "-73.9547287",
                                                               "zonemap":  "9a",
                                                               "zmcode":  true,
                                                               "sanborn":  "106E070",
                                                               "taxmap":  "10507",
                                                               "appbbl":  "1013730001.00000000",
                                                               "appdate":  "2023-12-06T00:00:00.000",
                                                               "plutomapid":  "1",
                                                               "version":  "26v2",
                                                               "sanitdistrict":  "8",
                                                               "healthcenterdistrict":  "13",
                                                               "firm07_flag":  "1",
                                                               "pfirm15_flag":  "1",
                                                               "bct2020":  "1023804",
                                                               "bctcb2020":  "10238041000",
                                                               "transitzone":  "Inner Transit Zone"
                                                           }
                                             }
                   },
    "geometry":  {
                     "type":  "MultiPolygon",
                     "coordinates":  [
                                         [
                                             [
                                                 [
                                                     -73.950375605237,
                                                     40.76086358638
                                                 ],
                                                 [
                                                     -73.950344228596,
                                                     40.760847483541
                                                 ],
                                                 [
                                                     -73.950369806035,
                                                     40.7608186685
                                                 ],
                                                 [
                                                     -73.950424698065,
                                                     40.760756831951
                                                 ],
                                                 [
                                                     -73.950347054497,
                                                     40.760716983591
                                                 ],
                                                 [
                                                     -73.950335179757,
                                                     40.760662718551
                                                 ],
                                                 [
                                                     -73.95040711921,
                                                     40.760652306385
                                                 ],
                                                 [
                                                     -73.950424102594,
                                                     40.760661049492
                                                 ],
                                                 [
                                                     -73.950470902376,
                                                     40.760608484638
                                                 ],
                                                 [
                                                     -73.950476391005,
                                                     40.760607662135
                                                 ],
                                                 [
                                                     -73.950488656918,
                                                     40.760605824974
                                                 ],
                                                 [
                                                     -73.950540693471,
                                                     40.760598030942
                                                 ],
                                                 [
                                                     -73.950541128045,
                                                     40.760599708769
                                                 ],
                                                 [
                                                     -73.950554486497,
                                                     40.760651275613
                                                 ],
                                                 [
                                                     -73.950529156927,
                                                     40.760679811645
                                                 ],
                                                 [
                                                     -73.950564260276,
                                                     40.760697826905
                                                 ],
                                                 [
                                                     -73.950591732835,
                                                     40.76066687573
                                                 ],
                                                 [
                                                     -73.95061938981,
                                                     40.760681069639
                                                 ],
                                                 [
                                                     -73.950591914891,
                                                     40.760712019919
                                                 ],
                                                 [
                                                     -73.950670622877,
                                                     40.760752414276
                                                 ],
                                                 [
                                                     -73.950695234131,
                                                     40.76072468836
                                                 ],
                                                 [
                                                     -73.950741256216,
                                                     40.760717816482
                                                 ],
                                                 [
                                                     -73.950765097537,
                                                     40.760714257072
                                                 ],
                                                 [
                                                     -73.950765748221,
                                                     40.760716777863
                                                 ],
                                                 [
                                                     -73.950781594944,
                                                     40.760778142335
                                                 ],
                                                 [
                                                     -73.950792739273,
                                                     40.760821298389
                                                 ],
                                                 [
                                                     -73.950725746081,
                                                     40.760869112679
                                                 ],
                                                 [
                                                     -73.950690286029,
                                                     40.760894420605
                                                 ],
                                                 [
                                                     -73.950592546328,
                                                     40.760844260232
                                                 ],
                                                 [
                                                     -73.950573891067,
                                                     40.760865276317
                                                 ],
                                                 [
                                                     -73.950607826067,
                                                     40.760882692227
                                                 ],
                                                 [
                                                     -73.950590092955,
                                                     40.760902669528
                                                 ],
                                                 [
                                                     -73.950556157949,
                                                     40.760885253613
                                                 ],
                                                 [
                                                     -73.950512862829,
                                                     40.76093402888
                                                 ],
                                                 [
                                                     -73.950510904744,
                                                     40.760933023976
                                                 ],
                                                 [
                                                     -73.950504693815,
                                                     40.760940020932
                                                 ],
                                                 [
                                                     -73.950472667174,
                                                     40.760923584662
                                                 ],
                                                 [
                                                     -73.950478878105,
                                                     40.760916587707
                                                 ],
                                                 [
                                                     -73.950442961361,
                                                     40.760898155138
                                                 ],
                                                 [
                                                     -73.950436750427,
                                                     40.76090515209
                                                 ],
                                                 [
                                                     -73.950405372569,
                                                     40.760889047466
                                                 ],
                                                 [
                                                     -73.950411583504,
                                                     40.760882050515
                                                 ],
                                                 [
                                                     -73.950375605237,
                                                     40.76086358638
                                                 ]
                                             ]
                                         ]
                                     ]
                 }
}
