{
    "type":  "Feature",
    "id":  "1083211",
    "properties":  {
                       "bin":  "1083211",
                       "bbl":  "1013730001",
                       "address":  "MAIN STREET",
                       "building_use":  "Multi-Family Elevator Buildings",
                       "pluto_landuse_code":  "3",
                       "building_class":  "D4",
                       "pluto_year_built":  "1975",
                       "pluto_floors":  "18.0000000",
                       "residential_units":  "8018",
                       "total_units":  "8088",
                       "building_area_sqft":  "4786701",
                       "lot_area_sqft":  "4227757",
                       "construction_year":  "1975",
                       "height_roof":  "71",
                       "feature_code":  "5110",
                       "geometry_source":  "Other (Manual)",
                       "last_status_type":  "Constructed",
                       "retrieved_on":  "2026-09-29",
                       "source_footprint":  "NYC DoITT BUILDING (Socrata 5zhs-2jue)",
                       "source_taxlot":  "NYC DCP PLUTO 26v2 (Socrata 64uk-42ks)",
                       "source_boundary":  "OpenStreetMap relation 2389564 (Roosevelt Island)",
                       "source_attributes":  {
                                                 "building":  {
                                                                  "name":  null,
                                                                  "base_bbl":  "1013730001",
                                                                  "shape_area":  "28849.66015625",
                                                                  "construction_year":  "1975",
                                                                  "ground_elevation":  "12",
                                                                  "mappluto_bbl":  "1013730001",
                                                                  "objectid":  "1058910",
                                                                  "feature_code":  "5110",
                                                                  "shape_length":  "1019.4661789513395",
                                                                  "height_roof":  "71",
                                                                  "last_status_type":  "Constructed",
                                                                  "bin":  "1083211",
                                                                  "last_edited_date":  "2017-08-22T18:25:44.000Z",
                                                                  "geom_source":  "Other (Manual)",
                                                                  "doitt_id":  "146525"
                                                              },
                                                 "pluto":  {
                                                               "borough":  "MN",
                                                               "block":  "1373",
                                                               "lot":  "1",
                                                               "cd":  "108",
                                                               "ct2010":  "238.01",
                                                               "cb2010":  "1015",
                                                               "schooldist":  "2",
                                                               "council":  "5",
                                                               "zipcode":  "10044",
                                                               "firecomp":  "E260",
                                                               "policeprct":  "114",
                                                               "healtharea":  "8300",
                                                               "sanitboro":  "1",
                                                               "address":  "MAIN STREET",
                                                               "zonedist1":  "R7-2",
                                                               "splitzone":  false,
                                                               "bldgclass":  "D4",
                                                               "landuse":  "3",
                                                               "easements":  "1",
                                                               "ownertype":  "C",
                                                               "ownername":  "RIVERWALK 8 AFFORDABLE, L.P.",
                                                               "lotarea":  "4227757",
                                                               "bldgarea":  "4786701",
                                                               "comarea":  "1046956",
                                                               "resarea":  "3739745",
                                                               "officearea":  "7496",
                                                               "retailarea":  "537154",
                                                               "garagearea":  "406500",
                                                               "strgearea":  "0",
                                                               "factryarea":  "0",
                                                               "otherarea":  "95806",
                                                               "areasource":  "2",
                                                               "numbldgs":  "38",
                                                               "numfloors":  "18.0000000",
                                                               "unitsres":  "8018",
                                                               "unitstotal":  "8088",
                                                               "lotfront":  "200.0000000",
                                                               "lotdepth":  "102.5000000",
                                                               "bldgfront":  "0.0000000",
                                                               "bldgdepth":  "0.0000000",
                                                               "ext":  "N",
                                                               "proxcode":  "0",
                                                               "irrlotcode":  true,
                                                               "lottype":  "7",
                                                               "bsmtcode":  "0",
                                                               "assessland":  "134391150.00000",
                                                               "assesstot":  "592936650.00000",
                                                               "exempttot":  "592936650.00000",
                                                               "yearbuilt":  "1975",
                                                               "yearalter1":  "0",
                                                               "yearalter2":  "0",
                                                               "landmark":  "INDIVIDUAL LANDMARK",
                                                               "builtfar":  "1.13000000000",
                                                               "residfar":  "3.44000000000",
                                                               "commfar":  "0.00000000000",
                                                               "facilfar":  "6.50000000000",
                                                               "affresfar":  "5.01000000000",
                                                               "mnffar":  "0.00000000000",
                                                               "borocode":  "1",
                                                               "bbl":  "1013730001.00000000",
                                                               "tract2010":  "23801",
                                                               "xcoord":  "996792",
                                                               "ycoord":  "215349",
                                                               "latitude":  "40.7577508",
                                                               "longitude":  "-73.9547287",
                                                               "zonemap":  "9a",
                                                               "zmcode":  true,
                                                               "sanborn":  "106E070",
                                                               "taxmap":  "10507",
                                                               "appbbl":  "1013730001.00000000",
                                                               "appdate":  "2023-12-06T00:00:00.000",
                                                               "plutomapid":  "1",
                                                               "version":  "26v2",
                                                               "sanitdistrict":  "8",
                                                               "healthcenterdistrict":  "13",
                                                               "firm07_flag":  "1",
                                                               "pfirm15_flag":  "1",
                                                               "bct2020":  "1023804",
                                                               "bctcb2020":  "10238041000",
                                                               "transitzone":  "Inner Transit Zone"
                                                           }
                                             }
                   },
    "geometry":  {
                     "type":  "MultiPolygon",
                     "coordinates":  [
                                         [
                                             [
                                                 [
                                                     -73.94595266543,
                                                     40.765876763837
                                                 ],
                                                 [
                                                     -73.945853674492,
                                                     40.76582555431
                                                 ],
                                                 [
                                                     -73.945837737115,
                                                     40.765843364196
                                                 ],
                                                 [
                                                     -73.945813846239,
                                                     40.765831005249
                                                 ],
                                                 [
                                                     -73.94576804697,
                                                     40.765882182769
                                                 ],
                                                 [
                                                     -73.945730978232,
                                                     40.765863006187
                                                 ],
                                                 [
                                                     -73.945776776332,
                                                     40.765811828681
                                                 ],
                                                 [
                                                     -73.945752164492,
                                                     40.765799096573
                                                 ],
                                                 [
                                                     -73.945768101882,
                                                     40.765781286698
                                                 ],
                                                 [
                                                     -73.945635636876,
                                                     40.765712760735
                                                 ],
                                                 [
                                                     -73.946170257067,
                                                     40.765115340749
                                                 ],
                                                 [
                                                     -73.945869451853,
                                                     40.764959727744
                                                 ],
                                                 [
                                                     -73.945852044178,
                                                     40.764950722625
                                                 ],
                                                 [
                                                     -73.945833904875,
                                                     40.764941338948
                                                 ],
                                                 [
                                                     -73.945812311037,
                                                     40.764930167943
                                                 ],
                                                 [
                                                     -73.945799436424,
                                                     40.764923508061
                                                 ],
                                                 [
                                                     -73.946346157948,
                                                     40.764312554701
                                                 ],
                                                 [
                                                     -73.946356832873,
                                                     40.764318077063
                                                 ],
                                                 [
                                                     -73.946375738042,
                                                     40.764327857237
                                                 ],
                                                 [
                                                     -73.946395844842,
                                                     40.764338258414
                                                 ],
                                                 [
                                                     -73.946405174901,
                                                     40.764343084956
                                                 ],
                                                 [
                                                     -73.946434305152,
                                                     40.764358154937
                                                 ],
                                                 [
                                                     -73.946482749052,
                                                     40.764383215074
                                                 ],
                                                 [
                                                     -73.946493682229,
                                                     40.764370995805
                                                 ],
                                                 [
                                                     -73.946553028584,
                                                     40.764361638293
                                                 ],
                                                 [
                                                     -73.946555451964,
                                                     40.764362892019
                                                 ],
                                                 [
                                                     -73.946568900721,
                                                     40.76436984835
                                                 ],
                                                 [
                                                     -73.9467313943,
                                                     40.764190081149
                                                 ],
                                                 [
                                                     -73.946662261897,
                                                     40.763974481003
                                                 ],
                                                 [
                                                     -73.94674109518,
                                                     40.763876313855
                                                 ],
                                                 [
                                                     -73.946810405619,
                                                     40.763869160749
                                                 ],
                                                 [
                                                     -73.947034276816,
                                                     40.763608186914
                                                 ],
                                                 [
                                                     -73.947100487945,
                                                     40.763536360674
                                                 ],
                                                 [
                                                     -73.947188730061,
                                                     40.763488497016
                                                 ],
                                                 [
                                                     -73.947333662807,
                                                     40.763457425713
                                                 ],
                                                 [
                                                     -73.947481713666,
                                                     40.763467074663
                                                 ],
                                                 [
                                                     -73.947595091104,
                                                     40.763503053718
                                                 ],
                                                 [
                                                     -73.947698988678,
                                                     40.76357735293
                                                 ],
                                                 [
                                                     -73.947768199156,
                                                     40.763697144224
                                                 ],
                                                 [
                                                     -73.947774413499,
                                                     40.763807326469
                                                 ],
                                                 [
                                                     -73.947730237354,
                                                     40.763900719368
                                                 ],
                                                 [
                                                     -73.947329802189,
                                                     40.764355625842
                                                 ],
                                                 [
                                                     -73.947096666032,
                                                     40.764381865988
                                                 ],
                                                 [
                                                     -73.946938620676,
                                                     40.764561109853
                                                 ],
                                                 [
                                                     -73.946951132545,
                                                     40.764608385791
                                                 ],
                                                 [
                                                     -73.946940654615,
                                                     40.764620095628
                                                 ],
                                                 [
                                                     -73.947032408727,
                                                     40.764667561109
                                                 ],
                                                 [
                                                     -73.947073800704,
                                                     40.764688973413
                                                 ],
                                                 [
                                                     -73.946889663057,
                                                     40.764894748481
                                                 ],
                                                 [
                                                     -73.94599246311,
                                                     40.765897350916
                                                 ],
                                                 [
                                                     -73.94595266543,
                                                     40.765876763837
                                                 ]
                                             ]
                                         ]
                                     ]
                 }
}
