{
    "type":  "Feature",
    "id":  "1084699",
    "properties":  {
                       "bin":  "1084699",
                       "bbl":  "1013730030",
                       "address":  "510 MAIN STREET",
                       "building_use":  "Mixed Residential \u0026 Commercial Buildings",
                       "pluto_landuse_code":  "4",
                       "building_class":  "D6",
                       "pluto_year_built":  "1969",
                       "pluto_floors":  "16.0000000",
                       "residential_units":  "1003",
                       "total_units":  "1017",
                       "building_area_sqft":  "804200",
                       "lot_area_sqft":  "230012",
                       "construction_year":  "1969",
                       "height_roof":  "105",
                       "feature_code":  "2100",
                       "geometry_source":  "Other (Manual)",
                       "last_status_type":  "Constructed",
                       "retrieved_on":  "2026-09-29",
                       "source_footprint":  "NYC DoITT BUILDING (Socrata 5zhs-2jue)",
                       "source_taxlot":  "NYC DCP PLUTO 26v2 (Socrata 64uk-42ks)",
                       "source_boundary":  "OpenStreetMap relation 2389564 (Roosevelt Island)",
                       "source_attributes":  {
                                                 "building":  {
                                                                  "name":  null,
                                                                  "base_bbl":  "1013730030",
                                                                  "shape_area":  "3211.61328125",
                                                                  "construction_year":  "1969",
                                                                  "ground_elevation":  "19",
                                                                  "mappluto_bbl":  "1013730030",
                                                                  "objectid":  "1059960",
                                                                  "feature_code":  "2100",
                                                                  "shape_length":  "531.68162801593769",
                                                                  "height_roof":  "105",
                                                                  "last_status_type":  "Constructed",
                                                                  "bin":  "1084699",
                                                                  "last_edited_date":  "2017-08-22T18:08:35.000Z",
                                                                  "geom_source":  "Other (Manual)",
                                                                  "doitt_id":  "1257211"
                                                              },
                                                 "pluto":  {
                                                               "borough":  "MN",
                                                               "block":  "1373",
                                                               "lot":  "30",
                                                               "cd":  "108",
                                                               "ct2010":  "238.01",
                                                               "cb2010":  "1005",
                                                               "schooldist":  "2",
                                                               "council":  "5",
                                                               "zipcode":  "10044",
                                                               "firecomp":  "E260",
                                                               "policeprct":  "114",
                                                               "healtharea":  "8300",
                                                               "sanitboro":  "1",
                                                               "address":  "510 MAIN STREET",
                                                               "zonedist1":  "R7-2",
                                                               "splitzone":  false,
                                                               "bldgclass":  "D6",
                                                               "landuse":  "4",
                                                               "easements":  "0",
                                                               "ownertype":  "C",
                                                               "ownername":  "ROOSEVELT ISLAND OPERATING CORPORATION",
                                                               "lotarea":  "230012",
                                                               "bldgarea":  "804200",
                                                               "comarea":  "35500",
                                                               "resarea":  "768700",
                                                               "officearea":  "0",
                                                               "retailarea":  "35500",
                                                               "garagearea":  "0",
                                                               "strgearea":  "0",
                                                               "factryarea":  "0",
                                                               "otherarea":  "0",
                                                               "areasource":  "2",
                                                               "numbldgs":  "6",
                                                               "numfloors":  "16.0000000",
                                                               "unitsres":  "1003",
                                                               "unitstotal":  "1017",
                                                               "lotfront":  "0.0000000",
                                                               "lotdepth":  "0.0000000",
                                                               "bldgfront":  "780.0000000",
                                                               "bldgdepth":  "250.0000000",
                                                               "ext":  "N",
                                                               "proxcode":  "0",
                                                               "irrlotcode":  true,
                                                               "lottype":  "5",
                                                               "bsmtcode":  "2",
                                                               "assessland":  "18135000.00000",
                                                               "assesstot":  "92847150.00000",
                                                               "exempttot":  "92847150.00000",
                                                               "yearbuilt":  "1969",
                                                               "yearalter1":  "0",
                                                               "yearalter2":  "0",
                                                               "builtfar":  "3.50000000000",
                                                               "residfar":  "3.44000000000",
                                                               "commfar":  "0.00000000000",
                                                               "facilfar":  "6.50000000000",
                                                               "affresfar":  "5.01000000000",
                                                               "mnffar":  "0.00000000000",
                                                               "borocode":  "1",
                                                               "bbl":  "1013730030.00000000",
                                                               "tract2010":  "23801",
                                                               "xcoord":  "998020",
                                                               "ycoord":  "216499",
                                                               "latitude":  "40.7609054",
                                                               "longitude":  "-73.9502937",
                                                               "zonemap":  "9a",
                                                               "sanborn":  "106E070",
                                                               "taxmap":  "10507",
                                                               "appbbl":  "1013730001.00000000",
                                                               "appdate":  "2007-03-05T00:00:00.000",
                                                               "plutomapid":  "1",
                                                               "version":  "26v2",
                                                               "sanitdistrict":  "8",
                                                               "healthcenterdistrict":  "13",
                                                               "firm07_flag":  "1",
                                                               "pfirm15_flag":  "1",
                                                               "bct2020":  "1023803",
                                                               "bctcb2020":  "10238031001",
                                                               "transitzone":  "Inner Transit Zone"
                                                           }
                                             }
                   },
    "geometry":  {
                     "type":  "MultiPolygon",
                     "coordinates":  [
                                         [
                                             [
                                                 [
                                                     -73.948751937414,
                                                     40.761764859021
                                                 ],
                                                 [
                                                     -73.948666736498,
                                                     40.761720488341
                                                 ],
                                                 [
                                                     -73.948667543706,
                                                     40.761719592698
                                                 ],
                                                 [
                                                     -73.948686417675,
                                                     40.761698637355
                                                 ],
                                                 [
                                                     -73.948676455677,
                                                     40.761693448712
                                                 ],
                                                 [
                                                     -73.948701888044,
                                                     40.761665215706
                                                 ],
                                                 [
                                                     -73.948711311394,
                                                     40.76167012315
                                                 ],
                                                 [
                                                     -73.948753165227,
                                                     40.761623657718
                                                 ],
                                                 [
                                                     -73.948743741881,
                                                     40.761618750278
                                                 ],
                                                 [
                                                     -73.948769310504,
                                                     40.761590364232
                                                 ],
                                                 [
                                                     -73.948778733849,
                                                     40.76159527167
                                                 ],
                                                 [
                                                     -73.948798761065,
                                                     40.761573038104
                                                 ],
                                                 [
                                                     -73.948789337723,
                                                     40.761568130667
                                                 ],
                                                 [
                                                     -73.948814425066,
                                                     40.761540280198
                                                 ],
                                                 [
                                                     -73.948823848406,
                                                     40.761545187633
                                                 ],
                                                 [
                                                     -73.948866273407,
                                                     40.761498087557
                                                 ],
                                                 [
                                                     -73.948854751129,
                                                     40.761492085981
                                                 ],
                                                 [
                                                     -73.948881103153,
                                                     40.761462829469
                                                 ],
                                                 [
                                                     -73.948892289219,
                                                     40.761468655295
                                                 ],
                                                 [
                                                     -73.948912714627,
                                                     40.761445979738
                                                 ],
                                                 [
                                                     -73.94890174994,
                                                     40.761440268376
                                                 ],
                                                 [
                                                     -73.948927669281,
                                                     40.761411493432
                                                 ],
                                                 [
                                                     -73.948930957976,
                                                     40.761413206749
                                                 ],
                                                 [
                                                     -73.948939172611,
                                                     40.761417484186
                                                 ],
                                                 [
                                                     -73.948980616007,
                                                     40.761371474143
                                                 ],
                                                 [
                                                     -73.948969472567,
                                                     40.761365670858
                                                 ],
                                                 [
                                                     -73.948995319547,
                                                     40.76133697511
                                                 ],
                                                 [
                                                     -73.94900645233,
                                                     40.761342772986
                                                 ],
                                                 [
                                                     -73.94902712539,
                                                     40.761319821963
                                                 ],
                                                 [
                                                     -73.949015992609,
                                                     40.761314024089
                                                 ],
                                                 [
                                                     -73.949040864036,
                                                     40.761286412108
                                                 ],
                                                 [
                                                     -73.949051996814,
                                                     40.761292209979
                                                 ],
                                                 [
                                                     -73.949074726359,
                                                     40.761266976176
                                                 ],
                                                 [
                                                     -73.949091775877,
                                                     40.761248048797
                                                 ],
                                                 [
                                                     -73.949093199436,
                                                     40.761246468139
                                                 ],
                                                 [
                                                     -73.949082066661,
                                                     40.761240670272
                                                 ],
                                                 [
                                                     -73.949100404602,
                                                     40.761220312558
                                                 ],
                                                 [
                                                     -73.949107819903,
                                                     40.761212079816
                                                 ],
                                                 [
                                                     -73.949119563533,
                                                     40.761218195829
                                                 ],
                                                 [
                                                     -73.949152580323,
                                                     40.761181540048
                                                 ],
                                                 [
                                                     -73.949108032686,
                                                     40.761158340483
                                                 ],
                                                 [
                                                     -73.949098148868,
                                                     40.761153193334
                                                 ],
                                                 [
                                                     -73.949092182021,
                                                     40.761159817513
                                                 ],
                                                 [
                                                     -73.949084803193,
                                                     40.7611559754
                                                 ],
                                                 [
                                                     -73.949083222777,
                                                     40.76115515164
                                                 ],
                                                 [
                                                     -73.949065498442,
                                                     40.761145921735
                                                 ],
                                                 [
                                                     -73.949056451598,
                                                     40.761141210796
                                                 ],
                                                 [
                                                     -73.949062419631,
                                                     40.76113458662
                                                 ],
                                                 [
                                                     -73.949040693953,
                                                     40.761123272975
                                                 ],
                                                 [
                                                     -73.949031386671,
                                                     40.761118425943
                                                 ],
                                                 [
                                                     -73.949030790021,
                                                     40.761118115005
                                                 ],
                                                 [
                                                     -73.94903471221,
                                                     40.761113760998
                                                 ],
                                                 [
                                                     -73.949030291786,
                                                     40.761111458253
                                                 ],
                                                 [
                                                     -73.949027333392,
                                                     40.761109917981
                                                 ],
                                                 [
                                                     -73.949025783756,
                                                     40.761109111343
                                                 ],
                                                 [
                                                     -73.94902099516,
                                                     40.761106617528
                                                 ],
                                                 [
                                                     -73.949045724269,
                                                     40.761079164871
                                                 ],
                                                 [
                                                     -73.949049118312,
                                                     40.761080932262
                                                 ],
                                                 [
                                                     -73.949050966271,
                                                     40.761081894818
                                                 ],
                                                 [
                                                     -73.949054020555,
                                                     40.76108348556
                                                 ],
                                                 [
                                                     -73.949058488332,
                                                     40.761085812639
                                                 ],
                                                 [
                                                     -73.949064404207,
                                                     40.761079245171
                                                 ],
                                                 [
                                                     -73.949104950029,
                                                     40.761034231544
                                                 ],
                                                 [
                                                     -73.949112913656,
                                                     40.761038379185
                                                 ],
                                                 [
                                                     -73.949136067018,
                                                     40.761050437264
                                                 ],
                                                 [
                                                     -73.949142960761,
                                                     40.761042783314
                                                 ],
                                                 [
                                                     -73.949150963458,
                                                     40.761046950781
                                                 ],
                                                 [
                                                     -73.949166120049,
                                                     40.761054844091
                                                 ],
                                                 [
                                                     -73.949181010281,
                                                     40.761062598604
                                                 ],
                                                 [
                                                     -73.949182137289,
                                                     40.761063185329
                                                 ],
                                                 [
                                                     -73.949175170061,
                                                     40.761070918493
                                                 ],
                                                 [
                                                     -73.949235733736,
                                                     40.761102457462
                                                 ],
                                                 [
                                                     -73.949242699776,
                                                     40.761094724294
                                                 ],
                                                 [
                                                     -73.949272360712,
                                                     40.76111017111
                                                 ],
                                                 [
                                                     -73.94928068898,
                                                     40.761114508006
                                                 ],
                                                 [
                                                     -73.949273722943,
                                                     40.761122241176
                                                 ],
                                                 [
                                                     -73.949289969876,
                                                     40.761130702268
                                                 ],
                                                 [
                                                     -73.949316763592,
                                                     40.761144656575
                                                 ],
                                                 [
                                                     -73.949335227859,
                                                     40.761154271282
                                                 ],
                                                 [
                                                     -73.949342846995,
                                                     40.761145813488
                                                 ],
                                                 [
                                                     -73.949379112594,
                                                     40.761164699507
                                                 ],
                                                 [
                                                     -73.949372402588,
                                                     40.761172149137
                                                 ],
                                                 [
                                                     -73.949382745758,
                                                     40.761177535999
                                                 ],
                                                 [
                                                     -73.949433505094,
                                                     40.761203969195
                                                 ],
                                                 [
                                                     -73.949440215096,
                                                     40.761196519562
                                                 ],
                                                 [
                                                     -73.949477244326,
                                                     40.761215803008
                                                 ],
                                                 [
                                                     -73.949470534326,
                                                     40.761223252643
                                                 ],
                                                 [
                                                     -73.949482338367,
                                                     40.761229400163
                                                 ],
                                                 [
                                                     -73.949533992763,
                                                     40.761256300168
                                                 ],
                                                 [
                                                     -73.949541290669,
                                                     40.761248197921
                                                 ],
                                                 [
                                                     -73.949561806589,
                                                     40.761258881489
                                                 ],
                                                 [
                                                     -73.949576219826,
                                                     40.761266387202
                                                 ],
                                                 [
                                                     -73.949568846064,
                                                     40.761274572265
                                                 ],
                                                 [
                                                     -73.949600571772,
                                                     40.761291094202
                                                 ],
                                                 [
                                                     -73.949607945532,
                                                     40.761282909137
                                                 ],
                                                 [
                                                     -73.949645015108,
                                                     40.761302214158
                                                 ],
                                                 [
                                                     -73.949638288524,
                                                     40.761309681806
                                                 ],
                                                 [
                                                     -73.949655286104,
                                                     40.761318533993
                                                 ],
                                                 [
                                                     -73.949761856704,
                                                     40.761374030898
                                                 ],
                                                 [
                                                     -73.949844593143,
                                                     40.761417117379
                                                 ],
                                                 [
                                                     -73.949869934514,
                                                     40.7614303145
                                                 ],
                                                 [
                                                     -73.949833984376,
                                                     40.761470228135
                                                 ],
                                                 [
                                                     -73.949862645267,
                                                     40.761485153871
                                                 ],
                                                 [
                                                     -73.949832409435,
                                                     40.761518721433
                                                 ],
                                                 [
                                                     -73.949807343874,
                                                     40.761505668505
                                                 ],
                                                 [
                                                     -73.949797144353,
                                                     40.761516992411
                                                 ],
                                                 [
                                                     -73.949753871267,
                                                     40.761494457325
                                                 ],
                                                 [
                                                     -73.949743671263,
                                                     40.761489145301
                                                 ],
                                                 [
                                                     -73.949720772446,
                                                     40.76151450343
                                                 ],
                                                 [
                                                     -73.949701999795,
                                                     40.761517843313
                                                 ],
                                                 [
                                                     -73.9496965502,
                                                     40.761515480711
                                                 ],
                                                 [
                                                     -73.949692265883,
                                                     40.761500684447
                                                 ],
                                                 [
                                                     -73.949715820146,
                                                     40.761474641325
                                                 ],
                                                 [
                                                     -73.949608160465,
                                                     40.761418345154
                                                 ],
                                                 [
                                                     -73.949586240709,
                                                     40.761442580756
                                                 ],
                                                 [
                                                     -73.949584908431,
                                                     40.7614440543
                                                 ],
                                                 [
                                                     -73.949565493304,
                                                     40.761448177318
                                                 ],
                                                 [
                                                     -73.949560586383,
                                                     40.761445485362
                                                 ],
                                                 [
                                                     -73.949556598857,
                                                     40.761431355596
                                                 ],
                                                 [
                                                     -73.949568435311,
                                                     40.761418215209
                                                 ],
                                                 [
                                                     -73.949580766032,
                                                     40.761404525729
                                                 ],
                                                 [
                                                     -73.949564543855,
                                                     40.761396078197
                                                 ],
                                                 [
                                                     -73.94946365463,
                                                     40.761343538159
                                                 ],
                                                 [
                                                     -73.949396695535,
                                                     40.761308668237
                                                 ],
                                                 [
                                                     -73.949391532341,
                                                     40.761314400383
                                                 ],
                                                 [
                                                     -73.949354172792,
                                                     40.761294944769
                                                 ],
                                                 [
                                                     -73.949359335987,
                                                     40.761289212624
                                                 ],
                                                 [
                                                     -73.94934774267,
                                                     40.761283175045
                                                 ],
                                                 [
                                                     -73.949296370081,
                                                     40.761256420962
                                                 ],
                                                 [
                                                     -73.949291205698,
                                                     40.761262154005
                                                 ],
                                                 [
                                                     -73.94925690879,
                                                     40.761244292699
                                                 ],
                                                 [
                                                     -73.949229702409,
                                                     40.761274498954
                                                 ],
                                                 [
                                                     -73.949236516569,
                                                     40.761278047244
                                                 ],
                                                 [
                                                     -73.949220857452,
                                                     40.761295431793
                                                 ],
                                                 [
                                                     -73.949210976712,
                                                     40.761306400989
                                                 ],
                                                 [
                                                     -73.949204162551,
                                                     40.761302852698
                                                 ],
                                                 [
                                                     -73.94917394662,
                                                     40.761336397584
                                                 ],
                                                 [
                                                     -73.949048617506,
                                                     40.761475535955
                                                 ],
                                                 [
                                                     -73.94903400967,
                                                     40.761491752988
                                                 ],
                                                 [
                                                     -73.948822318511,
                                                     40.761726769239
                                                 ],
                                                 [
                                                     -73.948831474331,
                                                     40.761731537876
                                                 ],
                                                 [
                                                     -73.948805564392,
                                                     40.761760190333
                                                 ],
                                                 [
                                                     -73.948797723829,
                                                     40.761756091353
                                                 ],
                                                 [
                                                     -73.948719407139,
                                                     40.761842696785
                                                 ],
                                                 [
                                                     -73.948693856339,
                                                     40.761829339028
                                                 ],
                                                 [
                                                     -73.948751937414,
                                                     40.761764859021
                                                 ]
                                             ]
                                         ]
                                     ]
                 }
}
